"FilingID","Name","Street 1","Street 2","City","State","Country","Postal Code","Private Residence","Phone","Fax","Type","Description"
1025283,"ARBOR FINANCIAL SYSTEMS","1-6 YARMOUTH PLACE","","LONDON","","United Kingdom","W1J7BU","N","+442030709650","","A third-party unaffiliated record keeper","PORTFOLIO AND TRADING RECORDS. ARBOR PROVIDES OUR PORTFOLIO MANAGEMENT SYSTEM AND ORDER MANAGEMENT SYSTEM."
1025283,"BNP PARIBAS FUND ADMINISTRATION SERVICES (IRELAND) LIMITED","TRINITY POINT","","DUBLIN 2","","Ireland","","N","+35316126400","","A third-party unaffiliated record keeper","BNP IS THE ADMINISTRATOR FOR THE PRIVATE FUND AND MAINTAINS THE ACCOUNTING AND FINANCIAL BOOKS AND RECORDS OF THE PRIVATE FUND."
1025283,"BNP PARIBAS FUND ADMINISTRATION SERVICES (CAYMAN) LIMITED","GRAND PAVILION COMMERCIAL CENTRE","PO BOX 2003, 802 WEST BAY ROAD","GEORGE TOWN","","Cayman Islands","KY1-1104","N","+345 814 7420","","A third-party unaffiliated record keeper","FUND ADMINISTRATION BOOKS AND RECORDS RELATING TO BOARD RECORDS AND OPERATING DOCUMENTATION."
1025283,"EDGE TECHNOLOGY SYSTEMS","TELECITY GROUP","8-9 HARBOUR EXCHANGE SQUARE","LONDON","","United Kingdom","E14 9GE","N","+442035357800","","A third-party unaffiliated record keeper","EDGE TECHNOLOGY SYSTEMS PROVIDES AND SUPPORTS OUR INFORMATION TECHNOLOGY SYSTEMS, INCLUDING ELECTRONIC STORAGE AND BACKUP OF ALL BOOKS AND RECORDS."
1030711,"BRIDGEVIEW CFO SOLUTIONS","ONE FERRY BUILDING","SUITE 255","SAN FRANCISCO","CA","United States","94111","N","415-677-5350","","A third-party unaffiliated record keeper","ALL ADVISORY BOOKS AND RECORDS."
1030711,"CONIFER FINANCIAL SERVICES","ONE FERRY BUILDING","SUITE 255","SAN FRANCISCO","CA","United States","94111","N","415-677-1500","","A third-party unaffiliated record keeper","FUND ADMINISTRATION RECORDS."
1030399,"QUINTILLION LIMITED","24 - 26 CITY QUAY","","DUBLIN","","Ireland","2","N","+35315238000","+35315238300","A third-party unaffiliated record keeper","FUND INVESTOR DOCUMENTATION AND FUND VALUATION RECORDS."
1022648,"HACKWOOD SECRETARIES LIMITED","ONE SILK STREET","","LONDON","","United Kingdom","EC2Y 8HQ","N","44 02074562000","","A third-party unaffiliated record keeper","STATUTORY BOOKS."
1031416,"IRON MOUNTAIN","NORMAN ROAD","PICKARDY MANOR WAY","BELVEDERE, KENT","","United Kingdom","DA17 6JY","N","+44800270270","","A third-party unaffiliated record keeper","CERTAIN BOOKS & RECORDS AS REQUIRED UNDER RULE 204-2 OF THE ADVISERS ACT."
1029411,"CITCO FUND SERVICES (IRELAND) LIMITED","CUSTOM HOUSE PLAZA BLOCK 6","INTERNATIONAL FINANCIAL SERVICES CENTRE","DUBLIN","","Ireland","","N","353214836675","","A third-party unaffiliated record keeper","THE BOOKS AND RECORDS KEPT BY CITCO FUND SERVICES CONSIST OF THOSE RECORDS TYPICALLY KEPT BY A FUND ADMINISTRATOR INCLUDING, BUT NOT LIMITED TO, CORPORATE AND FINANCIAL RECORDS, INVESTOR RELATIONSHIP RECORDS AND FUND PORTFOLIO MANAGEMENT RECORDS."
1028812,"IRON MOUNTAIN","NORMAN ROAD","","BELVEDERE","","United Kingdom","DA176JY","N","440800270270","","A third-party unaffiliated record keeper","ARCHIVED BUSINESS RECORDS"
1029609,"TRIDENT FUND SERVICES, INC.","3060 PEACHTREE ROAD, NW","SUITE 1415","ATLANTA","GA","United States","30305","N","404-920-0226Q","","A third-party unaffiliated record keeper","BOOKS AND RECORDS RELATED TO PRIVATE FUND'S OPERATIONS."
1035021,"ABERDEEN ASSET MANAGEMENT PLC","10 QUEENS TERRACE","","ABERDEEN","","United Kingdom","AB10 1YG","N","441224631999","","One of your branch offices or affiliates","PARENT COMPANY AND MAY MAINTAIN SOME BOOKS AND RECORDS FOR THE REGISTRANT"
1035021,"ABERDEEN ASSET MANAGEMENT PLC","BOW BELLS HOUSE","1 BREAD STREET","LONDON","","United Kingdom","EC4M 9HH","N","442074636000","","One of your branch offices or affiliates","PARENT COMPANY AND MAY MAINTAIN SOME BOOKS AND RECORDS FOR THE REGISTRANT"
1035021,"IRON MOUNTAIN","2500 HENDERSON DRIVE","","SHARON HILL","PA","United States","19079","N","215-633-0525","","A third-party unaffiliated record keeper","PRIMARY ARCHIVING SERVICE FOR THE REGISTRANT"
1035021,"STATE STREET BANK AND TRUST COMPANY","2 AVENUE DE LAFAYETTE","","BOSTON","MA","United States","02111","N","617-664-9566","","Other","PRIVATE FUNDS"
1035021,"RECALL LIMITED","20 WINSLOW STREET, HUNG HOM","","HONG KONG","","Hong kong","","N","25112829","25114333","A third-party unaffiliated record keeper","CLIENTS CDD DOCUMENTS"
1035021,"RBC INVESTOR SERVICES HONG KONG LIMITED","51F, CENTRAL PLAZA, 18 HARBOUR ROAD, WANCHAI, HONG","","HONG KONG","","Hong kong","","N","852-28681309","","Other","THIS IS A THIRD - PARTY ADMINISTRATOR WHICH KEEPS ALLL INVESTORS DOCUMENTS EXCEPT THE CLIENT AGREEMENTS."
1035021,"CONSEC SERVICES LIMITED","ROOM 409, 4/F NAN FUNG TOWER","88 CONNAUGHT ROAD CENTRAL","HONG KONG","","Hong kong","","N","852 2738 1411","852 2730 4379","Other","THE MINUTE BOOKS OF AIFML ARE KEPT AT THE ABOVE ADDRESS"
1035549,"ABERDEEN ASSET MANAGEMENT PLC","10 QUEENS TERRACE","","ABERDEEN","","United Kingdom","AB10 1YG","N","441224631999","","One of your branch offices or affiliates","PARENT COMPANY AND MAY MAINTAIN SOME BOOKS AND RECORDS FOR THE REGISTRANT"
1035549,"ABERDEEN ASSET MANAGEMENT PLC","BOW BELLS HOUSE","1 BREAD STREET","LONDON","","United Kingdom","EC4M 9HH","N","442074636000","","One of your branch offices or affiliates","PARENT COMPANY AND MAY MAINTAIN SOME BOOKS AND RECORDS FOR THE REGISTRANT"
1035549,"IRON MOUNTAIN","2500 HENDERSON DRIVE","","SHARON HILL","PA","United States","19079","N","215-633-0525","","A third-party unaffiliated record keeper","PRIMARY ARCHIVING SERVICE FOR THE REGISTRANT"
1035549,"STATE STREET BANK AND TRUST COMPANY","2 AVENUE DE LAFAYETTE","","BOSTON","MA","United States","02111","N","617-664-9566","","Other","PRIVATE FUNDS"
1035549,"RECALL LIMITED","20 WINSLOW STREET, HUNG HOM","","HONG KONG","","Hong kong","","N","25112829","25114333","A third-party unaffiliated record keeper","CLIENTS CDD DOCUMENTS"
1035549,"RBC INVESTOR SERVICES HONG KONG LIMITED","51F, CENTRAL PLAZA, 18 HARBOUR ROAD, WANCHAI, HONG","","HONG KONG","","Hong kong","","N","852-28681309","","Other","THIS IS A THIRD - PARTY ADMINISTRATOR WHICH KEEPS ALLL INVESTORS DOCUMENTS EXCEPT THE CLIENT AGREEMENTS."
1035549,"CONSEC SERVICES LIMITED","ROOM 409, 4/F NAN FUNG TOWER","88 CONNAUGHT ROAD CENTRAL","HONG KONG","","Hong kong","","N","852 2738 1411","852 2730 4379","Other","THE MINUTE BOOKS OF AIFML ARE KEPT AT THE ABOVE ADDRESS"
1033170,"LAB SERVICES PSF S.A.","LAB DATA CENTRE","ZONE INDUSTRIELLE","MUNSBACH","","Luxembourg","L-5366","N","+352 350 222 1","+352350222350","A third-party unaffiliated record keeper","A PORTION OF THE ORIGINAL BOOKS AND RECORDS ARE MAINTAINED BY LAB SERVICES PSF S.A."
1028097,"IDALION CAPITAL (UK) LLP","12 HAY HILL","","LONDON","","United Kingdom","W1J 8NR","N","+442070168948","","One of your branch offices or affiliates","ORGANIZATIONAL AND OPERATIONAL RECORDS."
1028097,"GLOBEOP FINANCIAL SERVICES (CAYMAN) LIMITED","45 MARKET STREET","SUITE 3205","CAMANA BAY","","Cayman Islands","KY1-9003","N","+1 345 943 333","+1 345 946 765","A third-party unaffiliated record keeper","BOOKS AND RECORDS OF THE FUNDS."
1033170,"FRANKLIN RESOURCES, INC.","ONE FRANKLIN PARKWAY","","SAN MATEO","CA","United States","94403","N","650-525-7510","650-525-7570","One of your branch offices or affiliates","SEE ""MISCELLANEOUS SECTION""."
1033170,"FRANKLIN TEMPLETON SERVICES, LLC","140 FOUNTAIN PARKWAY","","ST. PETERSBURG","FL","United States","33716","N","954-527-7500","954-527-7329","One of your branch offices or affiliates","A PORTION OF THE ORIGINAL BOOKS AND RECORDS ARE MAINTAINED BY FRANKLIN TEMPLETON SERVICES, LLC."
1036368,"CORNERSTONE INVESTMENT MANAGEMENT, INC","3155 W. BIG BEAVER ROAD","SUITE 207","TROY","MI","United States","48084","N","248-649-4549","","A third-party unaffiliated record keeper","RECORDS PERTAINING TO FUND AND ADVISORY BUSINESS OPERATIONS."
1029196,"SS&C FUND SERVICES","675 THIRD AVENUE","17TH FLOOR","NEW YORK","NY","United States","10017","N","212-319-9730","","A third-party unaffiliated record keeper","IN ITS CAPACITY AS A THIRD PARTY ADMINISTRATOR OF THE PRIVATE FUNDS MANAGED BY MELKONIAN CAPITAL MANAGEMENT, LLC, SS&C FUND SERVICES MAINTAINS CERTAIN BOOKS AND RECORDS RELATED TO THE PRIVATE FUNDS AT THIS LOCATION."
1031200,"SMT TRUSTEES (IRELAND) LIMITED","HARCOURT CENTRE, HARCOURT ROAD","BLOCK 5","DUBLIN 2","","Ireland","","N","+353016039921","","A third-party unaffiliated record keeper","CERTAIN BOOKS AND RECORDS RELATED TO INVESTMENTS OF THE ADVISORY CLIENTS"
1031200,"GLOBEOP FINANCIAL SERVICES (IRELAND) LIMITED","LA TOUCHE HOUSE, CUSTOM HOUSE DOCK","IFSC","DUBLIN 1","","Ireland","","N","+353 1 514 960","","A third-party unaffiliated record keeper","CERTAIN BOOKS AND RECORDS RELATED TO INVESTMENTS OF THE ADVISORY CLIENTS"
1031200,"SUMITOMO MITSUI TRUST (UK) LIMITED","155 BISHOPSGATE","1ST FLOOR","LONDON","","United Kingdom","EC2M 3XU","N","+4420 75628400","","A third-party unaffiliated record keeper","CERTAIN BOOKS AND RECORDS RELATED TO INVESTMENTS OF THE ADVISORY CLIENTS"
1023548,"IRON MOUNTAIN UK","CODY 1 & 2","UNIT 2A CODY ROAD","LONDON","","United Kingdom","E16 4TG","N","44800270270","","A third-party unaffiliated record keeper","CERTAIN BOOKS AND RECORDS REQUIRED BY SECTION 204 OF THE INVESTMENT ADVISERS ACT OF 1940 AND RELEVANT UK FINANCIAL CONDUCT AUTHORITY (FCA) RECORD KEEPING REQUIREMENTS ARE ARCHIVED AT IRON MOUNTAIN."
1023548,"MASSACHUSETTS MUTUAL LIFE INSURANCE COMPANY","1295 MAIN STREET","","SPRINGFIELD","MA","United States","01111","N","413-788-8411","413-744-6338","One of your branch offices or affiliates","CERTAIN BOOKS AND RECORDS REQUIRED BY SECTION 204 OF THE INVESTMENT ADVISERS ACT OF 1940 AND RELEVANT UK FINANCIAL CONDUCT AUTHORITY (FCA) RECORD KEEPING REQUIREMENTS IN RELATION TO ACTIVITIES CARRIED OUT BY THE FIRM, INCLUDING THOSE RELATING TO THE FIRM'S INVESTMENT ADVISORY BUSINESS."
1023548,"IRON MOUNTAIN UK","24-26 GILLENDER STREET","","LONDON","","United Kingdom","E3 3LB","N","44800270270","","A third-party unaffiliated record keeper","CERTAIN BOOKS AND RECORDS REQUIRED BY SECTION 204 OF THE INVESTMENT ADVISERS ACT OF 1940 AND RELEVANT UK FINANCIAL CONDUCT AUTHORITY (FCA) RECORD KEEPING REQUIREMENTS ARE ARCHIVED AT IRON MOUNTAIN."
1023548,"IRON MOUNTAIN UK","NORMAN ROAD","","KENT","","United Kingdom","DA17 6JY","N","44800270270","","A third-party unaffiliated record keeper","CERTAIN BOOKS AND RECORDS REQUIRED BY SECTION 204 OF THE INVESTMENT ADVISERS ACT OF 1940 AND RELEVANT UK FINANCIAL CONDUCT AUTHORITY (FCA) RECORD KEEPING REQUIREMENTS ARE ARCHIVED AT IRON MOUNTAIN."
1023548,"IRON MOUNTAIN UK","CODY 3 & 4, UNIT 8 SOUTH CRESCENT","CODY ROAD","LONDON","","United Kingdom","E16 4SR","N","44800270270","","A third-party unaffiliated record keeper","CERTAIN BOOKS AND RECORDS REQUIRED BY SECTION 204 OF THE INVESTMENT ADVISERS ACT OF 1940 AND RELEVANT UK FINANCIAL CONDUCT AUTHORITY (FCA) RECORD KEEPING REQUIREMENTS ARE ARCHIVED AT IRON MOUNTAIN."
1023548,"BABSON CAPITAL MANAGEMENT LLC","1500 MAIN STREET","P.O. BOX 15189","SPRINGFIELD","MA","United States","01115-5189","N","413-226-1000","713-226-2688","One of your branch offices or affiliates","CERTAIN BOOKS AND RECORDS REQUIRED BY SECTION 204 OF THE INVESTMENT ADVISERS ACT OF 1940 AND RELEVANT UK FINANCIAL CONDUCT AUTHORITY (FCA) RECORD KEEPING REQUIREMENTS IN RELATION TO ACTIVITIES CARRIED OUT BY THE FIRM, INCLUDING THOSE RELATING TO THE FIRM'S INVESTMENT ADVISORY BUSINESS."
1023548,"IRON MOUNTAIN UK","GATE 1 DOCKLANDS DATA CENTRE","LEVEN ROAD POPLAR","LONDON","","United Kingdom","E14 0LL","N","44800270270","","A third-party unaffiliated record keeper","CERTAIN BOOKS AND RECORDS REQUIRED BY SECTION 204 OF THE INVESTMENT ADVISERS ACT OF 1940 AND RELEVANT UK FINANCIAL CONDUCT AUTHORITY (FCA) RECORD KEEPING REQUIREMENTS ARE ARCHIVED AT IRON MOUNTAIN."
1023548,"IRON MOUNTAIN","175 BEARFOOT ROAD","","NORTHBOROUGH","MA","United States","01532","N","888-800-1552","","A third-party unaffiliated record keeper","CERTAIN BOOKS AND RECORDS REQUIRED BY SECTION 204 OF THE INVESTMENT ADVISERS ACT OF 1940 AND RELEVANT UK FINANCIAL CONDUCT AUTHORITY (FCA) RECORD KEEPING REQUIREMENTS ARE ARCHIVED AT IRON MOUNTAIN."
1023548,"INFOSHRED LLC","3 CRAFTSMAN ROAD","","EAST WINDSOR","CT","United States","06088","N","978-671-6400","","A third-party unaffiliated record keeper","THIS LOCATION IS USED TO STORE CERTAIN BOOKS AND RECORDS. IT IS ALSO USED AS AN OFF-SITE DEPOSITARY FOR ELECTRONIC BACK-UPS OF COMPANY DATA FOR DISASTER RECOVERY PURPOSES."
1030048,"DAVID WARD'S OFFICE","1971 REILY WOODS LANE","","OXFORD","OH","United States","45056","Y","615-665-1409","615-665-2912","One of your branch offices or affiliates","FUND ORGANIZATION DOCUMENTS."
1026664,"SB CHINA & INDIA HOLDINGS LIMITED","RM 806 EAST TOWN BUILDING","41 LOCKHART ROAD","WANCHAI","","Hong kong","","N","852-3141-4183","","One of your branch offices or affiliates","BOOKS AND RECORDS OF SB CHINA & INDIA HOLDINGS LIMITED"
1027549,"BNY MELLON FUND SERVICES (IRELAND) LIMITED","GUILD HOUSE","GUILD STREET, IFSC","DUBLIN","","Ireland","DUBLIN 1","N","+3531 5427920","","A third-party unaffiliated record keeper","THIRD PARTY ADMINISTRATOR. THE ABOVE NAMED THIRD-PARTY ADMINISTRATOR IS THE PRIMARY BOOKS OF RECORD AND INCLUDES RECORDS IN RELATION TO ANTI-MONEY LAUNDERING IDENTIFICATION VERIFICATION DOCUMENTS"
1015857,"KAUFMAN ROSSIN FUND SERVICES, LLC","2811 MCKINNEY AVE.","SUITE 301","DALLAS","TX","United States","75204","N","972-338-2791","","A third-party unaffiliated record keeper","ACCOUNTING BOOKS AND RECORDS."
1033015,"OPUS FUND SERVICES","1812 HIGH GROVE LANE","SUITE 101","NAPERVILLE","IL","United States","60540","N","(312) 256-9974","","Other","CERTAIN BOOKS AND RECORDS RELATED TO PRIVATE FUNDS."
1035501,"BROADSCOPE FUND ADMINISTRATORS","95 N. STATE ROUTE 17","SUITE 304","PARAMUS","NJ","United States","07652","N","201-397-1662","","A third-party unaffiliated record keeper","GENERAL LEDGER FOR PRIVATE INVESTMENT VEHICLES"
1034619,"HEDGEASSIST, LLC","18029 CALLE AMBIENTE","SUITE 519","RANCHO SANTA FE","CA","United States","92067","N","760.804.7697","760.929.9637","A third-party unaffiliated record keeper","INVESTOR RELATED AND FINANCIAL RECORDS. HEDGEASSIST, LLC SERVES AS SUB-ADMINISTRATOR TO STONEPINE CAPITAL, LP."
1034619,"YULISH & ASSOCIATES","411 LOS SANTOS DRIVE","","BODEGA BAY","CA","United States","94923","N","415.641.4246","","A third-party unaffiliated record keeper","FINANCIAL RECORDS. YULISH & ASSOCIATES SERVES AS FUND ACCOUNTANT TO STONEPINE CAPITAL, LP."
1034619,"STONEPINE CAPITAL MANAGEMENT, LLC","475 GATE FIVE ROAD","SUITE 324","SAUSALITO","CA","United States","94965","N","415-331-7100","","One of your branch offices or affiliates","BROKERAGE STATEMENTS AND SIMILAR DOCUMENTS."
1028597,"GLOBEOP FINANCIAL SERVICES LLC","ONE SOUTH ROAD","","HARRISON","NY","United States","10528","N","914 670 3740","","A third-party unaffiliated record keeper","TRADING ACTIVITY FOR FUNDS MANAGED"
1029926,"ROSALYN EGELAND","15 TEBOURBA DRIVE","","GOSPORT","","United Kingdom","PO12 2NT","Y","44 2392 584483","","A third-party unaffiliated record keeper","BANK RECORDS, ACCOUNTS"
1014638,"GRANT THORNTON FUND ADMINISTRATION LIMITED","3 BEDLAM COURT","SUITE 3, 2ND FLOOR, MONTARIK HOUSE","GIBRALTAR","","Gibraltar","","N","TBC","","A third-party unaffiliated record keeper","GRANT THORNTON FUND ADMINISTRATION LIMITED IS THE INDEPENDENT FUND ADMINISTRATOR TO THE PRIVATE FUNDS ADVISED BY SEALARK LLP AND MAINTAINS CERTAIN OF THE PRIVATE FUNDS' ACCOUNTING BOOKS AND RECORDS."
1032122,"CORDIUM","NORFOLK HOUSE","31 ST JAMES'S SQUARE","LONDON","","United Kingdom","SW1Y 4JJ","N","44 20 7408 244","","A third-party unaffiliated record keeper","FINANCIAL RECORDS, INVESTOR RECORDS"
1030467,"STATE STREET ADMINISTRATION SERVICES (UK) LTD","20 CHURCHILL PLACE","CANARY WHARF","LONDON","","United Kingdom","E14 5HJ","N","442033958000","","A third-party unaffiliated record keeper","ACCOUNTING RECORDS REGARDING PRIVATE FUNDS."
1030467,"AZTEC FINANCIAL SERVICES (GUERNSEY) LIMITED","EAST WING, TRAFALGAR COURT","LES BANQUES","ST PETER PORT","","Guernsey","GY1 3PP","N","441481749700","","A third-party unaffiliated record keeper","ACCOUNTING RECORDS REGARDING PRIVATE FUNDS."
1030467,"AZTEC FINANCIAL SERVICES (UK) LTD","FORUM 3","SOLENT BUSINESS PARK","WHITELEY","","United Kingdom","PO15 7FH","N","448455055660","","A third-party unaffiliated record keeper","ACCOUNTING RECORDS REGARDING PRIVATE FUNDS."
1030467,"SANNE GROUP (GUERNSEY) LIMITED","3RD FLOOR, LA PLAIDERIE CHAMBERS","LA PLAIDERIE","ST PETER PORT","","Guernsey","GY1 1WG","N","44 1481 739800","","A third-party unaffiliated record keeper","ACCOUNTING RECORDS REGARDING PRIVATE FUNDS"
1028082,"STRAIT CAPITAL COMPANY LTD.","8201 PRESTON RD #460","","DALLAS","TX","United States","75225","N","214-891-1610","","A third-party unaffiliated record keeper","THIS IS THE PRIVATE FUND'S THIRD-PARTY ADMINISTRATOR WHICH MAINTAINS CERTAIN BOOKS AND RECORDS FOR THE FUND."
1028878,"TRIDENT FUND SERVICES, INC","3060 PEACHTREE ROAD, NW","SUITE 1415","ATLANTA","GA","United States","30305","N","4043642019","4043642019","A third-party unaffiliated record keeper","BALANCE SHEET, STATEMENTS OF OPERATIONS"
1028647,"EASYNET","ST JAMES HOUSE","OLDBURY","BRACKNELL","","United Kingdom","RG12 8TH","N","44 01344543700","","A third-party unaffiliated record keeper","ELECTRONIC DATA RECOVERY CENTRE"
1032386,"L CAPITAL (SHANGHAI) CONSULTANCY CO., LTD","SUITE 4101, TOWER 2, PLAZA 66","1266 NANJING ROAD WEST","SHANGHAI","","China","200040","N","+862160321688","+862161135705","One of your branch offices or affiliates","BOOKS AND RECORDS PERTAINING TO CHINA OPERATIONS."
1032386,"L CAPITAL MUMBAI ADVISORY SERVICES PRIVATE LIMITED","203-204, SECOND FLOOR TOWER WING,","TAJ MAHAL PALACE & TOWER APOLLO BUNDER","MUMBAI","","India","400001","N","+912216153200","","One of your branch offices or affiliates","BOOKS AND RECORDS PERTAINING TO INDIA OPERATIONS."
1032386,"L CAPITAL SINGAPORE PTE LTD","1 KIM SENG PROMENADE #18-07/12","GREAT WORLD CITY WEST TOWER","SINGAPORE","","Singapore","237994","N","+65 6672 7600","+65 6672 7601","One of your branch offices or affiliates","BOOKS AND RECORDS PERTAINING TO SINGAPORE OPERATIONS."
1032386,"L CAPITAL (HK) LIMITED","SUITE 2704, 27TH FLOOR, OXFORD HOUSE, TAIKOO PLACE","979 KING'S ROAD","HONG KONG","","Hong kong","","N","+852 2106 3966","+852 2523 7355","One of your branch offices or affiliates","BOOKS AND RECORDS PERTAINING TO HONG KONG OPERATIONS."
1028647,"PERELLA WEINBERG PARTNERS GROUP LP","767 FIFTH AVENUE","","NEW YORK CITY","NY","United States","10153","N","212 287 3200","","One of your branch offices or affiliates","FUND KYC/AML RECORDS"
1028647,"MDNX","INBUCON HOUSE","EGHAM","SURREY","","United Kingdom","TW20 0HR","N","44 01920484200","","A third-party unaffiliated record keeper","ELECTRONIC DATA RECOVER CENTER"
1028647,"PWREF I HOLDING SARL","22, GRAND RUE","","LUXEMBOURG","","Luxembourg","L-1660","N","+352 262 029 8","","One of your branch offices or affiliates","BACK-OFFICE FUNCTION. FINANCIAL AND ACCOUNTING BOOKS AND RECORDS."
1030243,"SOMERS CAPITAL ADVISERS, LLC","5410 MARDEN DRIVE","","DAVIS","CA","United States","95618","Y","530-759-9918","530-759-9918","One of your branch offices or affiliates","COPIES OF CLIENTS' BOOKS AND RECORDS ARE KEPT AT THIS LOCATION."
1030243,"MITSUBISHI UFJ FUND SERVICES LIMITED","BELVEDERE BUILDING","69 PITTS BAY ROAD","PEMBROKE","","Bermuda","HM 08","N","441-299-3882","441-292-8200","A third-party unaffiliated record keeper","ORIGINALS OF CLIENTS' BOOKS AND RECORDS ARE KEPT AT THE OFFICES OF MITSUBISHI UFJ FUND SERVICES LIMITED, WHICH SERVES AS A LICENSED ADMINISTRATOR, REGISTRAR, TRANSFER AGENT, AND SECRETARY OF THE CLIENTS."
1030243,"SOMERS INVESTOR SERVICES LTD.","6 DUNDONALD STREET","","HAMILTON","","Bermuda","HM 10","N","441-295-1253","441-295-0119","A third-party unaffiliated record keeper","COPIES OF CLIENTS' BOOKS AND RECORDS ARE KEPT AT THE OFFICES OF SOMERS INVESTOR SERVICES LTD., WHICH SERVES AS THE CLIENTS' MANAGER."
1029909,"ATHENIAN VENTURE PARTNERS","2400 E. COMMERCIAL BOULEVARD","","FT LAUDERDALE","FL","United States","33308","N","614-360-2001","","One of your branch offices or affiliates","COPIES OF TAX RETURNS, FINANCIAL STATEMENTS AND BANK STATEMENTS"
1030166,"MORGAN STANLEY FUND SERVICES (BERMUDA) LTD.","2 CHURCH STREET","","HAMILTON","","Bermuda","","N","914-225-8885","","Other","THE ADMINISTRATOR WILL MAINTAIN RECORDS SUCH AS SUBSCRIPTION DOCUMENTS AND NAV CALCULATIONS."
1031254,"BARING NORTH AMERICA LLC","INDEPENDENCE WHARF","470 ATLANTIC AVENUE","BOSTON","MA","United States","02210","N","617-946-5200","","One of your branch offices or affiliates","BARING NORTH AMERICA LLC MAINTAINS CERTAIN BOOKS AND RECORDS RELATING TO A FEW CLIENTS OF BARING ASSET MANAGEMENT LIMITED."
1031254,"RESTORE PLC","8 BEAM REACH","COLDHARBOUR LANE","RAINHAM ESSEX","","United Kingdom","RM13 9YB","N","01708 527 600","01708 527651","A third-party unaffiliated record keeper","RESTORE PLC IS USED TO RETAIN CERTAIN BOOKS AND RECORDS THAT ARE NO LONGER REQUIRED TO BE KEPT ON-SITE.  SUCH BOOKS AND RECORDS ARE ARCHIVED AT RESTORE PLC."
1031254,"INSTITUTIONAL SHAREHOLDER SERVICES","702 KING FARM BOULEVARD","SUITE 400","ROCKVILLE","MD","United States","20850-4045","N","405.366.5101","405.366.5050","A third-party unaffiliated record keeper","CERTAIN BOOKS AND RECORDS RELATING TO APPLICANT'S PROXY VOTING ACTIVITIES ARE MAINTAINED BY INSTITUTIONAL SHAREHOLDER SERVICES"
1031254,"BARING ASSET MANAGEMENT (ASIA) LIMITED","19/F EDINBURGH TOWER, 15 QUEEN'S ROAD","THE LANDMARK","HONG KONG","","China","","N","852-2841-1411","852-2845-9050","One of your branch offices or affiliates","BARING ASSET MANAGEMENT (ASIA) LIMITED MAINTAINS CERTAIN BOOKS AND RECORDS RELATING TO CERTAIN TRADE ACTIVITY UNDERTAKEN."
1032714,"MUFG FUND SERVICES (IRELAND) LIMITED","ORMONDE HOUSE","12/13 LOWER LEESON STREET","DUBLIN 2","","Ireland","","N","+353 1 647 050","","A third-party unaffiliated record keeper","THIS IS THE ADDRESS OF THE FUND ADMINISTRATOR THAT WILL HOLD BOOKS AND RECORDS RELATING TO THE ADMINISTRATION OF THE FUND"
1032319,"JP MORGAN HEDGE FUND SERVICES","ONE BEACON STREET","","BOSTON","MA","United States","02108","N","617-557-8000","","Other","BOOKS AND RECORDS CUSTOMARILY KEPT BY A THIRD-PARTY UNAFFILATED CUSTOMARILY KEPT BY ADMINISTRATOR"
1032319,"JP MORGAN CLEARING CORP","3 CHASE METROTECH CENTER","","BROOKLYN","NY","United States","11245","N","347-643-1000","","Other","BOOKS AND RECORDS CUSTOMARILY KEPT BY A THIRD-PARTY UNAFFILATED PRIME BROKER/CUSTODIAN"
1032319,"JP MORGAN CHASE NA","270 PARK AVENUE","","NEW YORK","NY","United States","10017","N","2122706000","","Other","BOOKS AND RECORDS CUSTOMARILY KEPT BY A THIRD-PARTY UNAFFILATED CUSTODIAN"
1032319,"NEOVEST","383 MADISON AVENUE","4TH FLOOR","NEW YORK","NY","United States","10017","N","800-433-4276","","Other","BOOKS AND RECORDS CUSTOMARILY KEPT BY A THIRD-PARTY UNAFFILATED TRADING TECHNOLOGY BROKER SERVICES COMPANY"
1032319,"BTIG","825 THIRD AVENUE","6TH FLOOR","NEW YORK","NY","United States","10022","N","212 593 7555","","Other","BOOKS AND RECORDS CUSTOMARILY KEPT BY A THIRD-PARTY UNAFFILATED OUTSOURCED TRADING PARTNER"
1032319,"JEFFERIES LLC","520 MADISON AVENUE","","NEW YORK","NY","United States","10022","N","212-284-2300","","Other","BOOKS AND RECORDS CUSTOMARILY KEPT BY A THIRD-PARTY UNAFFILATED PRIME BROKER/CUSTODIAN."
1032649,"M & C SERVICES PRIVATE LIMITED","138 ROBINSON ROAD #17-00","","SINGAPORE","","Singapore","068906","N","+65 6228 0543","","A third-party unaffiliated record keeper","MINUTES, CORPORATE REGISTERS"
1032649,"CHAMP PRIVATE EQUITY PTE LTD","50 RAFFLES PLACE","#35-36/07 SINGAPORE LAND TOWER","SINGAPORE","","Singapore","048623","N","+656576 9197","","One of your branch offices or affiliates","VARIOUS ADMIN DOCUMENTS"
1029961,"STATE STREET FUND SERVICES (IRELAND) LIMITED,","78 SIR JOHN ROGERSON'S QUAY","","DUBLIN 2","","Ireland","","N","+353 1 776 800","","A third-party unaffiliated record keeper","FINANCIAL ACCOUNTING RECORDS AND DATA, AND OTHER INFORMATION ANCILLARY TO ITS ROLE AS FUND ADMINISTRATOR TO CERTAIN FUNDS MANAGED BY THE FIRM."
1029961,"BNY MELLON FUND SERVICES (IRELAND) LIMITED","RIVERSIDE TWO","SIR JOHN ROGERSON'S QUAY, GRAND CANAL DOCK","DUBLIN 2","","Ireland","","N","353 1 790 3555","","A third-party unaffiliated record keeper","FINANCIAL ACCOUNTING RECORDS AND DATA, AND OTHER INFORMATION ANCILLARY TO ITS ROLE AS FUND ADMINISTRATOR TO CERTAIN FUNDS MANAGED BY THE FIRM"
1029961,"CITCO FUND SERVICES (IRELAND) LIMITED","BLOCK 6, CUSTOM HOUSE PLAZA, IFSC","","DUBLIN 1","","Ireland","","N","353(1)637 7300","","A third-party unaffiliated record keeper","FINANCIAL ACCOUNTING RECORDS AND DATA, AND OTHER INFORMATION ANCILLARY TO ITS ROLE AS FUND ADMINISTRATOR TO CERTAIN FUNDS MANAGED BY THE FIRM"
1029961,"DB FUND SERVICES LLC","1761 EAST ST. ANDREWS PLACE","","SANTA ANA","CA","United States","92705","N","7142476335","","One of your branch offices or affiliates","FINANCIAL ACCOUNTING RECORDS AND DATA, AND OTHER INFORMATION ANCILLARY TO ITS ROLE AS FUND ADMINISTRATOR TO CERTAIN FUNDS MANAGED BY THE FIRM."
1029961,"JT DATA CENTRE","LA GRANDE ROUTE DE ST MARTIN","","ST SAVIOUR, CHANNEL ISLANDS","","Jersey","","N","+44 1534 882 3","","Other","DATA BACK-UP AND ARCHIVING."
1028898,"SOCIETE GENERALE S.A.","17 COURS VALMY, TOURS SOCIETE GENERALE","","PARIS LA DEFENSE","","France","92987","N","33 1 42149000","","One of your branch offices or affiliates","BOOKS AND RECORDS REQUIRED TO BE MAINTAINED UNDER THE INVESTMENT ADVISERS ACT OF 1940."
1028898,"GLOBEOP FINANCIAL SERVICES LLC","ONE SOUTH ROAD","","HARRISON","NY","United States","10528","N","19146703600","","A third-party unaffiliated record keeper","BOOKS AND RECORDS REQUIRED TO BE MAINTAINED UNDER THE INVESTMENT ADVISER ACT OF 1940."
1028898,"SG HAMBROS FUND MANAGERS (JERSEY) LIMITED","18 ESPLANADE","","ST HELIER","","Jersey","JE4 8RT","N","44 1534 815555","","One of your branch offices or affiliates","BOOKS AND RECORDS REQUIRED TO BE MAINTAINED UNDER THE INVESTMENT ADVISERS ACT OF 1940."
1028898,"INTERNATIONAL FUNDS SERVICES (IRELAND) LIMITED","BISHOP SQUARE REDMOND'S HILL","","DUBLIN","","Ireland","","N","01135317075013","","A third-party unaffiliated record keeper","BOOKS AND RECORDS REQUIRED TO BE MAINTAINED UNDER THE INVESTMENT ADVISERS ACT OF 1940."
1028898,"SG HAMBROS TRUST COMPANY (CHANNEL ISLANDS) LIMITED","18 ESPLANADE","","ST HELIER","","Jersey","JE4 8RT","N","44 1534 815555","","One of your branch offices or affiliates","BOOKS AND RECORDS REQUIRED TO BE MAINTAINED UNDER THE INVESTMENT ADVISERS ACT OF 1940."
1029991,"CITCO FUND SERVICES (IRELAND) LIMITED","CUSTOM HOUSE PLAZA BLOCK 6","INTERNATIONAL FINANCIAL SERVICES CENTRE","DUBLIN","","Ireland","","N","353214836675","","A third-party unaffiliated record keeper","THE BOOKS AND RECORDS KEPT BY CITCO FUND SERVICES CONSIST OF THOSE RECORDS TYPICALLY KEPT BY A FUND ADMINISTRATOR INCLUDING, BUT NOT LIMITED TO, CORPORATE AND FINANCIAL RECORDS, INVESTOR RELATIONSHIP RECORDS AND FUND PORTFOLIO MANAGEMENT RECORDS."
1028106,"IDFC LIMITED","2ND FLOOR, THE CAPITAL COURT","OLOF PALME MARG, MUNIRKA","NEW DELHI","","India","110067","N","911143311000","911126713359","One of your branch offices or affiliates","BUSINESS RELATED RECORDS"
1025609,"VISTRA NETHERLANDS","SCHIPHOL BOULEVARD 231","","AMSTERDAM","","Netherlands","1118 BH","N","0031885609950","","A third-party unaffiliated record keeper","ALL FUND ADMINISTRATION FOR H2 EQUITY PARTNERS FUND V HAS BEEN OUTSOURCED TO PROFESSIONAL SERVICES FIRM VISTRA (NETHERLANDS). VISTRA REPORTS TO THE BOARD OF H2EP"
1026600,"SS&C TECHNOLOGIES, INC.","675 THIRD AVENUE","12TH FLOOR","NEW YORK","NY","United States","10017","N","(212) 455-6306","","A third-party unaffiliated record keeper","AS THE THIRD-PARTY ADMINISTRATOR TO VIEX OPPORTUNITIES FUND (SERIES ONE AND SERIES TWO), SS&C MAINTAINS COPIES OF ALL ACCOUNTING- AND INVESTOR-RELATED BOOKS AND RECORDS."
1026600,"INTERNATIONAL FUND MANAGEMENT CORP.","203 MAIN STREET","","FLEMINGTON","NJ","United States","08822","N","908-730-0070","","A third-party unaffiliated record keeper","AS THE THIRD-PARTY ADMINISTRATOR TO THE VIEX SPECIAL OPPORTUNITIES FUNDS, IFM MAINTAINS COPIES OF MOST ACCOUNTING- AND INVESTOR-RELATED BOOKS AND RECORDS."
1028890,"MAPLES CORPORATE SERVICES LIMITED","PO BOX 309, UGLAND HOUSE","","GRAND CAYMAN","","Cayman Islands","KY1-1104","N","+1 345 949 806","+1 345 949 808","A third-party unaffiliated record keeper","CORPORATE RECORDS"
1028890,"MUFG ALTERNATIVE FUND SERVICES (CAYMAN) LIMITED","154 UNIVERSITY AVENUE, SUITE 700","","TORONTO","","Canada","ON M5H 3Y9","N","+1-416 9714700","+1-416 9714701","A third-party unaffiliated record keeper","THE ADMINISTRATOR PROVIDES A RANGE OF SERVICES, INCLUDING MAINTAINING THE REGISTER OF SHAREHOLDERS OF THE FUND, RECEIVING AND PROCESSING SUBSCRIPTION AND REDEMPTION AGREEMENTS OR APPLICATIONS, SUBMITTING TO SHAREHOLDERS A STATEMENT OF THEIR HOLDINGS IN THE FUND UPON REQUEST, CALCULATION OF NET ASSET VALUE, MAINTENANCE OF ACCOUNTING REPORTS, PREPARATION OF FINANCIAL STATEMENTS FOR AUDIT PURPOSES AND LIAISON WITH AUDITORS."
1028890,"CITCO FUND ADMINISTRATION (CAYMAN ISLANDS) LIMITED","89 NEXUS WAY, 2ND FLOOR","PO BOX 31106","CAMANA BAY, GRAND CAYMAN","","Cayman Islands","KY1-1205","N","+65 6571 1000","+65 6571 1032","A third-party unaffiliated record keeper","THE ADMINISTRATOR PROVIDES A RANGE OF SERVICES, INCLUDING MAINTAINING THE REGISTER OF SHAREHOLDERS OF THE FUND, RECEIVING AND PROCESSING SUBSCRIPTION AND REDEMPTION AGREEMENTS OR APPLICATIONS, SUBMITTING TO SHAREHOLDERS A STATEMENT OF THEIR HOLDINGS IN THE FUND UPON REQUEST, CALCULATION OF NET ASSET VALUE, MAINTENANCE OF ACCOUNTING REPORTS, PREPARATION OF FINANCIAL STATEMENTS FOR AUDIT PURPOSES AND LIAISON WITH AUDITORS."
1019419,"CAVU VENTURE PARTNERS, LLC","1240 SHADOW HILL WAY","","BEVERLY HILLS","CA","United States","90210","Y","(212) 716-2673","","One of your branch offices or affiliates","LEGAL DOCUMENTS AND FINANCIAL RECORDS"
1019419,"VMS FUND ADMINISTRATION, LLC","300 CARNEGIE CENTER","SUITE 200","PRINCETON","NJ","United States","08540","N","(609) 430-8422","","A third-party unaffiliated record keeper","LEGAL DOCUMENTS AND FINANCIAL RECORDS"
1019419,"CAVU VENTURE PARTNERS, LLC","706 GUADALUPE STREET","","AUSTIN","TX","United States","78701","N","(212) 716-2673","","One of your branch offices or affiliates","LEGAL DOCUMENTS AND FINANCIAL RECORDS"
1031102,"UMB FUND SERVICES","2225 WASHINGTON BLVD, SUITE 300","","OGDEN","UT","United States","84401","N","(801) 866-0530","(801) 866-0531","A third-party unaffiliated record keeper","PRIVATE INVESTMENT FUND ACCOUNTING AND CERTAIN SHAREHOLDER SERVICE RECORDS"
1031102,"GEMINI HEDGE FUND SERVICES, LLC","80 ARKAY DRIVE","SUITE 110","HAUPPAUGE","NY","United States","11488","N","631.470.2779","","A third-party unaffiliated record keeper","PRIVATE INVESTMENT FUND ACCOUNTING AND CERTAIN SHAREHOLDER SERVICES"
1032929,"TORO SARL","2, RUE D'ALSACE","","LUXEMBOURG CITY","","Luxembourg","","N","+33175773600","+33172704747","One of your branch offices or affiliates","CONTRACT NOTES, TRANSACTION CONFIRMATIONS"
1018457,"MORGAN STANLEY  FUND SERVICES","7-11 SIR JOHN ROGERSON'S QUAY","FLOOR 5","DUBLIN","","Ireland","DUBLIN 2","N","0035317998709","","A third-party unaffiliated record keeper","THE MANAGER OUTSOURCES THE MANAGEMENT AND RECORD KEEPING OF THE BOOKS AND RECORDS OF THE FUND."
1032993,"TRIDENT FUND SERVICES, INC.","3060 PEACHTREE ROAD, NW","SUITE 1415","ATLANTA","GA","United States","30305","N","404-920-0226Q","","A third-party unaffiliated record keeper","BOOKS AND RECORDS RELATED TO PRIVATE FUND'S OPERATIONS."
1030984,"KCS HONG KONG LIMITED","36/F., TOWER 2, TIME SQUARE,","1 MATHESON STREET, CAUSEWAY BAY","HONG KONG","","Hong kong","","N","852 3589 8707","852 3188 8222","A third-party unaffiliated record keeper","CORPORATE DOCUMENTS"
1027548,"BNY MELLON FUND SERVICES (IRELAND) LIMITED","GUILD HOUSE","GUILD STREET, IFSC","DUBLIN","","Ireland","1","N","+ 353 15427920","","A third-party unaffiliated record keeper","THIRD PARTY ADMINISTRATOR. THE ABOVE NAMED THIRD-PARTY ADMINISTRATOR IS THE PRIMARY BOOKS OF RECORD AND INCLUDES RECORDS IN RELATION TO ANTI-MONEY LAUNDERING IDENTIFICATION VERIFICATION DOCUMENTS CONCERNING THE INVESTORS IN THE FUNDS"
1027548,"UBS FUND SERVICES (IRELAND) LTD","1 GEORGES QUAY PLAZA","","DUBLIN","","Ireland","2","N","+3531436 3600","","A third-party unaffiliated record keeper","THIRD PARTY ADMINISTRATOR. RECORDS INCLUDE DOCUMENTS AND INFORMATION IN RELATION TO ANTI-MONEY LAUNDERING DUE DILIGENCE CONCERNING THE INVESTORS IN THE FUNDS"
1024396,"CITCO FUND SERVICES (IRELAND) LIMITED","TELLENGANA HOUSE","BLACKROCK ROAD","CORK","","Ireland","CORK","N","+353 (0)21 483","+353 (0)21 48","Other","THE FIRM ACTS AS THE ADMINISTRATOR TO THE PRIVATE FUNDS ADVISED BY EVERETT CAPITAL ADVISERS UK LLP AND MAINTAINS CERTAIN OF THE PRIVATE FUNDS' ACCOUNTING BOOKS AND RECORDS"
1037640,"MG STOVER & CO.","1350 17TH STREET","SUITE 200","DENVER","CO","United States","80202-1525","N","(303) 410-4400","(303) 648-4864","A third-party unaffiliated record keeper","PRINCIPAL LOCATION OF ACCOUNTING RECORDS AND GENERAL LEDGER"
1009414,"INFRASTRUCTURE CAPITAL GROUP LIMITED","LEVEL 38, 120 COLLINS ST","","MELBOURNE, VIC","","Australia","3000","N","61 3 8680 3500","61 3 8680 3555","One of your branch offices or affiliates","STATUTORY RECORDS (I.E., REGISTER OF OFFICEHOLDERS, SHAREHOLDERS, BOARD PAPERS AND MINUTES)"
1024096,"STANDISH MANAGEMENT","505 HAMILTON AVENUE","SUITE 210","PALO ALTO","CA","United States","94301","N","415-2736810","","A third-party unaffiliated record keeper","STANDISH IS THE ADMINISTRATOR FOR XIANG HE FUND I, L.P."
1027079,"ALPS FUND SERVICES, INC.","10500 NE 8TH STREET","STE 1000","BELLEVUE","WA","United States","98004","N","212-902-1000","","A third-party unaffiliated record keeper","IN ITS CAPACITY AS THIRD-PARTY ADMINISTRATOR FOR TCP MULTI-STRATEGY FUND LP,  ALPS FUND SERVICES, INC. MAINTAINS CERTAIN BOOKS AND RECORDS FOR THE FUND."
1029413,"MUFG FUND SERVICES (IRELAND) LIMITED","ORMONDE HOUSE","12/13 LOWER LEESON STREET","DUBLIN 2","","Ireland","","N","+353 1 647 050","","A third-party unaffiliated record keeper","THIS IS THE ADDRESS OF THE FUND ADMINISTRATOR THAT WILL HOLD BOOKS AND RECORDS RELATING TO THE ADMINISTRATION OF THE FUND"
1033590,"VIRTUS TRUST LIMITED","BORDEAUX COURT (#634)","LES ECHELONS","ST PETER PORT","","Guernsey","GY1 1AR","N","+44 1481722833","","Other","CONTRACT NOTES, TRANSACTION CONFIRMATIONS"
1030455,"SPANNING BY EMC","501 CONGRESS AVE","SUITE 200","AUSTIN","TX","United States","78701","N","XXX.XXX.XXXX","","Other","THIRD PARTY RECORD KEEPING/DATA STORAGE AND BACK-UP"
1030603,"CITCO FUND SERVICES (SAN FRANCISCO), INC.","560 MISSION STREET, 26TH FLOOR","","SAN FRANCISCO","CA","United States","94105","N","415.228.0390","415.228.0335","A third-party unaffiliated record keeper","FINANCIAL STATEMENTS AND SUPPORTING DOCUMENT AND BOOKS AND RECORDS NECESSARY TO CALCULATE NET ASSET VALUE OF THE PARTNERSHIP AND EACH INVESTOR HOLDINGS."
1030603,"CITCO (CANADA) INC.","2 BLOOR STREET EAST, SUITE 2700","","TORONTO","","Canada","M4W 1A8","N","416.966.9200","416.966.9210","A third-party unaffiliated record keeper","MAINTAINING A REGISTER OF INVESTORS; DOCUMENTS NECESSARY FOR ISSUANCE, TRANSFER AND INVESTOR WITHDRAWAL REQUESTS; UNAUDITED INVESTOR STATEMENTS; AND PARTNERSHIP FINANCIAL STATEMENTS."
1037745,"FINANCIAL TRACKING TECHNOLOGIES, LLC","1111 EAST PUTNAM AVENUE","","RIVERSIDE","CT","United States","06878","N","2033402356","","A third-party unaffiliated record keeper","EMPLOYEE PERSONAL ACCOUNT RECORDS"
1037745,"INSTITUTIONAL SHAREHOLDER SERVICES INC","702 KING FARM BOULEVARD","SUITE 400","ROCKVILLE","MD","United States","20850-4045","N","3015560500","3015560491","A third-party unaffiliated record keeper","PROXY VOTING RECORDS"
1037745,"RECALL SECURE DESTRUCTION SERVICES","5400 NE MAIN STREET","","MINNEAPOLIS","MN","United States","55421-1138","N","7635715719","7635717078","A third-party unaffiliated record keeper","DOCUMENT STORAGE"
1037745,"BROADRIDGE","51 MERCEDES WAY","","EDGEWOOD","NY","United States","11717","N","6312547183","6312547556","A third-party unaffiliated record keeper","PROXY VOTING RECORDS"
1037745,"BACKSTOP SOLUTIONS GROUP","233 SOUTH WACKER DRIVE","SUITE 3960","CHICAGO","IL","United States","60606","N","3122777700","3127750217","A third-party unaffiliated record keeper","INVESTOR RECORDS ON HOSTED SYSTEM"
1037745,"BUSINESS DATA RECORD SERVICES","201 NINTH AVENUE SW","","NEW BRIGHTON","MN","United States","55112","N","6516318663","","A third-party unaffiliated record keeper","DOCUMENT STORAGE"
1037745,"FINANCIAL RECOVERY TECHNOLOGIES LLC","TEN CABOT ROAD","SUITE 210","MEDFORD","MA","United States","02155","N","3396741021","7813951913","A third-party unaffiliated record keeper","SECURITIES CLASS ACTION RECORDS"
1037745,"BLACK RIVER ASSET MANAGEMENT (UK) LIMITED","VELOCITY V1","BROOKLANDS DRIVE","WEYBRIDGE, SURREY","","United Kingdom","KT13 0SL","N","441932861000","441932861286","One of your branch offices or affiliates","ACCOUNTING AND TRADE RECORDS"
1037745,"WELLS FARGO GLOBAL FUND SERVICES","3601 WEST 76TH STREET","","EDINA","MN","United States","55435","N","9528574700","","A third-party unaffiliated record keeper","ADMINISTRATOR - FUND ACCOUNTING AND TRADE RECORDS"
1037745,"AUTONOMY CORP (FKA: ZANTAZ, INC).","5758 WEST LAS POSITAS BLVD","","PLEASANTON","CA","United States","94588","N","8772439955","","A third-party unaffiliated record keeper","EMAIL ARCHIVAL SERVICE"
1037745,"SMARSH","921 SW WASHINGTON STREET","SUITE 540","PORTLAND","OR","United States","97205","N","8667627741","9719989967","A third-party unaffiliated record keeper","EMAIL ARCHIVAL SERVICE"
1037375,"VIEWQWEST PTE. LTD.","200 PANDAN LOOP, #07-04","PANTECH 21","SINGAPORE","","Singapore","128388","N","65-6491-1010","65-6491-1078","Other","VIEWQWEST PTE. LTD. (""VIEWQWEST"") PROVIDES COMPUTER CONSULTING AND RELATED SERVICES.  VIEWQWEST PROVIDES, HOUSES AND MAINTAINS SERVERS FOR FLOWERING TREE INVESTMENT MANAGEMENT (""FTIM"") WHICH CONTAINS FTIM'S ELECTRONIC RECORDS."
1038525,"HF CONSULTING LTD.","P.O. BOX 472","50 TOWN RANGE","GIBRALTAR","","Gibraltar","","N","350-20040000","","One of your branch offices or affiliates","INVESTOR AND OTHER FINANCIAL RECORDS."
1028512,"JP MORGAN HEDGE FUND SERVICES (IRELAND) LIMITED","1 GEORGE'S DOCK","INTERNATIONAL FINANCIAL SERVICES CENTRE","DUBLIN","","Ireland","","N","353 (0)1 845 7","","A third-party unaffiliated record keeper","FRM INVESTMENT MANAGEMENT LIMITED SERVES AS AN INVESTMENT ADVISER TO A POOLED INVESTMENT VEHICLE.  RECORDS RELATED TO SUCH VEHICLE MAY BE MAINTAINED AT THIS LOCATION."
1028512,"FINANCIAL RISK MANAGEMENT LIMITED","RIVERBANK HOUSE","2 SWAN LANE","LONDON","","United Kingdom","EC4R 3AD","N","+44 20 7144 10","+44 20 7144 20","One of your branch offices or affiliates","CERTAIN BOOKS AND RECORDS REQUIRED BY SECTION 204 OF THE ADVISERS ACT ARE MAINTAINED AT THIS LOCATION FROM TIME TO TIME."
1029276,"DE BRUIJN & CO","JOHANNES VERHULSTSTRAAT","88","AMSTERDAM","","Netherlands","1071NK","N","0031205789800","","A third-party unaffiliated record keeper","DE BRUIJN & CI IS OUR ACCOUNTANT WHO DOES OUR BOOKKEEPING. WE UPLOAD MAINLY INVOICES TO A DOCUMENT MANAGEMENT SYSTEM CALLED BASECONE."
1033529,"GRM STORAGE","215 COLES STREET","","JERSEY CITY","NJ","United States","07310","N","866-947-6932","201-798-4427","Other","SANSAR CAPITAL MANAGEMENT, LLC STORES THE FOLLOWING AT GRM STORAGE:  CONFIRMATIONS, ACCOUNTING RECORDS AND OTHER OPERATIONAL DOCUMENTATION RELATED TO CERTAIN POOLED INVESTMENT VEHICLES THAT ARE NOT REGISTERED INVESTMENT COMPANIES UNDER THE INVESTMENT COMPANY ACT OF 1940, AS AMENDED, AND ARE MANAGED BY SANSAR CAPITAL MANAGEMENT, LLC."
1033529,"CITI HEDGE FUND SERVICES NORTH AMERICA, INC.","480 WASHINGTON BOULEVARD","","JERSEY CITY","NJ","United States","07310","N","973-758-1981","973-461-2503","Other","CITI HEDGE FUND SERVICES NORTH AMERICA, INC. PREVIOUSLY SERVED AS THE ADMINISTRATOR FOR THE ONSHORE FUNDS ADVISED BY SANSAR CAPITAL MANAGEMENT, LLC AND HELD  ALL ONSHORE INVESTOR RECORDS.  CITI HEDGE FUND SERVICES NORTH AMERICA, INC. MAINTAINS THE BOOKS AND RECORDS DATED BEFORE OCTOBER 1, 2014."
1033529,"CITIGROUP FUND SERVICES CANADA, INC.","2920 MATHESON BLVD. EAST","","MISSISSAUGA, ONTARIO","","Canada","L4W 5J4","N","905-214-8170","905-212-8615","Other","CITIGROUP FUND SERVICES CANADA, INC. PREVIOUSLY SERVED AS THE ADMINISTRATOR FOR THE OFFSHORE FUNDS ADVISED BY SANSAR CAPITAL MANAGEMENT, LLC AND HELD ALL OFFSHORE INVESTOR RECORDS.  CITIGROUP FUND SERVICES CANADA, INC. MAINTAINS THE BOOKS AND RECORDS DATED BEFORE OCTOBER 1, 2014."
1033529,"SANSAR CAPITAL ASIA PTE. LTD.","16 RAFFLES QUAY, #40-02A","HONG LEONG BUILDING","SINGAPORE","","Singapore","048581","N","+65 63727615","+65 63727628","One of your branch offices or affiliates","HOLDS CERTAIN INVESTOR RECORDS AND CORRESPONDENCE."
1033529,"GLOBEOP FINANCIAL SERVICES LLC","ONE SOUTH ROAD","","HARRISON","NY","United States","10528","N","3459475953","3459467652","Other","HOLDS ALL ONSHORE INVESTOR RECORDS DATED OCTOBER 1, 2014 AND ONWARD."
1033529,"GLOBEOP FINANCIAL SERVICES (CAYMAN) LIMITED","45 MARKET STREET, SUITE 3205, 2ND FLOOR","GARDENIA COURT, CAMANA BAY","GRAND CAYMAN","","Cayman Islands","KY1 - 9003","N","3459475953","3459467652","Other","HOLDS ALL OFFSHORE INVESTOR RECORDS DATED OCTOBER 1, 2014 AND ONWARD."
1026743,"CITCO FUND ADMINISTRATION (CAYMAN ISLANDS) LIMITED","89 NEXUS WAY, 2ND FLOOR","CAMANA BAY","GRAND CAYMAN","","Cayman Islands","KY1-1205","N","+ [         ]","","A third-party unaffiliated record keeper","RELEVANT DOCUMENTATION IN RESPECT OF EACH OF THE COMPOSITE CAPITAL MASTER FUND LP, COMPOSITE CAPITAL FUND LIMITED AND COMPOSITE CAPITAL FUND LP"
1031414,"INFRASTRUCTURE CAPITAL GROUP LIMITED","LEVEL 38, 120 COLLINS ST","","MELBOURNE, VIC","","Australia","3000","N","61 3 8680 3500","61 3 8680 3555","One of your branch offices or affiliates","STATUTORY RECORDS (I.E., REGISTER OF OFFICEHOLDERS, SHAREHOLDERS, BOARD PAPERS AND MINUTES)"
1031621,"IRE (HONG KONG) LIMITED","41/F CHAMPION TOWER,","THREE GARDEN ROAD, CENTRAL,","HONG KONG","","China","","N","+852.3128.6000","","One of your branch offices or affiliates","ACCOUNTING BOOKS AND RECORDS"
1023407,"EAS ACCOUNTING SERVICES, CPA LLC","353 LEXINGTON AVENUE, SUITE 1202","","NEW YORK","NY","United States","10016","N","212-953-9001","","A third-party unaffiliated record keeper","COPY OF QUICK BOOKS ACCOUNTING FILE."
1029865,"GLOBEOP FINANCIAL SERVICES (CAYMAN) LIMITED","45 MARKET STREET","SUITE 3205, 2ND FLOOR, GARDENIA COURT, CAMANA BAY","GRAND CAYMAN","","Cayman Islands","KY1-9003","N","345-943-3330","","A third-party unaffiliated record keeper","FUND-RELATED BOOKS AND RECORDS."
1029865,"INTERNATIONAL FUND SERVICES (IRELAND) LIMITED","78 SIR JOHN ROGERSON'S QUAY","","DUBLIN","","Ireland","","N","35(0)317075000","35(0)317075100","A third-party unaffiliated record keeper","FUND-RELATED BOOKS AND RECORDS"
1024907,"SWIGEL CAPITAL MANAGEMENT LLC","16301 NE 8TH ST.","SUITE 161","BELLEVUE","WA","United States","98008-3962","N","4255027521","","One of your branch offices or affiliates","CASH JOURNAL, FINANCIAL STATEMENTS,INCOME AND EXPENSE ACCOUNT RECORDS,ORIGINAL BILLS/RECEIPTS, INTERNAL AUDIT PAPERWORK, DISCRETIONARY ACCOUNT RECORDS, SEPARATE CLIENT ACCOUNT LEDGERS, ALL WRITTEN AGREEMENTS, ALL WRITTEN AND ELECTRONIC CLIENT COMMUNICATION, ALL FUND OFFERING DOCUMENTS, ALL ADVISER LLC DOCUMENTS AND CONTACT INFO."
1030458,"HSKS GREENLAGH","3RD FLOOR, BUTT DYKE HOUSE","33 PARK ROW","NOTTINGHAM","","United Kingdom","NG1 6EE","N","+441159859517","","A third-party unaffiliated record keeper","ACCOUNTING RECORDS OF BROOK BAY CAPITAL (UK) LLP."
1032188,"SS&C TECHNOLOGIES, INC","675 THIRD AVENUE","15 FLOOR","NEW YORK","NY","United States","10017","N","212-455-6339","212-824-1445","A third-party unaffiliated record keeper","CERTAIN BOOKS AND RECORDS FOR CENTURION LONG -TERM STRATEGIES OVERSEAS, LTD."
1027660,"CBRE GLOBAL INVESTORS (ASIA PACIFIC) LIMITED","3501 TWO EXCHANGE SQUARE","8 CONNAUGHT PLACE","CENTRAL","","Hong kong","","N","+852-2846-3000","+852 2501 0609","One of your branch offices or affiliates","DOCUMENTS INCLUDING LIMITED PARTNERSHIP AGREEMENT AND NET ASSET VALUE STATEMENTS FOR MANAGEMENT CO-INVESTMENT VEHICLE, LMTC LP."
1027660,"TRICOR BUSINESS OUTSOURCING","80 ROBINSON ROAD","#02-00","SINGAPORE","","Singapore","068898","N","+65-6236-3333","+65-6236-4399","A third-party unaffiliated record keeper","GENERAL LEDGERS, PROFIT AND LOSS STATEMENTS, BALANCE SHEETS AND REGULATORY RETURNS."
1027660,"CBRE GLOBAL INVESTMENT PARTNERS LIMITED","THIRD FLOOR, ONE NEW CHANGE","","LONDON","","United Kingdom","EC4M 9AF","N","44 20 78099000","44 20 78099001","One of your branch offices or affiliates","CORPORATE FILES, INCLUDING DEEDS, ORIGINAL SIGNED DOCUMENTS, TAX, CLIENT FILES CONTAINING SUBSCRIPTION DOCUMENTS AND INFORMATION ON TARGET FUNDS."
1035600,"SS&C TECHNOLOGIES","80 LAMBERTON ROAD","ATTN: INVESTOR SERVICES","WINDSOR","CT","United States","06095","N","860 298 4500","","A third-party unaffiliated record keeper","BOOKS AND RECORDS OF THE FUND MANAGED BY THE ADVISOR INCLUDING TRADE RECORDS AND SUBSCRIPTION-RELATED DOCUMENTS"
1038672,"WILEY REIN LLP, C/O ROBERT BENTON & JILL FRANZEN","1776 K STREET NW","","WASHINGTON","DC","United States","20006","N","202.719.7142","202.719.7049","A third-party unaffiliated record keeper","INVESTOR RECORDS, FINANCIAL RECORDS."
1027889,"RESOURCE CAPITAL INVESTMENT CORPORATION","1910 PALOMAR POINT WAY","SUITE 200","CARLSBAD","CA","United States","92008","N","800-611-0827","460-444-5253","One of your branch offices or affiliates","BOOKS AND RECORDS RELATING TO INVESTORS IN PRIVATE FUNDS AND INVESTMENTS MADE BY SUCH PRIVATE FUNDS"
1029803,"BARING NORTH AMERICA LLC","INDEPENDENCE WHARF","470 ATLANTIC AVENUE","BOSTON","MA","United States","02210","N","617-946-5200","","One of your branch offices or affiliates","BARING NORTH AMERICA LLC MAINTAINS CERTAIN BOOKS AND RECORDS RELATING TO A FEW CLIENTS OF BARING ASSET MANAGEMENT LIMITED."
1029803,"RESTORE PLC","8 BEAM REACH","COLDHARBOUR LANE","RAINHAM ESSEX","","United Kingdom","RM13 9YB","N","01708 527 600","01708 527651","A third-party unaffiliated record keeper","RESTORE PLC IS USED TO RETAIN CERTAIN BOOKS AND RECORDS THAT ARE NO LONGER REQUIRED TO BE KEPT ON-SITE.  SUCH BOOKS AND RECORDS ARE ARCHIVED AT RESTORE PLC."
1029803,"INSTITUTIONAL SHAREHOLDER SERVICES","702 KING FARM BOULEVARD","SUITE 400","ROCKVILLE","MD","United States","20850-4045","N","405.366.5101","405.366.5050","A third-party unaffiliated record keeper","CERTAIN BOOKS AND RECORDS RELATING TO APPLICANT'S PROXY VOTING ACTIVITIES ARE MAINTAINED BY INSTITUTIONAL SHAREHOLDER SERVICES"
1029803,"BARING ASSET MANAGEMENT (ASIA) LIMITED","19/F EDINBURGH TOWER, 15 QUEEN'S ROAD","THE LANDMARK","HONG KONG","","China","","N","852-2841-1411","852-2845-9050","One of your branch offices or affiliates","BARING ASSET MANAGEMENT (ASIA) LIMITED MAINTAINS CERTAIN BOOKS AND RECORDS RELATING TO CERTAIN TRADE ACTIVITY UNDERTAKEN."
1032826,"OPUS FUND SERVICES","1812 HIGH GROVE LANE","SUITE 101","NAPERVILLE","IL","United States","60540","N","(312) 256-9974","","Other","CERTAIN BOOKS AND RECORDS RELATED TO PRIVATE FUNDS."
1029406,"RBC INVESTOR SERVICES TRUST SINGAPORE LIMITED","77 ROBINSON ROAD #18-00","","SINGAPORE","","Singapore","068896","N","65 6230 1932","65 6532 0215","A third-party unaffiliated record keeper","FUND'S BOOKS AND RECORDS"
1029406,"MAPLES AND CALDER","PO BOX 309, UGLAND HOUSE, SOUTH CHURCH STREET","","GRAND CAYMAN","","Cayman Islands","KY1-1104","N","1 345 949 8066","1 345 949 8080","A third-party unaffiliated record keeper","FUND'S BOOK AND RECORDS"
1029406,"RCMA ASIA PTE LTD","1 TEMASEK AVENUE","#16-01 MILLENIA TOWER","SINGAPORE","","Singapore","039192","N","65 6505 9995","","One of your branch offices or affiliates","MANAGER'S ACCOUNTING RECORDS"
1029406,"SAMAS MANAGEMENT CONSULTANTS PTE LTD","25 INTERNATIONAL BUSINESS PARK","GERMAN CENTRE #04-22/26","SINGAPORE","","Singapore","609916","N","65 6222 7777","65 6222 0022","A third-party unaffiliated record keeper","MANAGER'S RECORDS HELD BY CORPORATE SECRETARY"
1030551,"DEUTSCHE BANK AG, SINGAPORE BRANCH","#16-00 SOUTH TOWER","ONE RAFFLES QUAY","SINGAPORE","","Singapore","048583","N","6423 8172.7374","","One of your branch offices or affiliates","INVESTOR RECORDS, FINANCIAL RECORDS."
1033181,"U.S. BANCORP FUND SERVICES, LTD. (FORMERLY KNOWN AS AIS FUND ADMINISTRATION LTD.)","433 HACKENSACK AVENUE","","HACKENSACK","NJ","United States","07601","N","(201) 478-7211","","A third-party unaffiliated record keeper","FINANCIAL, ACCOUNTING AND INVESTOR RECORDS FOR THE PRIVATE INVESTMENT FUNDS MANAGED BY REGISTRANT"
1033278,"BARING NORTH AMERICA LLC","INDEPENDENCE WHARF","470 ATLANTIC AVENUE","BOSTON","MA","United States","02210","N","617-946-5200","","One of your branch offices or affiliates","BARING NORTH AMERICA LLC MAINTAINS CERTAIN BOOKS AND RECORDS RELATING TO A FEW CLIENTS OF BARING ASSET MANAGEMENT LIMITED."
1033278,"RESTORE PLC","8 BEAM REACH","COLDHARBOUR LANE","RAINHAM ESSEX","","United Kingdom","RM13 9YB","N","01708 527 600","01708 527651","A third-party unaffiliated record keeper","RESTORE PLC IS USED TO RETAIN CERTAIN BOOKS AND RECORDS THAT ARE NO LONGER REQUIRED TO BE KEPT ON-SITE.  SUCH BOOKS AND RECORDS ARE ARCHIVED AT RESTORE PLC."
1033278,"INSTITUTIONAL SHAREHOLDER SERVICES","702 KING FARM BOULEVARD","SUITE 400","ROCKVILLE","MD","United States","20850-4045","N","405.366.5101","405.366.5050","A third-party unaffiliated record keeper","CERTAIN BOOKS AND RECORDS RELATING TO APPLICANT'S PROXY VOTING ACTIVITIES ARE MAINTAINED BY INSTITUTIONAL SHAREHOLDER SERVICES"
1033278,"BARING ASSET MANAGEMENT (ASIA) LIMITED","19/F EDINBURGH TOWER, 15 QUEEN'S ROAD","THE LANDMARK","HONG KONG","","China","","N","852-2841-1411","852-2845-9050","One of your branch offices or affiliates","BARING ASSET MANAGEMENT (ASIA) LIMITED MAINTAINS CERTAIN BOOKS AND RECORDS RELATING TO CERTAIN TRADE ACTIVITY UNDERTAKEN."
1036512,"BNY MELLON GLOBAL CORPORATE TRUST","HANOVER BUILDING","WINDMILL LANE","DUBLIN","","Ireland","D2","N","+353-1900-6101","+353-1542-8150","A third-party unaffiliated record keeper","BNY FINANCIAL SERVICES PLC MAINTAIN THE MASTER RECORDS FOR THE FUND (ANGLESEA FUNDING PLC)"
1036512,"NORTHCROSS CAPITAL LLP","36 WHITEFRIARS STREET","","LONDON","","United Kingdom","EC4Y 8BQ","N","+44-2075832529","+44-2073539005","One of your branch offices or affiliates","THE BOOKS AND RECORDS OF NORTHCROSS CAPITAL MANAGEMENT AND NORTHCROSS CAPITAL LLP ARE ALSO KEPT AT THIS ADDRESS."
1034066,"WILEY REIN LLP, C/O ROBERT BENTON & JILL FRANZEN","1776 K STREET NW","","WASHINGTON","DC","United States","20006","N","202.719.7142","202.719.7049","A third-party unaffiliated record keeper","INVESTOR RECORDS, FINANCIAL RECORDS."
1028221,"JURISTAX SERVICES LIMITED","EBENE HOUSE, HOTEL AVENUE, 33 CYBERCITY","LEVEL 3","EBENE","","Mauritius","72201","N","(230) 465-5526","(230) 468-1886","A third-party unaffiliated record keeper","SUBSCRIPTION AND ACCOUNTING DOCUMENTS AND RECORDS."
1025938,"ASSURE SERVICES","2150 S. 1300 E.","SUITE 360","SALT LAKE CITY","UT","United States","84106-4461","N","(801) 419-0677","","A third-party unaffiliated record keeper","DOCUMENTS RELATED TO MARKETX'S FUNDS."
1030765,"KAUFMAN ROSSIN FUND SERVICES, LLC","2699 S. BAYSHORE DRIVE","9 FLOOR","MIAMI","FL","United States","33133","N","305.857.6842","786.470.2342","A third-party unaffiliated record keeper","UNAUDITED FINANCIAL STATEMENTS RELATED TO THE FUND MANAGED BY THE ADVISER."
1030765,"JOEL SALOMON","80 VALLEY TERRACE","","RYE BROOK","NY","United States","10573","Y","212-702-7140","646-701-7850","Other","BOOKS AND RECORDS ASSOCIATED WITH OPERATIONS OF THE INVESTMENT ADVISER."
1034349,"BNY MELLON FUND SERVICES (IRELAND) LIMITED","RIVERSIDE TWO","SIR JOHN ROGERSON'S QUAY, GRAND CANAL DOCK","DUBLIN 2","","Ireland","","N","353 1 790 3555","","A third-party unaffiliated record keeper","FINANCIAL ACCOUNTING RECORDS AND DATA, AND OTHER INFORMATION ANCILLARY TO ITS ROLE AS FUND ADMINISTRATOR TO CERTAIN FUNDS MANAGED BY THE FIRM"
1034349,"CITCO FUND SERVICES (IRELAND) LIMITED","BLOCK 6, CUSTOM HOUSE PLAZA, IFSC","","DUBLIN 1","","Ireland","","N","353(1)637 7300","","A third-party unaffiliated record keeper","FINANCIAL ACCOUNTING RECORDS AND DATA, AND OTHER INFORMATION ANCILLARY TO ITS ROLE AS FUND ADMINISTRATOR TO CERTAIN FUNDS MANAGED BY THE FIRM"
1034349,"DB FUND SERVICES LLC","1761 EAST ST. ANDREWS PLACE","","SANTA ANA","CA","United States","92705","N","7142476335","","One of your branch offices or affiliates","FINANCIAL ACCOUNTING RECORDS AND DATA, AND OTHER INFORMATION ANCILLARY TO ITS ROLE AS FUND ADMINISTRATOR TO CERTAIN FUNDS MANAGED BY THE FIRM."
1034349,"STATE STREET FUND SERVICES (IRELAND) LIMITED,","78 SIR JOHN ROGERSON'S QUAY","","DUBLIN 2","","Ireland","","N","+353 1 776 800","","A third-party unaffiliated record keeper","FINANCIAL ACCOUNTING RECORDS AND DATA, AND OTHER INFORMATION ANCILLARY TO ITS ROLE AS FUND ADMINISTRATOR TO CERTAIN FUNDS MANAGED BY THE FIRM."
1034349,"JT DATA CENTRE","LA GRANDE ROUTE DE ST MARTIN","","ST SAVIOUR, CHANNEL ISLANDS","","Jersey","","N","+44 1534 882 3","","Other","DATA BACK-UP AND ARCHIVING."
1034802,"HEDGESERV","1251 AVENUE OF THE AMERICAS","21ST FLOOR","NEW YORK","NY","United States","10020","N","212 920 3520","","A third-party unaffiliated record keeper","HEDGESERV SERVES AS THE FUND ADMINISTRATOR FOR THE FIRM."
1034802,"HEDGESERV (CAYMAN) LTD","P.O BOX 261","WILLOW HOUSE CRICKET SQUARE","GRAND CAYMAN","","Cayman Islands","KYI-1104","N","345 769 8120","","A third-party unaffiliated record keeper","HEDGESERV SERVES AS THE FUND ADMINISTRATOR FOR THE FIRM."
1034802,"HEDGESERV LIMITED","75 ST STEPHENS GREEN","2ND FLOOR","DUBLIN","","Ireland","2","N","+3531234 1000","","A third-party unaffiliated record keeper","HEDGESERV SERVES AS THE FUND ADMINISTRATOR FOR THE FIRM."
1033747,"BLUE RIVER PARTNERS, LLC","2777 N. STEMMONS FREEWAY","SUITE 1425","DALLAS","TX","United States","75207","N","214-716-4335","214-509-6080","A third-party unaffiliated record keeper","FINANCIAL STATEMENTS AND SIMILAR FINANCIAL DOCUMENTS."
1028924,"KALFF REALTY, LP","180 N MICHIGAN AVENUE","SUITE 300","CHICAGO","IL","United States","60601","N","312-360-1234","312-360-0606","Other","ALL BOOKS AND RECORDS PERTAINING TO THE PARTNERSHIPS ARE MAINTAINED WITH THE OTHER INVESTMENT ADVISER MANAGING THE PARTNERSHIPS."
1034941,"VENTURE BACK OFFICE","790 SE CARY PKWY #204","","CARY","NC","United States","27511","N","(919) 459-4650","(919) 459-4670","A third-party unaffiliated record keeper","IN ITS CAPACITY AS THIRD-PARTY ADMINISTRATOR FOR ADVISORY CLIENTS OF KVP CAPITAL ADVISORS, VENTURE BACK OFFICE MAINTAINS CERTAIN BOOKS AND RECORDS."
1028103,"LPR CONSULTING LLP","52 DEBDEN ROAD","SAFFRON WALDEN","ESSEX","","United Kingdom","CB11 4AB","Y","+44 1799510715","","A third-party unaffiliated record keeper","ACCOUNTING RECORDS INCLUDING CASH BOOKS AND NOMINAL LEDGER"
1028103,"SEI INVESTMENTS - GLOBAL FUND SERVICES LTD","STYNE HOUSE","UPPER HATCH STREET","DUBLIN","","Ireland","2","N","+35316382400","+35314774768","A third-party unaffiliated record keeper","ACCOUNTING RECORDS, REGISTER OF PARTNERSHIP INTERESTS AND SHARE REGISTERS OF FUNDS ADVISED BY LNG CAPITAL LLP"
1034138,"TRITON BERATUNGSGESELLSCHAFT GMBH","SCHILLERSTRASSE 20","","60313 FRANKFURT","","Germany","","N","+4969921020","+496992102100","One of your branch offices or affiliates","BOOKS AND RECORDS RELATED TO GERMAN ACTIVITIES"
1034138,"TRITON ADVISERS SARL","2C, RUE ALBERT BORSCHETTE","BUILDING K2-D1","LUXEMBOURG-1246","","Luxembourg","","N","+352 26 7530","+352 26 753100","One of your branch offices or affiliates","BOOKS AND RECORDS RELATED TO LUXEMBOURG OPERATIONS INCLUDING THE VARIOUS HOLDING STRUCTURES BETWEEN THE JERSEY FUNDS AND PORTFOLIO COMPANIES"
1034138,"TRITON ADMINISTRATION (JERSEY) LIMITED","23-27 SEATON PLACE","CHARTER PLACE, 1ST FLOOR","ST HELIER","","Jersey","JE2 3QL","N","+441534709400","+441534709450","One of your branch offices or affiliates","MAIN TRITON OWNER OF BOOKS AND RECORDS GENERALLY.  BOOKS AND RECORDS RELATE TO JERSEY/GUERNSEY ACTIVITIES INCLUDING IN RESPECT OF ALL THE FUNDS, REGULATORY RECORDS, TRUSTS, HOLDING COMPANIES, ETC"
1034138,"TRITON INVESTMENTS ADVISERS LLP","9 SOUTH STREET, 3RD FLOOR","","LONDON","","United Kingdom","W1K2XA","N","+442072976150","+442072976189","One of your branch offices or affiliates","VARIOUS BOOKS AND RECORDS RELATED TO UK AND OTHER ACTIVITIES"
1034138,"TRITON ADVISERS (SHANGHAI) CO. LIMITED","W18, 22/F, TOWER 3, JING AN KERRY CENTER","1228 YAN AN ZHONG ROAD","SHANGHAI","","China","200040","N","+86 2160627278","+86 2160627275","One of your branch offices or affiliates","VARIOUS BOOKS AND RECORDS RELATED TO ACTIVITIES IN ASIAN COUNTRIES"
1032452,"CAROLYN SEID","2252 ENCINAL AVENUE","","ALAMEDA","CA","United States","94501","Y","510-769-6498","510-769-1926","A third-party unaffiliated record keeper","BOOKKEEPING RECORDS."
1032452,"HOLLY HALE","199 NEW MONTGOMERY ST.","SUITE 202","SAN FRANCISCO","CA","United States","94105","N","415-775-8877","","A third-party unaffiliated record keeper","PORTFOLIO ACCOUNTING, BROKERAGE STATEMENTS, TRADE BLOTTERS."
1032452,"TDA COMPLIANCE","2700 NE ANDRESEN ROAD","SUITE D25","VANCOUVER","WA","United States","98661","N","(360) 737-4145","(360) 334-5858","A third-party unaffiliated record keeper","SUBSCRIPTION DOCUMENTS FOR POOLED INVESTMENT VEHICLES, CORRESPONDENCE WITH PARTNERS, AND REGISTRATION DOCUMENTS."
1036777,"ABERDEEN ASSET MANAGEMENT PLC","10 QUEENS TERRACE","","ABERDEEN","","United Kingdom","AB10 1YG","N","441224631999","","One of your branch offices or affiliates","PARENT COMPANY AND MAY MAINTAIN SOME BOOKS AND RECORDS FOR THE REGISTRANT"
1036777,"ABERDEEN ASSET MANAGEMENT PLC","BOW BELLS HOUSE","1 BREAD STREET","LONDON","","United Kingdom","EC4M 9HH","N","442074636000","","One of your branch offices or affiliates","PARENT COMPANY AND MAY MAINTAIN SOME BOOKS AND RECORDS FOR THE REGISTRANT"
1036777,"IRON MOUNTAIN","2500 HENDERSON DRIVE","","SHARON HILL","PA","United States","19079","N","215-633-0525","","A third-party unaffiliated record keeper","PRIMARY ARCHIVING SERVICE FOR THE REGISTRANT"
1036777,"STATE STREET BANK AND TRUST COMPANY","2 AVENUE DE LAFAYETTE","","BOSTON","MA","United States","02111","N","617-664-9566","","Other","PRIVATE FUNDS"
1036777,"RECALL LIMITED","20 WINSLOW STREET, HUNG HOM","","HONG KONG","","Hong kong","","N","25112829","25114333","A third-party unaffiliated record keeper","CLIENTS CDD DOCUMENTS"
1036777,"RBC INVESTOR SERVICES HONG KONG LIMITED","51F, CENTRAL PLAZA, 18 HARBOUR ROAD, WANCHAI, HONG","","HONG KONG","","Hong kong","","N","852-28681309","","Other","THIS IS A THIRD - PARTY ADMINISTRATOR WHICH KEEPS ALLL INVESTORS DOCUMENTS EXCEPT THE CLIENT AGREEMENTS."
1036777,"CONSEC SERVICES LIMITED","ROOM 409, 4/F NAN FUNG TOWER","88 CONNAUGHT ROAD CENTRAL","HONG KONG","","Hong kong","","N","852 2738 1411","852 2730 4379","Other","THE MINUTE BOOKS OF AIFML ARE KEPT AT THE ABOVE ADDRESS"
1026219,"STATE STREET (CAYMAN) TRUST COMPANY LIMITED","45 MARKET STREET, SUITE #3307","GARDENIA COURT, CAMANA BAY","GRAND CAYMAN","","Cayman Islands","KY1-1205","N","+345 949 6644","+345 949 6773","A third-party unaffiliated record keeper","RELEVANT DOCUMENTATION IN RESPECT OF OP MASTER FUND LTD. AND OLD PEAK ASIA FUND LTD."
1026219,"STATE STREET FUND SERVICES (SINGAPORE) PTE. LIMITED","168 ROBINSON ROAD","#33-01 CAPITAL TOWER","00000","","Singapore","068912","N","+65 6826 7480","+65 6826 7493","A third-party unaffiliated record keeper","RELEVANT DOCUMENTATION IN RESPECT OF OP MASTER FUND LTD. AND OLD PEAK ASIA FUND LTD."
1036325,"IRON MOUNTAN CANADA CORPORATION","P.O. BOX 3527 STATION A","","TORONTO","","Canada","M5W 3G4","N","1-877-459-8326","","A third-party unaffiliated record keeper","RECORDS GREATER THAN 2-3 YEARS OLD SINCE INCEPTION OF COMPANY"
1032702,"NORTHERN TRUST INTERNATIONAL LTD","GEORGES COURT, 54-62 TOWNSEND STREET","","DUBLIN 2","","Ireland","","N","02079822000","","Other","THIS FIRM ACTS AS THE ADMINISTRATOR TO THE PRIVATE FUND"
1034903,"STONE COAST FUND SERVICES LLC","TWO PORTLAND SQUARE","","PORTLAND","ME","United States","04101","N","207.699.2680","207.699.2681","A third-party unaffiliated record keeper","AS FUND ADMINISTRATOR, STONE COAST FUND SERVICES MAINTAINS CERTAIN BOOKS AND RECORDS RELATING TO CLIENT FUNDS INCLUDING DOCUMENTS PERTAINING TO MIDDLE OFFICE AND ACCOUNTING SUPPORT; PORTFOLIO RECONCILIATION AND NET ASSET VALUE CALCULATION, FUND INVESTOR REGISTERS AND INVESTOR SUBSCRIPTION DOCUMENTATION, INCLUDING DOCUMENTATION RELATING TO AML COMPLIANCE VERIFICATIONS."
1034903,"MICROSOFT CORPORATION","ONE MICROSOFT WAY","","REDMOND","WA","United States","98052","N","212.336.0755","","A third-party unaffiliated record keeper","ELECTRONIC STORAGE FOR DATA"
1034903,"GLOBAL RELAY","220 CAMBIE STREET","2ND FLOOR","VANCOUVER","","Canada","BC V6B 2M9","N","905.281.1907","","A third-party unaffiliated record keeper","ELECTRONIC COMMUNICATION ARCHIVE"
1037929,"BNY MELLON FUND SERVICES (IRELAND) DESIGNATED ACTIVITY COMPANY","GUILD HOUSE","GUILD STREET, IFSC","DUBLIN","","Ireland","1","N","+353 1 9003500","+353 1 7903510","Other","ADMINISTRATOR, REGISTAR AND TRANSFER AGENT OF THE FUND; MAINTAINS, FOR EXAMPLE, RECORDS RELATING TO INVESTOR SUBSCRIPTIONS AND REDEMPTIONS, TRADING STATEMENTS AND MATERIALS IN SUPPORT OF NAV."
1036508,"NORTHERN TRUST","TRAFALGAR COURT","LES BANQUES","ST. PETER PORT","","Guernsey","GY1 3QL","N","+441481745782","+441481745074","A third-party unaffiliated record keeper","BOOKKEEPING AND ANNUAL REPORTS OF FUNDS ADVISED BY THE ADVISOR; INVESTOR RELATED RECORDS (E.G. SUBSCRITPTION AGREEMENTS)"
1037974,"STATE STREET CAYMAN TRUST COMPANY, LTD.","PO BOX 31113, 45 MARKET STREET","SUITE 3206A, GARDENIA COURT","GRAND CAYMAN","","Cayman Islands","","N","345-949-6644","","A third-party unaffiliated record keeper","ORGANIZATIONAL, VALUATION, AND SUBSCRIPTION DOCUMENTS AND RECORDS  REQUIRED PURSUANT TO RULE 204-2 OF THE INVESTMENT ADVISER ACT OF 1940, AS AMENDED."
1037974,"STATE STREET FUND SERVICES (IRELAND) LIMITED","78 SIR JOHN ROGERSON'S QUAY","","DUBLIN","","Ireland","2","N","+35317765000","+35317765144","A third-party unaffiliated record keeper","ORGANIZATIONAL, VALUATION, AND SUBSCRIPTION DOCUMENTS AND RECORDS REQUIRED PURSUANT TO RULE 204-2 OF THE INVESTMENT ADVISER ACT OF 1940, AS AMENDED."
1024264,"MACQUARIE BANK INVESTMENT LIMITED","28 ROPEMAKER STREET","","LONDON","","United Kingdom","EC2Y 9HDEC2","N","+ 44 20 3037 2","","One of your branch offices or affiliates","ANNUAL ACCOUNTS; BOOKKEEPING DOCUMENTS ETC."
1028594,"GLOBEOP FINANCIAL SERVICES LLC","ONE SOUTH ROAD","","HARRISON","NY","United States","10528","N","914 670 3740","","A third-party unaffiliated record keeper","TRADING ACTIVITY FOR FUNDS MANAGED"
1028907,"GLOBEOP FINANCIAL SERVICES LLC","ONE SOUTH ROAD","","HARRISON","NY","United States","10528","N","19146703600","","A third-party unaffiliated record keeper","BOOKS AND RECORDS REQUIRED TO BE MAINTAINED UNDER THE INVESTMENT ADVISER ACT OF 1940."
1028907,"SG HAMBROS FUND MANAGERS (JERSEY) LIMITED","18 ESPLANADE","","ST HELIER","","Jersey","JE4 8RT","N","44 1534 815555","","One of your branch offices or affiliates","BOOKS AND RECORDS REQUIRED TO BE MAINTAINED UNDER THE INVESTMENT ADVISERS ACT OF 1940."
1028907,"SOCIETE GENERALE S.A.","17 COURS VALMY, TOURS SOCIETE GENERALE","","PARIS LA DEFENSE","","France","92987","N","33 1 42149000","","One of your branch offices or affiliates","BOOKS AND RECORDS REQUIRED TO BE MAINTAINED UNDER THE INVESTMENT ADVISERS ACT OF 1940."
1028907,"INTERNATIONAL FUNDS SERVICES (IRELAND) LIMITED","BISHOP SQUARE REDMOND'S HILL","","DUBLIN","","Ireland","","N","01135317075013","","A third-party unaffiliated record keeper","BOOKS AND RECORDS REQUIRED TO BE MAINTAINED UNDER THE INVESTMENT ADVISERS ACT OF 1940."
1028907,"SG HAMBROS TRUST COMPANY (CHANNEL ISLANDS) LIMITED","18 ESPLANADE","","ST HELIER","","Jersey","JE4 8RT","N","44 1534 815555","","One of your branch offices or affiliates","BOOKS AND RECORDS REQUIRED TO BE MAINTAINED UNDER THE INVESTMENT ADVISERS ACT OF 1940."
1012077,"INTERNATIONAL FUND SERVICES (IRELAND) LIMITED","78 SIR JOHN ROGERSON'S QUAY","","DUBLIN","","Ireland","2","N","+35317767937","+35317767691","A third-party unaffiliated record keeper","INTERNATIONAL FUND SERVICES (IRELAND) LIMITED SERVES AS A THIRD PARTY ADMINISTRATOR TO THE PRIVATE FUNDS MANAGED BY THE ADVISOR AND IN THAT CAPACITY MAINTAINS CERTAIN BOOKS AND RECORDS OF THE ADVISOR"
1036337,"DOMINION FIDUCIARY SERVICES (MALTA) LIMITED","LEVEL 16","PORTOMASO BUSINESS TOWER","ST. JULIAN'S","","Malta","STJ 4011","N","+356 2248 1900","","One of your branch offices or affiliates","ALL RECORDS OF THE APPLICANT, AS REQUIRED PER SEC RULES AND REGULATIONS AND THE ADVISERS ACT."
1032903,"KAUFMAN & CANOLES, P.C.","150 WEST MAIN ST.","SUITE 2100","NORFOLK","VA","United States","23451-1681","N","7576243000","7576243169","A third-party unaffiliated record keeper","OPERATING AGREEMENTS, SUBSCRIPTION PAPERWORK"
1030837,"KAUFMAN & CANOLES, P.C.","150 WEST MAIN ST.","SUITE 2100","NORFOLK","VA","United States","23451-1681","N","7576243000","7576243169","A third-party unaffiliated record keeper","OPERATING AGREEMENTS, SUBSCRIPTION PAPERWORK"
1038170,"IRON MOUNTAIN","PO BOX 601002","","PASADENA","CA","United States","91189-1002","N","8009343453","","A third-party unaffiliated record keeper","RECORDS CREATED MORE THAN 3 YEARS AGO."
1035050,"CONSTELLATION ADVISERS, LLC","1212 AVENUE OF THE AMERICAS","9TH FLOOR","NEW YORK","NY","United States","10036","N","212-300-6250","","A third-party unaffiliated record keeper","MANAGEMENT OF COMPANY AND GP ENTITY RECORDS AS WELL AS TRADING RECORDS FOR THE FUND"
1035050,"COWEN PRIME SERVICES","599 LEXINGTON AVENUE","21ST FLOOR","NEW YORK","NY","United States","10022","N","212-419-3963","","A third-party unaffiliated record keeper","TRADING POSITIONS FOR THE FUND"
1035050,"SEI GLOBAL SERVICES, INC.","ONE FREEDOM DRIVE","","OAKS","PA","United States","19456","N","610-676-1353","484-676-1353","A third-party unaffiliated record keeper","FINANCIAL BOOKS AND RECORDS FOR THE PRIVATE FUND"
1019876,"CUSTOM HOUSE FUND SERVICES (USA) LLC","1 N. FRANKLIN ST.","SUITE 600","CHICAGO","IL","United States","60606","N","(312) 280-0330","","A third-party unaffiliated record keeper","TRISHIELD CAPITAL MANAGEMENT LLC STORES THE FOLLOWING AT CUSTOM HOUSE FUND SERVICES (USA) LLC: ACCOUNTING RECORDS AND OTHER OPERATIONAL DOCUMENTATION RELATED TO POOLED INVESTMENT VEHICLES."
1032329,"TRIDENT FUND SERVICES, INC.","3060 PEACHTREE ROAD, NW","SUITE 1415","ATLANTA","GA","United States","30305-2242","N","404-364-2019","404-364-2013","Other","FUND ADMINISTRATOR"
1032329,"WARREN AVERETT LLC","6 CONCOURSE PARKWAY","SUITE 600","ATLANTA","GA","United States","30328","N","770-396-1100","","Other","FUND ACCOUNTANT"
1026042,"INTERNATIONAL FINANCIAL DATA SERVICES","IFDS HOUSE","ST NICHOLAS LANE","BASILDON","","United Kingdom","SS15 5FS","N","+44 (0) 870 88","","A third-party unaffiliated record keeper","REGISTRAR OF LIONTRUST UNIT TRUSTS HOLDING REGISTER OF HOLDERS AND SUB-REGISTER."
1026042,"STATE STREET BANK AND TRUST COMPANY","20 CHURCHILL PLACE","","LONDON","","United Kingdom","E14 5HJ","N","+44 20 3395 70","","A third-party unaffiliated record keeper","FINANCIAL PERFORMANCE INFORMATION FOR THE LIONTRUST UNIT TRUSTS"
1026042,"ARM PLC","53-57 SOUTHAMPTON WAY","","LONDON","","United Kingdom","SE5 7SW","N","+442077017018","","Other","ARCHIVED RECORDS AND BOOKS FOR PERIOD 1994 TO 2011"
1026042,"NORTHERN TRUST INTERNATIONAL FUND ADMINISTRATION SERVICES (IRELAND) LIMITED","GEORGE'S COURT","54-62 TOWNSEND STREET","DUBLIN 1","","Ireland","","N","+3531542200","","A third-party unaffiliated record keeper","ADMINISTRATOR OF LIONTRUST SORBUS FUND, LIONTRUST DIVERSITY FUND AND LIONTRUST UMBRELLA FUND PLC - REGISTER AND FINANCIAL PERFORMANCE INFORMATION"
1027568,"CDH INVESTMENTS MANAGEMENT (HONG KONG) LIMITED","1503 LEVEL 15, 1 AUSTIN ROAD WEST","INTERNATIONAL COMMERCE CENTRE","HONG KONG","","China","","N","852 35188000","852 28107083","One of your branch offices or affiliates","ACCOUNTING BOOKS AND RECORDS"
1027568,"ABOGADO PTE LTD","8 MARINA BOULEVARD #05-02","MARINA BAY FINANCIAL CENTRE","SINGAPORE","","Singapore","018981","N","65 64342602","65 63375100","Other","CORPORATE BOOKS AND RECORDS ARE KEPT IN THE COMPANY SECRETARY'S OFFICE"
1028117,"U.S. BANCORP FUND SERVICES, LLC","433 HACKENSACK AVENUE","","HACKENSACK","NJ","United States","07601","N","800-300-3863","","Other","FUND ADMINISTRATOR"
1028887,"RBC INVESTOR SERVICES TRUST SINGAPORE LIMITED","77 ROBINSON ROAD #18-00","","SINGAPORE","","Singapore","068896","N","65 6230 1932","65 6532 0215","A third-party unaffiliated record keeper","FUND'S BOOKS AND RECORDS"
1028887,"MAPLES AND CALDER","PO BOX 309, UGLAND HOUSE, SOUTH CHURCH STREET","","GRAND CAYMAN","","Cayman Islands","KY1-1104","N","1 345 949 8066","1 345 949 8080","A third-party unaffiliated record keeper","FUND'S BOOK AND RECORDS"
1028887,"PAUL HOOI & CO","190 MIDDLE ROAD, #14-01","","SINGAPORE","","Singapore","188979","N","65 6338 8844","65 6338 1065","A third-party unaffiliated record keeper","MANAGER'S ACCOUNTING RECORDS"
1028887,"SAMAS MANAGEMENT CONSULTANTS PTE LTD","25 INTERNATIONAL BUSINESS PARK","GERMAN CENTRE #04-22/26","SINGAPORE","","Singapore","609916","N","65 6222 7777","65 6222 0022","A third-party unaffiliated record keeper","MANAGER'S RECORDS HELD BY CORPORATE SECRETARY"
1035083,"AZTEC GROUP","PO BOX 656, EAST WING","TRAFALGAR COURT, LES BANQUES","ST PETER PORT","","Guernsey","GY1 3PP","N","44 1481 749700","44 1481 749749","A third-party unaffiliated record keeper","INVESTOR RECORDS, FINANCIAL RECORDS"
1028844,"IRON MOUNTAIN DO BRASIL LTDA","AV. GONCALO MADEIRA 401","","SAO PAULO","","Brazil","05348-000","N","551137670888","","A third-party unaffiliated record keeper","ARCHIVED DOCUMENTS"
1028844,"IRON MOUNTAIN DO BRASIL LTDA","AVENIDA PREFEITO JOAO VILLALOBO QUERO","1574 AND 1200 BARUERI","SAO PAULO","","Brazil","06420-160","N","551146196138","","A third-party unaffiliated record keeper","ARCHIVED DOCUMENTS"
1028844,"IRON MOUNTAIN DO BRASIL LTDA.","ROD. PRESIDENTE CASTELO BRANCO","11200 BARUERI","SAO PAULO","","Brazil","06421-400","N","551137670888","","A third-party unaffiliated record keeper","ARCHIVED DOCUMENTS"
1030091,"MATSCO SOLUTIONS GROUP","SUITE 26, 2 STATION COURT","IMPERIAL WHARF","LONDON","","United Kingdom","2W6 2PY","N","+4402078214950","+4402079002496","A third-party unaffiliated record keeper","TECHNOLOGY SERVICE PROVIDER WHICH PROVIDES BACK-UP COPIES OF VARIOUS BOOKS AND RECORDS RELATED TO ADVISORY SERVICES PROVIDED TO CLIENTS."
1030091,"INTERNATIONAL FUND SERVICES (IRELAND) LTD.","78 SIR JOHN ROGERSON'S QUAY","","DUBLIN","","Ireland","2","N","+353 1776-8000","+353 1776-8431","Other","BOOKS AND RECORDS ASSOCIATED WITH THE ADMINISTRATION OF PRIVATE FUNDS."
1031125,"CITCO FUND SERVICES (CAYMAN ISLANDS) LIMITED","89 NEXUS, 2ND FLOOR","CAMANA BAY","GRAND CAYMAN","","Cayman Islands","2000","N","1-345-949-3977","1-345-949-3877","A third-party unaffiliated record keeper","FUND ACCOUNTS AND TRANSACTIONS"
1037951,"STATE STREET (CAYMAN) TRUST COMPANY LIMITED","45 MARKET STREET, SUITE #3307","GARDENIA COURT, CAMANA BAY","GRAND CAYMAN","","Cayman Islands","KY1-1205","N","+345 949 6644","+345 949 6773","A third-party unaffiliated record keeper","RELEVANT DOCUMENTATION IN RESPECT OF OP MASTER FUND LTD. AND OLD PEAK ASIA FUND LTD."
1037951,"STATE STREET FUND SERVICES (SINGAPORE) PTE. LIMITED","168 ROBINSON ROAD","#33-01 CAPITAL TOWER","00000","","Singapore","068912","N","+65 6826 7480","+65 6826 7493","A third-party unaffiliated record keeper","RELEVANT DOCUMENTATION IN RESPECT OF OP MASTER FUND LTD. AND OLD PEAK ASIA FUND LTD."
1036335,"PEPPER HAMILTON LLP","19TH FLOOR, HIGH STREET TOWER","125 HIGH STREET","BOSTON","MA","United States","02110","N","6172045141","8666021214","Other","FORMATION DOCUMENTS; MEETING MATERIALS; CONSENTS OF THE MEMBERS OF REGARDING INVESTMENT DECISIONS; INFORMATION REGARDING INVESTMENTS; OTHER GOVERNANCE MATERIALS RELATING TO MEDSCIENCE VENTURES LLC AND THE VENTURE CAPITAL FUND IT ADVISES."
1033208,"GLOBAL RELAY COMMUNICATIONS, INC.","286 MADISON AVE, 7TH FLOOR","","NEW YORK","NY","United States","10017","N","866-484-6630","","A third-party unaffiliated record keeper","GLOBAL RELAY IS OUR VENDOR FOR EMAIL RETENTION AND ARCHIVING."
1033208,"SS&C GLOBEOP","675 THIRD AVENUE, 17TH FLOOR","","NEW YORK","NY","United States","10017","N","212-319-9730","212-319-7690","A third-party unaffiliated record keeper","SS&C GLOBEOP IS A THIRD PARTY ADMINISTRATOR TO OUR CLIENTS AND MAINTAINS INVESTOR AND FINANCIAL RECORDS."
1022039,"CITCO FUND SERVICES (AUSTRALIA) PTY LTD.","LEVEL 22, 45 CLARENCE STREET","","SYDNEY","","Australia","NSW 2000","N","612 9005 0400","612 9005 0444","Other","THE FUND SUB-ADMINISTRATOR WILL MAINTAIN RECORDS SUCH AS SUBSCRIPTION DOCUMENTS AND NAV CALCULATIONS"
1033553,"IRE (HONG KONG) LIMITED","41/F CHAMPION TOWER,","THREE GARDEN ROAD, CENTRAL,","HONG KONG","","China","","N","+852.3128.6000","","One of your branch offices or affiliates","ACCOUNTING BOOKS AND RECORDS"
1035939,"ASSURE SERVICES","2150 S. 1300 E.","SUITE 360","SALT LAKE CITY","UT","United States","84106-4461","N","(801) 419-0677","","A third-party unaffiliated record keeper","DOCUMENTS RELATED TO MARKETX'S FUNDS."
1022042,"PRAX CAPITAL EQUITY MANAGEMENT (HK) LIMITED","LEVEL 9, CENTRAL BUILDING","1-3 PEDDER STREET","CENTRAL","","Hong kong","N/A","N","852-3796 7222","852-3975 2800","One of your branch offices or affiliates","LEGAL DOCUMENTS AND FINANCIAL STATEMENTS"
1027820,"ABERDEEN ASSET MANAGEMENT PLC","10 QUEENS TERRACE","","ABERDEEN","","United Kingdom","AB10 1YG","N","441224631999","","One of your branch offices or affiliates","PARENT COMPANY AND MAY MAINTAIN SOME BOOKS AND RECORDS FOR THE REGISTRANT"
1027820,"ABERDEEN ASSET MANAGEMENT PLC","BOW BELLS HOUSE","1 BREAD STREET","LONDON","","United Kingdom","EC4M 9HH","N","442074636000","","One of your branch offices or affiliates","PARENT COMPANY AND MAY MAINTAIN SOME BOOKS AND RECORDS FOR THE REGISTRANT"
1027820,"IRON MOUNTAIN","2500 HENDERSON DRIVE","","SHARON HILL","PA","United States","19079","N","215-633-0525","","A third-party unaffiliated record keeper","PRIMARY ARCHIVING SERVICE FOR THE REGISTRANT"
1027820,"STATE STREET BANK AND TRUST COMPANY","2 AVENUE DE LAFAYETTE","","BOSTON","MA","United States","02111","N","617-664-9566","","Other","PRIVATE FUNDS"
1027820,"RECALL LIMITED","20 WINSLOW STREET, HUNG HOM","","HONG KONG","","Hong kong","","N","25112829","25114333","A third-party unaffiliated record keeper","CLIENTS CDD DOCUMENTS"
1027820,"RBC INVESTOR SERVICES HONG KONG LIMITED","51F, CENTRAL PLAZA, 18 HARBOUR ROAD, WANCHAI, HONG","","HONG KONG","","Hong kong","","N","852-28681309","","Other","THIS IS A THIRD - PARTY ADMINISTRATOR WHICH KEEPS ALLL INVESTORS DOCUMENTS EXCEPT THE CLIENT AGREEMENTS."
1027820,"CONSEC SERVICES LIMITED","ROOM 409, 4/F NAN FUNG TOWER","88 CONNAUGHT ROAD CENTRAL","HONG KONG","","Hong kong","","N","852 2738 1411","852 2730 4379","Other","THE MINUTE BOOKS OF AIFML ARE KEPT AT THE ABOVE ADDRESS"
1027827,"CITCO FUND SERVICES (SINGAPORE) PTE. LTD.","10 CHANGI BUSINESS PARK CENTRAL 2","#01-01 HANSAPOINT @CBP","SINGAPORE","","Singapore","486030","N","6565711000","6565711032","Other","FUNDS' SUB-ADMINISTRATOR, MAINTAINS SUBSCRIPTION AND REDEMPTION DOCUMENTS."
1027827,"CITCO FUND SERVICES (CAYMAN ISLANDS) LIMITED","89 NEXUS WAY, 2ND FLOOR","CAMANA BAY, PO BOX 31106","GRAND CAYMAN","","Cayman Islands","KY1-1205","N","345945383","345945388","Other","FUNDS' ADMINISTRATOR, MAINTAINS SUBSCRIPTION AND REDEMPTION DOCUMENTS."
1027827,"CITCO TRUSTEES (CAYMAN) LIMITED","89 NEXUS WAY","CAMANA BAY, P.O. BOX 31106","GRAND CAYMAN","","Cayman Islands","KY1-1205","N","3459493977","3459457566","Other","GCI JAPAN HYBRIDS' TRUSTEE"
1027827,"CITCO TRUSTEES (UT) LIMITED","89 NEXUS WAY","CAMANA BAY, PO BOX 31106","GRAND CAYMAN","","Cayman Islands","KY1-1205","N","3459493977","3459457566","Other","ALEUTIAN FUND'S TRUSTEE"
1027827,"CAYGAN CAPITAL LTD.","PART FIRST FLOOR, UNIT G INTERNATIONAL HOUSE","1 ST KATHARINES WAY","LONDON","","United Kingdom","E1W 1AY","N","+442034189710","","Other","RESEARCH AND ADVISORY RECORDS"
1028093,"IRE (HONG KONG) LIMITED","41/F CHAMPION TOWER,","THREE GARDEN ROAD, CENTRAL,","HONG KONG","","China","","N","+852.3128.6000","","One of your branch offices or affiliates","ACCOUNTING BOOKS AND RECORDS"
1017618,"BNY MELLON FUND SERVICES (IRELAND) LIMITED","RIVERSIDE TWO","SIR JOHN ROGERSON'S QUAY, GRAND CANAL DOCK","DUBLIN 2","","Ireland","","N","353 1 790 3555","","A third-party unaffiliated record keeper","FINANCIAL ACCOUNTING RECORDS AND DATA, AND OTHER INFORMATION ANCILLARY TO ITS ROLE AS FUND ADMINISTRATOR TO CERTAIN FUNDS MANAGED BY THE FIRM"
1017618,"CITCO FUND SERVICES (IRELAND) LIMITED","BLOCK 6, CUSTOM HOUSE PLAZA, IFSC","","DUBLIN 1","","Ireland","","N","353(1)637 7300","","A third-party unaffiliated record keeper","FINANCIAL ACCOUNTING RECORDS AND DATA, AND OTHER INFORMATION ANCILLARY TO ITS ROLE AS FUND ADMINISTRATOR TO CERTAIN FUNDS MANAGED BY THE FIRM"
1017618,"DB FUND SERVICES LLC","1761 EAST ST. ANDREWS PLACE","","SANTA ANA","CA","United States","92705","N","7142476335","","One of your branch offices or affiliates","FINANCIAL ACCOUNTING RECORDS AND DATA, AND OTHER INFORMATION ANCILLARY TO ITS ROLE AS FUND ADMINISTRATOR TO CERTAIN FUNDS MANAGED BY THE FIRM."
1017618,"STATE STREET FUND SERVICES (IRELAND) LIMITED,","78 SIR JOHN ROGERSON'S QUAY","","DUBLIN 2","","Ireland","","N","+353 1 776 800","","A third-party unaffiliated record keeper","FINANCIAL ACCOUNTING RECORDS AND DATA, AND OTHER INFORMATION ANCILLARY TO ITS ROLE AS FUND ADMINISTRATOR TO CERTAIN FUNDS MANAGED BY THE FIRM."
1017618,"JT DATA CENTRE","LA GRANDE ROUTE DE ST MARTIN","","ST SAVIOUR, CHANNEL ISLANDS","","Jersey","","N","+44 1534 882 3","","Other","DATA BACK-UP AND ARCHIVING."
1027043,"BNY MELLON FUND SERVICES (IRELAND) DESIGNATED ACTIVITY COMPANY","GUILD HOUSE","GUILD STREET, IFSC","DUBLIN","","Ireland","1","N","+353 1 9003500","+353 1 7903510","Other","ADMINISTRATOR, REGISTAR AND TRANSFER AGENT OF THE FUND; MAINTAINS, FOR EXAMPLE, RECORDS RELATING TO INVESTOR SUBSCRIPTIONS AND REDEMPTIONS, TRADING STATEMENTS AND MATERIALS IN SUPPORT OF NAV."
1019743,"BRIDGEVIEW CFO SOLUTIONS","ONE FERRY BUILDING","SUITE 255","SAN FRANCISCO","CA","United States","94111","N","415-677-5350","","A third-party unaffiliated record keeper","ALL ADVISORY BOOKS AND RECORDS."
1019743,"CONIFER FINANCIAL SERVICES","ONE FERRY BUILDING","SUITE 255","SAN FRANCISCO","CA","United States","94111","N","415-677-1500","","A third-party unaffiliated record keeper","FUND ADMINISTRATION RECORDS."
1028893,"MG STOVER & CO","1350 17TH STREET","SUITE 200","DENVER","CO","United States","80202","N","303-835-9906","","A third-party unaffiliated record keeper","CERTAIN BOOKS AND RECORDS FOR THE FUNDS."
1022666,"INTEGRATED INVESTMENT SOLUTIONS, LLC","121 SUMMIT AVENUE","SUITE 205","SUMMIT","NJ","United States","07901","N","908.743.1300","908.743.1301","A third-party unaffiliated record keeper","FUND OFFERING DOCUMENTS, FUND ORGANIZATIONAL DOCUMENTS, AND OTHER INVESTMENT RELATED MATERIALS, ARCHIVED BOOKS AND RECORDS."
1028033,"MG STOVER & CO","1350 17TH STREET","SUITE 200","DENVER","CO","United States","80202","N","303-835-9906","","A third-party unaffiliated record keeper","CERTAIN BOOKS AND RECORDS FOR THE FUNDS."
1029235,"CITCO FUND SERVICES (IRELAND) LIMITED","CUSTOM HOUSE PLAZA BLOCK 6","INTERNATIONAL FINANCIAL SERVICES CENTRE","DUBLIN","","Ireland","","N","353214836675","","A third-party unaffiliated record keeper","THE BOOKS AND RECORDS KEPT BY CITCO FUND SERVICES CONSIST OF THOSE RECORDS TYPICALLY KEPT BY A FUND ADMINISTRATOR INCLUDING, BUT NOT LIMITED TO, CORPORATE AND FINANCIAL RECORDS, INVESTOR RELATIONSHIP RECORDS AND FUND PORTFOLIO MANAGEMENT RECORDS."
1033350,"BT DATA CENTRE","8/F WARWICK HOUSE, WEST WING","TAIKOO PLACE, 979 KING'S ROAD, QUARRY BAY","HONG KONG","","China","NA","N","852 2590 7300","852 2590 7390","A third-party unaffiliated record keeper","FILING"
1033350,"CROWN DATA CENTRE","CROWN WORLDWIDE BUILDING, 9-11 YUEN ON STREET","SIU LEK YUEN, NEW TERRITORIES","HONG KONG","","China","","N","852 2636 8388","852 2637 1677","A third-party unaffiliated record keeper","FILING"
1033350,"PANER HOSAKA & YPIL, ATTORNEYS AT LAW","502 PACIFIC CENTER BUILDING","33 SAN MIGUEL AVENUE, ORTIGAS CENTER","PASIG CITY","","Philippines","1603","N","(632) 633 3611","","Other","FILING"
1011556,"EQUINIX FRANCE (PA2)","114 RUE AMBROISE CROIZAT","","SAINT DENIS","","France","93200","N","33.1.5587.2211","33.1.5587.2192","A third-party unaffiliated record keeper","SYSTEMS BACK UP, ALL TRADE INFORMATION"
1011556,"RBC INVESTOR SERVICES IRELAND LTD","4TH FLOOR, ONE GEORGE'S QUAY PLAZA","GEORGE'S QUAY","DUBLIN 2","","Ireland","","N","353.1.613.0400","","A third-party unaffiliated record keeper","INVESTOR RECORDS"
1011556,"COMGEST S.A.","17 SQUARE EDOUARD VII","","PARIS","","France","75009","N","33.1.4494.1900","","One of your branch offices or affiliates","SYSTEMS BACKUP, ALL TRADE INFORMATION"
1011556,"WILTON SECRETARIAL LIMITED","6TH FLOOR","2 GRAND CANAL SQUARE","DUBLIN 2","","Ireland","","N","353.1.639.5000","353.1.639.5333","A third-party unaffiliated record keeper","SHARE REGISTERS AND BOARD PACKS"
1011556,"RBC INVESTOR SERVICES BANK, S.A., DUBLIN BRANCH","4TH FLOOR, ONE GEORGE'S QUAY PLAZA","GEORGE'S QUAY","DUBLIN 2","","Ireland","","N","353.1.613.0400","","A third-party unaffiliated record keeper","TRADE INFORMATION"
1011556,"KEFRON","53 PARK WEST INDUSTRIAL PARK","PARK WEST ROAD","DUBLIN 12","","Ireland","","N","353.1.438.0200","","A third-party unaffiliated record keeper","ARCHIVE-TRADE INFORMATION, NAV REVIEW"
1011556,"EQUINIX FRANCE (PA4)","110 BIS AVENUE DU GENERAL LECLERC","","PANTIN","","France","93500","N","33.1.5587.2588","33.1.5587.2192","A third-party unaffiliated record keeper","SYSTEMS BACKUP, ALL TRADE INFORMATION"
1028889,"MUFG ALTERNATIVE FUND SERVICES (CAYMAN) LIMITED","154 UNIVERSITY AVENUE, SUITE 700","","TORONTO","","Canada","ON M5H 3Y9","N","+1-416 9714700","+1-416 9714701","A third-party unaffiliated record keeper","THE ADMINISTRATOR PROVIDES A RANGE OF SERVICES, INCLUDING MAINTAINING THE REGISTER OF SHAREHOLDERS OF THE FUND, RECEIVING AND PROCESSING SUBSCRIPTION AND REDEMPTION AGREEMENTS OR APPLICATIONS, SUBMITTING TO SHAREHOLDERS A STATEMENT OF THEIR HOLDINGS IN THE FUND UPON REQUEST, CALCULATION OF NET ASSET VALUE, MAINTENANCE OF ACCOUNTING REPORTS, PREPARATION OF FINANCIAL STATEMENTS FOR AUDIT PURPOSES AND LIAISON WITH AUDITORS."
1028889,"TRICOR SERVICES LIMITED","LEVEL 54, HOPEWELL CENTRE","183 QUEEN'S ROAD EAST","HONG KONG","","Hong kong","","N","+85229801888","+85228610285","A third-party unaffiliated record keeper","CORPORATE RECORDS"
1028889,"CITCO FUND ADMINISTRATION (CAYMAN ISLANDS) LIMITED","89 NEXUS WAY, 2ND FLOOR","P.O BOX 31106","CAMANA BAY, GRAND CAYMAN","","Cayman Islands","KY1-1205","N","+65 6571 1000","+65 6571 1032","A third-party unaffiliated record keeper","THE ADMINISTRATOR PROVIDES A RANGE OF SERVICES, INCLUDING MAINTAINING THE REGISTER OF SHAREHOLDERS OF THE FUND, RECEIVING AND PROCESSING SUBSCRIPTION AND REDEMPTION AGREEMENTS OR APPLICATIONS, SUBMITTING TO SHAREHOLDERS A STATEMENT OF THEIR HOLDINGS IN THE FUND UPON REQUEST, CALCULATION OF NET ASSET VALUE, MAINTENANCE OF ACCOUNTING REPORTS, PREPARATION OF FINANCIAL STATEMENTS FOR AUDIT PURPOSES AND LIAISON WITH AUDITORS."
1033986,"SS&C TECHNOLOGIES, INC.","80 LAMBERTON ROAD","","WINDSOR","CT","United States","06095","N","8602984500","","Other","SS&CTECHNOLOGIES,INC.ISAFUNDADMINISTRATORANDMAINTAINSCERTAINFINANCIAL INFORMATIONANDBOOKSANDRECORDSRELATEDTOTHEFIRMSBUSINESS"
1035709,"ALPS ALTERNATIVE INVESTMENT SERVICES, LLC","2699 S. BAYSHORE DRIVE","","MIAMI","FL","United States","33133","N","305-857-6842","","A third-party unaffiliated record keeper","BOOKS AND RECORDS RELATED TO FIRM AND CLIENT OPERATIONS."
1034847,"STANDISH MANAGEMENT","505 HAMILTON AVE","SUITE 210","PALO ALTO","CA","United States","94301","N","4152736810","","A third-party unaffiliated record keeper","DIGITAL BOOKS AND RECORDS"
1033558,"MAPLES FUND SERVICES","BEAUX LANE HOUSE","MERCER STREET LOWER","DUBLIN","","Ireland","2","N","35316973200","35316973300","A third-party unaffiliated record keeper","CITCO FUND SERVICES MAINTAINS THE BOOKS AND RECORDS OF THE FUNDS UNDER MANAGEMENT"
1029403,"MAPLES CORPORATE SERVICES LIMITED","PO BOX 309, UGLAND HOUSE","","GRAND CAYMAN","","Cayman Islands","KY1-1104","N","+1 345 949 806","+1 345 949 808","A third-party unaffiliated record keeper","CORPORATE RECORDS"
1029403,"CITCO FUND ADMINISTRATION (CAYMAN ISLANDS) LIMITED","89 NEXUS WAY, 2ND FLOOR","PO BOX 31106","CAMANA BAY, GRAND CAYMAN","","Cayman Islands","KY1-1205","N","+65 6571 1000","+65 6571 1032","A third-party unaffiliated record keeper","THE ADMINISTRATOR PROVIDES A RANGE OF SERVICES, INCLUDING MAINTAINING THE REGISTER OF SHAREHOLDERS OF THE FUND, RECEIVING AND PROCESSING SUBSCRIPTION AND REDEMPTION AGREEMENTS OR APPLICATIONS, SUBMITTING TO SHAREHOLDERS A STATEMENT OF THEIR HOLDINGS IN THE FUND UPON REQUEST, CALCULATION OF NET ASSET VALUE, MAINTENANCE OF ACCOUNTING REPORTS, PREPARATION OF FINANCIAL STATEMENTS FOR AUDIT PURPOSES AND LIAISON WITH AUDITORS."
1029410,"CITCO FUND SERVICES (IRELAND) LIMITED","CUSTOM HOUSE PLAZA BLOCK 6","INTERNATIONAL FINANCIAL SERVICES CENTRE","DUBLIN","","Ireland","","N","353214836675","","A third-party unaffiliated record keeper","THE BOOKS AND RECORDS KEPT BY CITCO FUND SERVICES CONSIST OF THOSE RECORDS TYPICALLY KEPT BY A FUND ADMINISTRATOR INCLUDING, BUT NOT LIMITED TO, CORPORATE AND FINANCIAL RECORDS, INVESTOR RELATIONSHIP RECORDS AND FUND PORTFOLIO MANAGEMENT RECORDS."
1036719,"UMB FUND SERVICES","223 WILMINGTON WEST CHESTER PIKE","SUITE 303","CHADDS FORD","PA","United States","19317","N","801-737-4000","610-361-6118","A third-party unaffiliated record keeper","PARTNER ACCOUNTING AND RECORDS, FUND RETURN CALCULATIONS, OTHER ACCOUNTING RECORDS."
1030232,"EQUINIX FRANCE (PA2)","114 RUE AMBROISE CROIZAT","","SAINT DENIS","","France","93200","N","33.1.5587.2211","33.1.5587.2192","A third-party unaffiliated record keeper","SYSTEMS BACK UP, ALL TRADE INFORMATION"
1030232,"RBC INVESTOR SERVICES IRELAND LTD","4TH FLOOR, ONE GEORGE'S QUAY PLAZA","GEORGE'S QUAY","DUBLIN 2","","Ireland","","N","353.1.613.0400","","A third-party unaffiliated record keeper","PRIVATE FUND BOOKS AND RECORDS, INVESTOR RECORDS"
1030232,"COMGEST S.A.","17 SQUARE EDOUARD VII","","PARIS","","France","75009","N","33.1.4494.1900","","One of your branch offices or affiliates","SYSTEMS BACKUP, ALL TRADE INFORMATION"
1030232,"WILTON SECRETARIAL LIMITED","6TH FLOOR","2 GRAND CANAL SQUARE","DUBLIN 2","","Ireland","","N","353.1.639.5000","353.1.639.5333","A third-party unaffiliated record keeper","SHARE REGISTERS AND BOARD PACKS"
1030232,"RBC INVESTOR SERVICES BANK, S.A., DUBLIN BRANCH","4TH FLOOR, ONE GEORGE'S QUAY PLAZA","GEORGE'S QUAY","DUBLIN 2","","Ireland","","N","353.1.613.0400","","A third-party unaffiliated record keeper","TRADE INFORMATION"
1030232,"KEFRON","53 PARK WEST INDUSTRIAL PARK","PARK WEST ROAD","DUBLIN 12","","Ireland","","N","353.1.438.0200","","A third-party unaffiliated record keeper","ARCHIVE-TRADE INFORMATION, NAV REVIEW"
1030232,"EQUINIX FRANCE (PA4)","110 BIS AVENUE DU GENERAL LECLERC","","PANTIN","","France","93500","N","33.1.5587.2588","33.1.5587.2192","A third-party unaffiliated record keeper","SYSTEMS BACKUP, ALL TRADE INFORMATION"
1037280,"COHERE COMMUNICATIONS","845 THIRD AVENUE","16TH FLOOR","NEW YORK","NY","United States","10022","N","2122319932","","Other","ALL OUR SHARED NETWORK STORAGE WHERE ALL OUR FILES ARE STORED IS HANDLED AND BACKED UP BY THEM."
1037280,"SS&C TECHNOLOGIES INC","80 LAMBERTON ROAD","","WINDSOR","CT","United States","06095","N","(800) 234-0556","","Other","FUND ADMINISTRATOR - INVESTOR RECORDS AND FUND P&L"
1037280,"CONCEPT ONE FUND SERVICES","1010 FRANKLIN AVENUE","SUITE 303","GARDEN CITY","NY","United States","11530","N","646-840-4950","","Other","FUND ADMINISTRATOR - INVESTOR TRANSACTION RECORDS AND FUND RETURNS"
1026599,"ADLER SHINE LLP","ADLER SHINE LLP, ASTON HOUSE","CORNWALL AVENUE","LONDON","","United Kingdom","N3 1LF","N","+442083713007","+442073950540","Other","LOCATION IS THE OFFICES OF THE ACCOUNTANT AND AUDITOR OF HILLTOP FUND MANAGEMENT LLP (THE FIRM). FILES KEPT INCLUDE (I) BACK UP COPIES OF THE DIGITAL FILES OF THE FIRM, (II) AGED DOCUMENTS RELATING TO OPERATIONAL DUE DILIGENCE, (III) FILES RELATING TO ACCOUNTING AND AUDIT OF THE FIRM."
1027904,"EZE CASTLE INTEGRATION (ECI)","9 MARYLEBONE LANE, 2ND FLOOR","","LONDON","","United Kingdom","W1U 1HL","N","020 7071 6802","","A third-party unaffiliated record keeper","EMAILS ARE RETAINED ON SERVERS HOSTED BY EZE CASTLE."
1027904,"GLOBEOP FINANCIAL SERVICES (CAYMAN) LIMITED","45 MARKET STREET","SUITE 3205","CAMANA BAY","","Cayman Islands","KY1-9003","N","+1 345 943 333","+1 345 946 765","A third-party unaffiliated record keeper","OFFICIAL BOOKS AND RECORDS OF THE FUNDS."
1019995,"OFFICE OF THOMAS CALDWELL","6724 EAST RAILWAY COMMONS","","WILLIAMSBURG","MI","United States","49690","Y","813-336-6890","","One of your branch offices or affiliates","BOOKS AND RECORDS RELATED TO FIRM'S MANAGEMENT OF FUND ASSETS"
1025543,"CORDIUM","NORFOLK HOUSE","31 ST JAMES'S SQUARE","LONDON","","United Kingdom","SW1Y 4JJ","N","44 20 7408 244","","A third-party unaffiliated record keeper","FINANCIAL RECORDS, INVESTOR RECORDS"
1030063,"BC RECORDS MANAGEMENT SERVICES","7422 FRASER PARK DRIVE","","BURNABY BC","","Canada","V5J5B9","N","604-433-2600","604-436-0073","Other","THIRD-PARTY OFFSITE SITE STORAGE"
1030259,"METEORA PARTNERS LLP","64 NORTH ROW","","LONDON","","United Kingdom","W1K 7DA","N","442074341234","442074341232","A third-party unaffiliated record keeper","FINANCIAL ACCOUNTS, PERSONNEL RECORDS, CERTAIN COMPLIANCE RECORDS, OTHER CORPORATE RECORDS."
1030259,"RAWLINSON & HUNTER","EIGHTH FLOOR, 6 NEW STREET SQUARE","NEW FETTER LANE","LONDON","","United Kingdom","EC4A 3AQ","N","44 (0) 20 7842","44 (0) 20 7842","A third-party unaffiliated record keeper","RAWLINSON AND HUNTER PROVIDE KINGSWAY CAPITAL LLP'S REGISTERED OFFICE; STATUTORY REGISTERS ARE KEPT AT THIS LOCATION."
1030259,"PICTET & CIE (EUROPE) S.A.","15A AVENUE JF KENNEDY","","LUXEMBOURG","","Luxembourg","L-1855","N","+352467171-1","+352224868","Other","TRADING RECORDS"
1030259,"NORTHERN TRUST INTERNATIONAL FUND ADMINISTRATION SERVICES (IRELAND) LIMITED","GEORGE'S COURT","54-62 TOWNSEND STREET","DUBLIN 2","","Ireland","","N","353-1-542-2000","","A third-party unaffiliated record keeper","ACCOUNTING RECORDS AND TRANSFER AGENCY/REGISTRAR RECORDS FOR THE KINGSWAY CAPITAL ICAV"
1030286,"TECHNICAL SERVICES OF NORTH AMERICA INC","60 EAST 42ND STREET","ROOM 2508","NEW YORK","NY","United States","10165","N","(212) 972-1095","(212) 953-0890","One of your branch offices or affiliates","CURRENT BOOKS AND RECORDS"
1030286,"C & I PARTNERS","309 SOUTH MAIN STREET","","SOUTHAMPTON","NY","United States","11968","Y","(212) 972-1095","212-953-0890","One of your branch offices or affiliates","HISTORICAL FILES"
1025377,"COCKRELL INTERESTS LLC","1000 MAIN ST.","SUITE 3250","HOUSTON","TX","United States","77002","N","713-209-7500","713-209-7599","Other","LEDGER AND RELATED SUPPORT MAINTAINED AT THE OFFICE OF THE ADMINISTRATOR, COCKRELL INTERESTS LLC."
1027552,"CHARTER GROUP FUND ADMINISTRATION LIMITED","2 BLEEDING HEART YARD","","LONDON","","United Kingdom","EC1N 8SJ","N","+442031378499","+442071835103","Other","AS ADMINISTRATOR TO THE CLEARANCE SEGURA FUND LP, THE ACCOUNTING RECORDS, SCHEDULE OF INVESTORS AND CLIENT DUE DILIGENCE DOCUMENTATION IS KEPT BY CHARTER GROUP FUND ADMINISTRATION."
1027385,"RECALL LIMITED","THE EISENHOWER CENTRE","CHENIES STREET","LONDON","","United Kingdom","WC1E 7ER","N","442077096700","","A third-party unaffiliated record keeper","PHYSICAL BACK-UP TAPES IN RESPECT OF INFORMATION CONTAINED ON SERVERS"
1027385,"RECALL LIMITED","3 OLD POST OFFICE LANE","KIDBROOKE","LONDON","","United Kingdom","SE3 9BY","N","442077096700","","A third-party unaffiliated record keeper","CERTAIN FINANCE RECORDS AND INVESTMENT RESEARCH MATERIALS"
1027385,"RECALL LIMITED","UNIT B RATTYS LANE","","HODDESDON","","United Kingdom","EN11 0RF","N","442077096700","","A third-party unaffiliated record keeper","CERTAIN FINANCE RECORDS AND INVESTMENT RESEARCH MATERIALS"
1027385,"RECALL LIMITED","GOWERTON ROAD","","NORTHAMPTON","","United Kingdom","NN4 7BW","N","442077096700","","A third-party unaffiliated record keeper","CERTAIN FINANCE RECORDS AND INVESTMENT RESEARCH MATERIALS"
1027385,"RECALL LIMITED","STUDLY ROAD","","STOCKWELL","","United Kingdom","SW4 6RA","N","442077096700","","A third-party unaffiliated record keeper","CERTAIN FINANCE RECORDS AND INVESTMENT RESEARCH MATERIALS"
1041993,"BARING NORTH AMERICA LLC","INDEPENDENCE WHARF","470 ATLANTIC AVENUE","BOSTON","MA","United States","02210","N","617-946-5200","","One of your branch offices or affiliates","BARING NORTH AMERICA LLC MAINTAINS CERTAIN BOOKS AND RECORDS RELATING TO A FEW CLIENTS OF BARING ASSET MANAGEMENT LIMITED."
1041993,"RESTORE PLC","8 BEAM REACH","COLDHARBOUR LANE","RAINHAM ESSEX","","United Kingdom","RM13 9YB","N","01708 527 600","01708 527651","A third-party unaffiliated record keeper","RESTORE PLC IS USED TO RETAIN CERTAIN BOOKS AND RECORDS THAT ARE NO LONGER REQUIRED TO BE KEPT ON-SITE.  SUCH BOOKS AND RECORDS ARE ARCHIVED AT RESTORE PLC."
1041993,"INSTITUTIONAL SHAREHOLDER SERVICES","702 KING FARM BOULEVARD","SUITE 400","ROCKVILLE","MD","United States","20850-4045","N","405.366.5101","405.366.5050","A third-party unaffiliated record keeper","CERTAIN BOOKS AND RECORDS RELATING TO APPLICANT'S PROXY VOTING ACTIVITIES ARE MAINTAINED BY INSTITUTIONAL SHAREHOLDER SERVICES"
1041993,"BARING ASSET MANAGEMENT (ASIA) LIMITED","19/F EDINBURGH TOWER, 15 QUEEN'S ROAD","THE LANDMARK","HONG KONG","","China","","N","852-2841-1411","852-2845-9050","One of your branch offices or affiliates","BARING ASSET MANAGEMENT (ASIA) LIMITED MAINTAINS CERTAIN BOOKS AND RECORDS RELATING TO CERTAIN TRADE ACTIVITY UNDERTAKEN."
1035547,"CITCO CORPORATE SERVICES (IRELAND) LIMITED","CUSTOM HOUSE PLAZA BLOCK 6","INTERNATIONAL FINANCIAL SERVICES CENTRE","DUBLIN","","Ireland","DUBLIN 1","N","353-1-636-7614","353-1-636-7801","A third-party unaffiliated record keeper","GENERAL ADMINISTRATIVE FILES, COPIES OF CORPORATE AND ORGANIZATIONAL DOCUMENTS, DOCUMENTS RELATING TO INVESTMENTS, COMPUTATION OF REGULATORY ASSETS UNDER MANAGEMENT, PORTFOLIO COMPANIES, AFFILIATED COMPANIES AND PRIVATE FUNDS."
1038827,"HEDGESERV LIMITED","75 ST STEPHEN'S GREEN","","DUBLIN 2","","Ireland","","N","353 1 234 1000","353 1 436 5564","A third-party unaffiliated record keeper","FINANCIAL RECORDS AND BOOKS OF ACCOUNT; CAPITAL ACTIVITY DOCUMENTATION"
1038827,"RICHARD FLEISCHMAN AND ASSOCIATES","2 MANHATTANVILLE ROAD","","PURCHASE","NY","United States","10577","N","(914) 729-7412","","A third-party unaffiliated record keeper","DATA BACK-UP."
1041805,"CORODATA RECORDS MANAGEMENT","450 CHARCOT AVE","","SAN JOSE","CA","United States","95131-1105","N","5103074430","","A third-party unaffiliated record keeper","ARCHIVED FINANCIAL DOCUMENTS AND LEGAL DOCUMENTS PRINCIPALLY FOR PORTFOLIO COMPANY INVESTMENTS."
1041805,"STANDISH MANAGEMENT, LLC","505 HAMILTON AVENUE","SUITE 210","PALO ALTO","CA","United States","94301","N","(415) 273-6810","","A third-party unaffiliated record keeper","FUND ADMINISTRATION PROVIDER. HOLDS FUND FINANCIAL INFORMATION AND FUND DOCUMENTATION."
1041805,"STANDISH MANAGEMENT, LLC","750 BATTERY STREET","SEVENTH FLOOR","SAN FRANCISCO","CA","United States","94111","N","(415) 273-6810","","A third-party unaffiliated record keeper","FUND ADMINISTRATION PROVIDER. HOLDS FUND FINANCIAL INFORMATION AND FUND DOCUMENTATION."
1041805,"SWITCH/SUPERNAP (FOR STANDISH MANAGEMENT)","7135 SOUTH DECATUR BOULEVARD","","LAS VEGAS","NV","United States","89118","N","(702) 444-4111","","A third-party unaffiliated record keeper","SWITCH/SUPERNAP IS THE DATA CENTER USED BY OUR OUTSOURCED FINANCIAL SERVICES PROVIDER (STANDISH MANAGEMENT) TO STORE FINANCIAL RECORDS."
1041805,"BOX, INC.","4440 EL CAMINO REAL","","LOS ALTOS","CA","United States","94022-1003","N","8777294269","","A third-party unaffiliated record keeper","BOX IS A CLOUD-BASED DATA STORAGE COMPANY. WE USE BOX PRIMARILY FOR PORTFOLIO COMPANY AND TRANSACTION RELATED INFORMATION AS WELL AS FUNDRAISING MATERIALS, DATA AND ANALYSES. WE INTEND TO MIGRATE ADDITIONAL DATA TO BOX IN THE FUTURE AS WE TRANSITION FROM INTERNAL SERVERS TO A FULLY CLOUD-BASED ENVIRONMENT."
1041805,"SALESFORCE","THE LANDMARK@ONE MARKET STREET","","SAN FRANCISCO","CA","United States","94105-1420","N","4159017000","","A third-party unaffiliated record keeper","SALESFORCE IS A CLOUD-BASED CRM SOFTWARE PROVIDER. WE USE SALESFORCE TO TRACK CONTACT INFORMATION OF AND INTERACTIONS WITH LP INVESTORS AND POTENTIAL LP INVESTORS PLUS PORTFOLIO COMPANIES AND POTENTIAL PORTFOLIO COMPANIES."
1041805,"DATTO","50 MILK STREET","","BOSTON","MA","United States","02109-5005","N","8005714984","","A third-party unaffiliated record keeper","DATTO IS A CLOUD-BASED DATA BACKUP SERVICE THAT WE USE FOR AUTOMATED ELECTRONIC BACKUP OF THE DATA WE STORE IN OUR SALESFORCE CRM SYSTEM. DATTO'S BACKUP SOFTWARE IS CALLED BACKUPIFY SAAS SOLUTION."
1041805,"TRIPSWARE","980 BROADWAY","","THORNWOOD","NY","United States","10594-1139","N","9147473244","","A third-party unaffiliated record keeper","TRIPSWARE IS A CLOUD-BASED SOFTWARE SOLUTION THAT WE UTILIZE TO INPUT AND TRACK TRAVEL EXPENSES, WHICH ARE THEN PASSED FROM THE TRIPSWARE SYSTEM TO OUR ACCOUNTING SYSTEM FOR FINANCIAL REPORTING PURPOSES."
1041805,"MICROSOFT CORPORATION","ONE MICROSOFT WAY","","REDMOND","WA","United States","98052-6399","N","8006427676","","A third-party unaffiliated record keeper","MICROSOFT PROVIDES TO US CLOUD-HOSTED SERVICES INCLUDING OFFICE 365 EMAIL. THE DATA THEY HOST FOR US COMPRISES PRIMARILY EMAILS AND EMAIL ATTACHMENTS."
1041805,"CORODATA RECORDS MANAGEMENT","740 NATIONAL COURT","","RICHMOND","CA","United States","94804-2008","N","5103074430","","A third-party unaffiliated record keeper","ARCHIVED FINANCIAL DOCUMENTS AND LEGAL DOCUMENTS PRINCIPALLY FOR PORTFOLIO COMPANY INVESTMENTS."
1040986,"STATE STREET PRIVATE EQUITY FUND SERVICES","1255 BROAD STREET","","CLIFTON","NJ","United States","07013","N","201.703.2628","201.475.8076","A third-party unaffiliated record keeper","FUND DOCUMENTS SUCH AS LIMITED PARTNERSHIP AGREEMENT, SUBSCRIPTION DOCUMENTS, SIDE LETTERS, CAPITAL CALL RECORDS, FINANCIAL STATEMENTS, ETC."
1040986,"FREEBORN & PETERS LLP","311 SOUTH WACKER DRIVE","SUITE 3000","CHICAGO","IL","United States","60606","N","312.360.6834","","Other","FUND DOCUMENTS SUCH AS LIMITED PARTNERSHIP AGREEMENT, SUBSCRIPTION DOCUMENTS, SIDE LETTERS, ETC."
1038492,"MORGAN STANLEY FUND SERVICES (BERMUDA) LIMITED","C/O. 2000 WESTCHESTER AVENUE","","PURCHASE","NY","United States","10577","N","1 914 225 8885","","A third-party unaffiliated record keeper","ADMINISTRATOR OF CERTAIN FUNDS; INFORMATION RELATING TO VALUATION, INVESTOR SUBSCRIPTIONS, FINANCIAL REPORTING, FUND ACCOUNTING."
1038492,"FAS LIMITED","ROOM 902-903 WILSON HOUSE","19-27 WYNDHAM STREET, CENTRAL","HONG KONG","","Hong kong","","N","+852 2851 7743","","A third-party unaffiliated record keeper","COMPANY SECRETARY WHICH RETAINS CERTAIN BOOKS AND RECORDS RELATED TO THE COMPANY."
1040178,"MAPLES CORPORATE SERVICES LIMITED","PO BOX 309, UGLAND HOUSE","","GRAND CAYMAN","","Cayman Islands","KY1-1104","N","+13459498066","+13459498080","A third-party unaffiliated record keeper","CORPORATE/STATUTORY DOCUMENTATION OF THE COMPANY INCLUDING MINUTE BOOK, REGISTER OF MEMBERS, REGISTER OF DIRECTORS ETC."
1040178,"ABRAAJ CAPITAL LIMITED","DUBAI INTERNATIONAL FINANCIAL CENTRE","GATE VILLAGE #8, LEVEL 3","DUBAI","","United Arab Emirates","","N","+97145064400","+97145064600","One of your branch offices or affiliates","FINANCIAL/ACCOUNTING RECORDS"
1038131,"MARKEL CORPORATION","4521 HIGHWOODS PARKWAY","","GLEN ALLEN","VA","United States","23060","N","804-527-7711","","One of your branch offices or affiliates","PERSONAL SECURITY TRANSACTION RECORDS FROM WHEN FIRM WAS REGISTERED WITH THE SEC AS AN INVESTMENT ADVISOR ARE KEPT AT MARKEL CORPORATION"
1040445,"BDO AS","MUNKEDAMSVEIEN","45","OSLO","","Norway","0250","N","004723119100","","A third-party unaffiliated record keeper","BDO IS THE COMPANIES ACCOUNTANT AND SOME OF THE RECORDS WILL BE AT BDO OFFICE."
1040445,"RECALL AS","DELIVEIEN","5","VESTBY","","Norway","154","N","004764986630","","A third-party unaffiliated record keeper","STORAGE COMPANY"
1039947,"CCL LIMITED","LEVEL 2, GATE VILLAGE 7","DIFC","DUBAI","","United Arab Emirates","506733","N","97143230800","","A third-party unaffiliated record keeper","ALL COMPLIANCE DOCUMENTATION IN RELATION TO THE DFSA AND DIFC REQUIREMENTS"
1041815,"CORODATA RECORDS MANAGEMENT","450 CHARCOT AVE","","SAN JOSE","CA","United States","95131-1105","N","5103074430","","A third-party unaffiliated record keeper","ARCHIVED FINANCIAL DOCUMENTS AND LEGAL DOCUMENTS PRINCIPALLY FOR PORTFOLIO COMPANY INVESTMENTS."
1041815,"STANDISH MANAGEMENT, LLC","505 HAMILTON AVENUE","SUITE 210","PALO ALTO","CA","United States","94301","N","(415) 273-6810","","A third-party unaffiliated record keeper","FUND ADMINISTRATION PROVIDER. HOLDS FUND FINANCIAL INFORMATION AND FUND DOCUMENTATION."
1041815,"STANDISH MANAGEMENT, LLC","750 BATTERY STREET","SEVENTH FLOOR","SAN FRANCISCO","CA","United States","94111","N","(415) 273-6810","","A third-party unaffiliated record keeper","FUND ADMINISTRATION PROVIDER. HOLDS FUND FINANCIAL INFORMATION AND FUND DOCUMENTATION."
1041815,"SWITCH/SUPERNAP (FOR STANDISH MANAGEMENT)","7135 SOUTH DECATUR BOULEVARD","","LAS VEGAS","NV","United States","89118","N","(702) 444-4111","","A third-party unaffiliated record keeper","SWITCH/SUPERNAP IS THE DATA CENTER USED BY OUR OUTSOURCED FINANCIAL SERVICES PROVIDER (STANDISH MANAGEMENT) TO STORE FINANCIAL RECORDS."
1041815,"BOX, INC.","4440 EL CAMINO REAL","","LOS ALTOS","CA","United States","94022-1003","N","8777294269","","A third-party unaffiliated record keeper","BOX IS A CLOUD-BASED DATA STORAGE COMPANY. WE USE BOX PRIMARILY FOR PORTFOLIO COMPANY AND TRANSACTION RELATED INFORMATION AS WELL AS FUNDRAISING MATERIALS, DATA AND ANALYSES. WE INTEND TO MIGRATE ADDITIONAL DATA TO BOX IN THE FUTURE AS WE TRANSITION FROM INTERNAL SERVERS TO A FULLY CLOUD-BASED ENVIRONMENT."
1041815,"SALESFORCE","THE LANDMARK@ONE MARKET STREET","","SAN FRANCISCO","CA","United States","94105-1420","N","4159017000","","A third-party unaffiliated record keeper","SALESFORCE IS A CLOUD-BASED CRM SOFTWARE PROVIDER. WE USE SALESFORCE TO TRACK CONTACT INFORMATION OF AND INTERACTIONS WITH LP INVESTORS AND POTENTIAL LP INVESTORS PLUS PORTFOLIO COMPANIES AND POTENTIAL PORTFOLIO COMPANIES."
1041815,"DATTO","50 MILK STREET","","BOSTON","MA","United States","02109-5005","N","8005714984","","A third-party unaffiliated record keeper","DATTO IS A CLOUD-BASED DATA BACKUP SERVICE THAT WE USE FOR AUTOMATED ELECTRONIC BACKUP OF THE DATA WE STORE IN OUR SALESFORCE CRM SYSTEM. DATTO'S BACKUP SOFTWARE IS CALLED BACKUPIFY SAAS SOLUTION."
1041815,"TRIPSWARE","980 BROADWAY","","THORNWOOD","NY","United States","10594-1139","N","9147473244","","A third-party unaffiliated record keeper","TRIPSWARE IS A CLOUD-BASED SOFTWARE SOLUTION THAT WE UTILIZE TO INPUT AND TRACK TRAVEL EXPENSES, WHICH ARE THEN PASSED FROM THE TRIPSWARE SYSTEM TO OUR ACCOUNTING SYSTEM FOR FINANCIAL REPORTING PURPOSES."
1041815,"MICROSOFT CORPORATION","ONE MICROSOFT WAY","","REDMOND","WA","United States","98052-6399","N","8006427676","","A third-party unaffiliated record keeper","MICROSOFT PROVIDES TO US CLOUD-HOSTED SERVICES INCLUDING OFFICE 365 EMAIL. THE DATA THEY HOST FOR US COMPRISES PRIMARILY EMAILS AND EMAIL ATTACHMENTS."
1041815,"CORODATA RECORDS MANAGEMENT","740 NATIONAL COURT","","RICHMOND","CA","United States","94804-2008","N","5103074430","","A third-party unaffiliated record keeper","ARCHIVED FINANCIAL DOCUMENTS AND LEGAL DOCUMENTS PRINCIPALLY FOR PORTFOLIO COMPANY INVESTMENTS."
1038552,"IRON MOUNTAIN","NORMAN ROAD","","BELVEDERE","","United Kingdom","DA176JY","N","440800270270","","A third-party unaffiliated record keeper","ARCHIVED BUSINESS RECORDS"
1039991,"ACCESS RECORDS MANAGEMENT","UNIT 9, 1A HALE STREET","","BOTANY","","Australia","2019","N","612 9666 7933","","A third-party unaffiliated record keeper","ALL COMPANY RECORDS REQUIRED BY LAW TO BE RETAINED FOR A CERTAIN PERIOD INCLUDING CLIENT FILES AND ACCOUNTING RECORDS"
1040985,"NORTHERN TRUST HEDGE FUND SERVICES LLC","50 SOUTH LA SALLE STREET","LQ-09","CHICAGO","IL","United States","60603","N","212-909-0900","","A third-party unaffiliated record keeper","GENERAL FUND RECORDS"
1027721,"MORGAN STANLEY","1585 BROADWAY","","NEW YORK","NY","United States","10036","N","212-296-4114","","A third-party unaffiliated record keeper","BOOKS AND RECORDS"
1027721,"APEX FUND SERVICES (US) INC.","25 BROAD STREET, 2ND FLOOR","","RED BANK","NJ","United States","07701","N","732-936-8420","","A third-party unaffiliated record keeper","QUASAR FUND BOOKS AND RECORDS"
1027721,"SS&C GLOBEOP","80 LAMBERTON ROAD","","WINDSOR","CT","United States","06095","N","800-234-0556","860-298-4500","A third-party unaffiliated record keeper","QUANTZ QUARK FUND BOOKS AND RECORDS"
1041410,"RICHARDS AND RICHARDS","1741 ELM HILL PIKE","","NASHVILLE","TN","United States","37210","N","(615) 242-2100","","A third-party unaffiliated record keeper","BOOKS AND RECORDS HOUSED HERE INCLUDE: ARCHIVED PORTFOLIO COMPANY FINANCIALS, ARCHIVED LEGAL DOCUMENTS,  ARCHIVED DUE DILIGENCE MATERIALS"
1040892,"AYORA CAPITAL MANAGEMENT LLP","ST ALBANS HOUSE","57-59 HAYMARKET","LONDON","","United Kingdom","SW1Y 4QX","N","020 3757 4861","","One of your branch offices or affiliates","BOOKS AND RECORDS OF WHITNEY CAPITAL SERIES FUND LLC - SERIES LS28"
1040892,"HSE CAPITAL MANAGEMENT LLP","ST ALBANS HOUSE","57-59 HAYMARKET","LONDON","","United Kingdom","SW1Y 4QX","N","020 3757 4882","","One of your branch offices or affiliates","BOOKS AND RECORDS OF WHITNEY CAPITAL SERIES FUND LLC - SERIES LS29"
1040892,"PAGLIARO CAPITAL MANAGEMENT LLP","ST ALBANS HOUSE","57-59 HAYMARKET","LONDON","","United Kingdom","SW1Y 4QX","N","020 3757 4871","","One of your branch offices or affiliates","BOOKS AND RECORDS OF WHITNEY CAPITAL SERIES FUND LLC - SERIES LS30"
1040892,"SS&C GLOBEOP","1 ST MARTINS LE GRAND","","LONDON","","United Kingdom","EC1A 4AS","N","+4420-3310-300","","A third-party unaffiliated record keeper","FUND ADMINISTRATION OF WHITNEY CAPITAL SERIES FUNDS"
1040892,"SELWOOD ASSET MANAGEMENT LLP","55 BRYANSTON STREET","","LONDON","","United Kingdom","W1H 7AA","N","020 7868 22","","One of your branch offices or affiliates","BOOKS AND RECORDS OF SELWOOD FUNDS (NON-U.S.)"
1040892,"QUINTILLION LIMITED","24-26 CITI QUAY","","DUBLIN 2","","Ireland","","N","353 1 523 8000","","A third-party unaffiliated record keeper","FUND ADMINISTRATION FOR THE SELWOOD FUNDS (NON-U.S.)"
1040892,"RBH CAPITAL MANAGEMENT LLP","ST ALBANS HOUSE","57-59 HAYMARKET","LONDON","","United Kingdom","SW1Y 4QX","N","000 0000 0000","","One of your branch offices or affiliates","CERTAIN BOOKS AND RECORDS OF MAP 510"
1033466,"CAPITAL GUARDIAN TRUST COMPANY","11100 SANTA MONICA BOULEVARD","16TH FLOOR","LOS ANGELES","CA","United States","90025-3395","N","(310) 996-6000","","One of your branch offices or affiliates","FIXED-INCOME RELATED TRANSACTION RECORDS"
1033466,"CAPITAL GUARDIAN TRUST COMPANY","333 SOUTH HOPE STREET","55TH FLOOR","LOS ANGELES","CA","United States","90071-1406","N","(213) 486-9200","","One of your branch offices or affiliates","TRANSACTION RELATED RECORDS"
1033466,"CAPITAL INTERNATIONAL, INC.","ONE RAFFLES QUAY","33RD FLOOR NORTH TOWER","SINGAPORE","","Singapore","048583","N","+6565353777","","One of your branch offices or affiliates","TRANSACTION RELATED RECORDS"
1033466,"UBS, SA","PACE DE CORNAVIN 12","","GENEVE","","Switzerland","1201","N","+41223757575","","A third-party unaffiliated record keeper","ORIGINAL SIGNED AGREEMENTS; ORIGINAL COPIES OF KYC"
1033466,"JP MORGAN BANK SA","6C, ROUTE DE TRVES","","SENNINGERBERG","","Luxembourg","2633","N","+352462685277","","A third-party unaffiliated record keeper","BOOK OF RECORD FOR PRIVATE FUNDS LISTED IN SCHEDULE D SECTION 7(B)1 AS CUSTODIAN, PAYING AGENT AND ADMINISTRATIVE MANAGER OF THE PRIVATE FUNDS."
1033466,"CAPITAL INTERNATIONAL SRL","2, AVENUE DU BOUCHET, CP 180","","GENEVA 28","","Switzerland","1211","N","+41228074112","","Other","- CORPORATE AND ACCOUNTING RECORDS (E.G. ACCOUNTING BOOKS); REGULATORY DOCUMENTS, SUCH AS ANTI MONEY LAUNDERING, ""KNOW YOUR CLIENTS"" FOLDERS"
1033466,"CAPITAL INTERNATIONAL LIMITED","40, GROSVENOR PLACE","","LONDON","","United Kingdom","SW1X 7GG","N","+442078645000","","One of your branch offices or affiliates","TRANSACTION RELATED RECORDS"
1033466,"CAPITAL INTERNATIONAL MANAGEMENT COMPANY SRL","37A AVENUE J.-F. KENNEDY","","LUXEMBOURG","","Luxembourg","1855","N","352 27 17 62 1","","One of your branch offices or affiliates","MANAGEMENT COMPANY RECORDS"
1039200,"BNP PARIBAS SECURITIES SERVICES, ACTING THROUGH IT HONG KONG BRANCH","21/F, PCCW TOWER, TAIKOO PLACE","979 KING'S ROAD, QUARRY BAY","HONG KONG","","Hong kong","","N","852-2929-8888","852-2521-7653","A third-party unaffiliated record keeper","THE SUB-ADMINISTRATOR KEEPS RECORDS RELATED TO FUND DEALING RECORDS, TRADING RECORDS, FUND ACCOUNTING RECORDS, AND OTHER DOCUMENTS RELATED TO THE OPERATION OF THE PRIVATE FUNDS THAT THE INVESTMENT ADVISOR ADVISES."
1039200,"BNP PARIBAS FUND ADMINISTRATION SERVICES (CAYMAN) LIMITED","802 WEST BAY ROAD GRAND PAVILION COMMERCIAL CENTRE","P.O. BOX 2003","GRAND CAYMAN","","Cayman Islands","KY1-1104","N","1-345-814-7420","","A third-party unaffiliated record keeper","THE ADMINISTRATOR KEEPS RECORDS RELATED TO FUND DEALING RECORDS, TRADING RECORDS, FUND ACCOUNTING RECORDS, AND OTHER DOCUMENTS RELATED TO THE OPERATION OF THE PRIVATE FUNDS THAT THE INVESTMENT ADVISOR ADVISES."
1041150,"BABSON CAPITAL MANAGEMENT LLC","1500 MAIN STREET","P.O. BOX 15189","SPRINGFIELD","MA","United States","01115","N","413-226-1000","413-226-1299","One of your branch offices or affiliates","CERTAIN BOOKS AND RECORDS REQUIRED BY SECTION 204 OF THE INVESTMENT ADVISERS ACT OF 1940 AND RELEVANT AUSTRALIAN SECURITIES AND INVESTMENT COMMISSION RECORDKEEPING REQUIREMENTS IN RELATION TO ACTIVITIES CARRIED OUT BY THE FIRM, INCLUDING THOSE RELATING TO THE FIRM'S INVESTMENT ADVISORY BUSINESS."
1041150,"INFOSHRED LLC","3 CRAFTSMAN ROAD","","EAST WINDSOR","CT","United States","06088","N","888-800-1552","","A third-party unaffiliated record keeper","THIS LOCATION IS USED TO STORE ALL PAPER RECORDS FOR CERTAIN OFFICE LOCATIONS.  THIS LOCATION IS ALSO USED AS AN OFF-SITE REPOSITORY FOR ELECTRONIC BACK-UPS OF FIRM DATA FOR DISASTER RECOVERY PURPOSES FOR CERTAIN OFFICE LOCATIONS."
1041150,"IRON MOUNTAIN","175 BAREFOOT ROAD","","NORTHBOROUGH","MA","United States","01532","N","978-671-6400","","A third-party unaffiliated record keeper","CERTAIN BOOKS AND RECORDS REQUIRED BY SECTION 204 OF THE INVESTMENT ADVISERS ACT OF 1940 AND RELEVANT AUSTRALIAN SECURITIES AND INVESTMENTS COMMISSION RECORDKEEPING REQUIREMENTS IN RELATION TO ACTIVITIES CARRIED OUT BY THE FIRM, INLCUDING THOSE RELATED TO THE FIRM'S INVESTMENT ADVISORY BUSINESS."
1041150,"MASSACHUSETTS MUTUAL LIFE INSURANCE COMPANY","1295 STATE STREET","","SPRINGFIELD","MA","United States","01111","N","413-788-8411","413-744-6338","One of your branch offices or affiliates","CERTAIN BOOKS AND RECORDS REQUIRED BY SECTION 204 OF THE INVESTMENT ADVISERS ACT OF 1940 AND RELEVANT AUSTRALIAN SECURITIES AND INVESTMENTS COMMISSION RECORDKEEPING REQUIREMENTS IN RELATION TO ACTIVITIES CARRIED OUT BY THE FIRM, INLCUDING THOSE RELATING TO THE FIRM'S INVESTMENT ADVISORY BUSINESS.  THIS LOCATION IS ALSO USED AS AN OFF-SITE REPOSITORY FOR ELECTRONIC BACK-UPS OF FIRM DATA FOR DISASTER RECOVERY PURPOSES FOR CERTAIN OFFICE LOCATIONS."
1041150,"BABSON CAPITAL MANAGEMENT LLC","INDEPENDENCE WHARF","470 ATLANTIC AVENUE","BOSTON","MA","United States","02110","N","617-761-3800","617-761-6527","One of your branch offices or affiliates","CERTAIN BOOKS AND RECORDS REQUIRED BY SECTION 204 OF THE INVESTMENT ADVISERS ACT OF 1940 AND RELEVANT AUSTRALIAN SECURITIES AND INVESTMENTS COMMISSION RECORDKEEPING REQUIREMENTS IN RELATION TO ACTIVITIES CARRIED OUT BY THE FIRM, INCLUDING THOSE RELATING TO THE FIRM'S COMPLIANCE FUNCTION."
1041150,"BABSON CAPITAL MANAGEMENT LLC","550 S. TRYON STREET","SUITE 3300","CHARLOTTE","NC","United States","28202","N","704-805-7200","704-805-7302","One of your branch offices or affiliates","CERTAIN BOOKS AND RECORDS REQUIRED BY SECTION 204 OF THE INVESTMENT ADVISERS ACT OF 1940 AND RELEVANT AUSTRALIAN SECURITIES AND INVESTMENTS COMMISSION RECORDKEEPING REQUIREMENTS IN RELATION TO ACTIVITIES CARRIED OUT BY THE FIRM, INCLUDING THOSE RELATING TO THE FIRM'S INVESTMENT ADVISORY BUSINESS."
1038912,"WELLSFARGOGLOBALFUNDSERVICESLLC","83CLEMENCEAUAVENUE","11THFLOOR","SINGAPORE","","Singapore","","N","+65239920","","Other","PORTFOLIOACCOUNTS,SUBSCRIPTIONS,REDEMPTIONS,FUNDNAV"
1039966,"CITCO FUND SERVICES (IRELAND) LIMITED","CUSTOM HOUSE PLAZA","BLOCK 6, IFSC","DUBLIN 1","","Ireland","","N","353 1 636 7300","353 1 636 0466","A third-party unaffiliated record keeper","IN ITS CAPACITY AS A THIRD PARTY ADMINISTRATOR FOR CERTAIN PRIVATE FUNDS MANAGED BY METAGE CAPITAL LIMITED, CITCO MAINTAINS CERTAIN BOOKS AND RECORDS RELATING TO THE PRIVATE FUNDS AT THIS LOCATION SUCH AS ACCOUNTING RECORDS AND PORTFOLIO INVESTMENTS."
1033860,"MAPLES FUND SERVICES (MA) INC.","175 FEDERAL STREET","","BOSTON","MA","United States","02110","N","617-517-0089","","A third-party unaffiliated record keeper","FUND BOOKS & RECORDS."
1033860,"LICCAR","231 S LASALLE ST","#650","CHICAGO","IL","United States","60604","N","312-922-6600","","A third-party unaffiliated record keeper","FUND BOOKS & RECORDS."
1033860,"MAPLES FUND SERVICES (CAYMAN) LIMITED","PO BOX 1093 - BOUNDARY HALL, CRICKET SQUARE","","GRAND CAYMAN","","Cayman Islands","KY1-1102","N","345-949-8066","345-949-8080","A third-party unaffiliated record keeper","FUND BOOKS & RECORDS."
1034677,"GRACE RECORDS MANAGEMENT","420 SHERBOURNE ROAD","","WILLAWONG","","Australia","4006","N","+61 7 32466777","+61 7 32466797","A third-party unaffiliated record keeper","ARCHIVING OF HARD COPIES OF BOOKS AND RECORDS RELATING TO OUR INVESTMENT ADVISORY BUSINESS"
1034677,"QIC LIMITED","CENTRAL PLAZA TWO","66 EAGLE STREET","BRISBANE","","Australia","4000","N","+61 7 33603800","+61 7 33603979","One of your branch offices or affiliates","BOOKS AND RECORDS RELATING TO OUR INVESTMENT ADVISORY BUSINESS"
1039267,"STATE STREET FUND SERVICES (IRELAND) LIMITED","78 SIR JOHN ROGERSON'S QUAY","","DUBLIN","","Ireland","2","N","+35317768000","+35317768491","A third-party unaffiliated record keeper","ORGANIZATIONAL, VALUATION, AND SUBSCRIPTION DOCUMENTS AND RECORDS REQUIRED PURSUANT TO RULE 204-2 OF THE INVESTMENT ADVISER ACT OF 1940, AS AMENDED."
1039267,"STATE STREET CAYMAN TRUST COMPANY, LTD.","PO BOX 31113, 45 MARKET STREET","SUITE 3206A, GARDENIA COURT","GRAND CAYMAN","","Cayman Islands","","N","345-949-6644","","A third-party unaffiliated record keeper","ORGANIZATIONAL, VALUATION, AND SUBSCRIPTION DOCUMENTS AND RECORDS  REQUIRED PURSUANT TO RULE 204-2 OF THE INVESTMENT ADVISER ACT OF 1940, AS AMENDED."
1041814,"DATTO","50 MILK STREET","","BOSTON","MA","United States","02109-5005","N","8005714984","","A third-party unaffiliated record keeper","DATTO IS A CLOUD-BASED DATA BACKUP SERVICE THAT WE USE FOR AUTOMATED ELECTRONIC BACKUP OF THE DATA WE STORE IN OUR SALESFORCE CRM SYSTEM.  DATTO'S BACKUP SOFTWARE IS CALLED BACKUPIFY SAAS SOLUTION."
1041814,"TRIPSWARE","980 BROADWAY","SUITE 217","THORNWOOD","NY","United States","10594-1139","N","9147473244","","A third-party unaffiliated record keeper","TRIPSWARE IS A CLOUD-BASED SOFTWARE SOLUTION THAT WE UTILIZE TO INPUT AND TRACK TRAVEL EXPENSES, WHICH ARE THEN PASSED FROM THE TRIPSWARE SYSTEM TO OUR ACCOUNTING SYSTEM FOR FINANCIAL REPORTING PURPOSES."
1041814,"SALESFORCE","THE LANDMARK @ ONE MARKET STREET","","SAN FRANCISCO","CA","United States","94105-1420","N","4159017000","","A third-party unaffiliated record keeper","SALESFORCE IS A CLOUD-BASED CRM SOFTWARE PROVIDER.  WE USE SALESFORCE TO TRACK CONTACT INFORMATION OF AND INTERACTIONS WITH LP INVESTORS AND POTENTIAL LP INVESTORS PLUS PORTFOLIO COMPANIES AND POTENTIAL PORTFOLIO COMPANIES."
1041814,"MICROSOFT CORPORATION","ONE MICROSOFT WAY","","REDMOND","WA","United States","98052-6399","N","+1 800 6427676","","A third-party unaffiliated record keeper","MICROSOFT PROVIDES TO US CLOUD-HOSTED SERVICES INCLUDING OFFICE 365 EMAIL. THE DATA THEY HOST FOR US COMPRISES PRIMARILY EMAILS AND EMAIL ATTACHMENTS."
1041814,"CODE42","ONE MAIN STREET SE","","MINNEAPOLIS","MN","United States","55414-1035","N","+1 844 3334242","","A third-party unaffiliated record keeper","CODE42 PROVIDES AUTOMATED ELECTRONIC BACKUP OF DATA STORED ON OUR INTERNAL SERVERS."
1041814,"INTRALINKS","150 EAST 42ND STREET","8TH FLOOR","NEW YORK","NY","United States","10017-5626","N","2125437700","","A third-party unaffiliated record keeper","WE USE INTRALINKS TO HOST A VIRTUAL, CLOUD-BASED DATA ROOM IN WHICH WE MAKE AVAILABLE FUNDRAISING RELATED FIRM DATA AND ANALYSES FOR POTENTIAL LIMITED PARTNERS."
1041814,"BOX, INC.","4440 EL CAMINO REAL","","LOS ALTOS","CA","United States","94022-1003","N","8777294269","","A third-party unaffiliated record keeper","BOX IS A CLOUD-BASED DATA STORAGE COMPANY.  WE USE BOX PRIMARILY FOR PORTFOLIO COMPANY AND TRANSACTION RELATED INFORMATION AS WELL AS FUNDRAISING MATERIALS, DATA AND ANALYSES.  WE INTEND TO MIGRATE ADDITIONAL DATA TO BOX IN THE FUTURE AS WE TRANSITION FROM INTERNAL SERVERS TO A FULLY CLOUD-BASED ENVIRONMENT."
1041814,"STANDISH MANAGEMENT","505 HAMILTON AVENUE","SUITE 210","PALO ALTO","CA","United States","94301-2008","N","16502736810","","A third-party unaffiliated record keeper","FUNDS ADMINISTRATOR - HOLDS FINANCIAL INFORMATION AND FUND DOCUMENTATION."
1041814,"STANDISH MANAGEMENT","750 BATTERY STREET","7TH FLOOR","SAN FRANCISCO","CA","United States","94111-1523","N","14152736810","","A third-party unaffiliated record keeper","FUNDS ADMINISTRATOR - HOLDS FINANCIAL INFORMATION AND FUND DOCUMENTATION."
1041814,"CORODATA RECORDS MANAGEMENT","450 CHARCOT AVENUE","","SAN JOSE","CA","United States","95131-1105","N","+1 408 4281100","","A third-party unaffiliated record keeper","ARCHIVED FINANCIAL DOCUMENTS AND LEGAL DOCUMENTS."
1039263,"JT DATA CENTRE","LA GRANDE ROUTE DE ST MARTIN","","ST SAVIOUR, CHANNEL ISLANDS","","Jersey","","N","+44 1534 882 3","","Other","DATA BACK-UP AND ARCHIVING."
1039263,"BNY MELLON FUND SERVICES (IRELAND) LIMITED","RIVERSIDE TWO","SIR JOHN ROGERSON'S QUAY, GRAND CANAL DOCK","DUBLIN 2","","Ireland","","N","353 1 790 3555","","A third-party unaffiliated record keeper","FINANCIAL ACCOUNTING RECORDS AND DATA, AND OTHER INFORMATION ANCILLARY TO ITS ROLE AS FUND ADMINISTRATOR TO CERTAIN FUNDS MANAGED BY THE FIRM"
1039263,"CITCO FUND SERVICES (IRELAND) LIMITED","BLOCK 6, CUSTOM HOUSE PLAZA, IFSC","","DUBLIN 1","","Ireland","","N","353(1)637 7300","","A third-party unaffiliated record keeper","FINANCIAL ACCOUNTING RECORDS AND DATA, AND OTHER INFORMATION ANCILLARY TO ITS ROLE AS FUND ADMINISTRATOR TO CERTAIN FUNDS MANAGED BY THE FIRM"
1039263,"DB FUND SERVICES LLC","1761 EAST ST. ANDREWS PLACE","","SANTA ANA","CA","United States","92705","N","7142476335","","One of your branch offices or affiliates","FINANCIAL ACCOUNTING RECORDS AND DATA, AND OTHER INFORMATION ANCILLARY TO ITS ROLE AS FUND ADMINISTRATOR TO CERTAIN FUNDS MANAGED BY THE FIRM."
1039263,"STATE STREET FUND SERVICES (IRELAND) LIMITED,","78 SIR JOHN ROGERSON'S QUAY","","DUBLIN 2","","Ireland","","N","+353 1 776 800","","A third-party unaffiliated record keeper","FINANCIAL ACCOUNTING RECORDS AND DATA, AND OTHER INFORMATION ANCILLARY TO ITS ROLE AS FUND ADMINISTRATOR TO CERTAIN FUNDS MANAGED BY THE FIRM."
1041573,"APEX FUND SERVICES","15720 BRIXHAM HILL AVENUE, SUITE 206","","CHARLOTTE","NC","United States","28277","N","704-752-8996","704-752-8997","A third-party unaffiliated record keeper","BOOKS AND RECORDS OF FINANCIAL INSTITUTION PARTNERS III, L.P., SUCH AS FINANCIAL RECORDS, SUBSCRIPTION DOCUMENTS AND REDEMPTION REQUESTS."
1040559,"HORIZON ASSET MANAGEMENT LLC","470 PARK AVENUE SOUTH","3RD FLOOR SOUTH","NEW YORK","NY","United States","10016","N","646-495-7333","646-495-0075","Other","PORTFOLIO MANAGEMENT RECORDS ARE MAINTAINED AT HORIZON ASSET MANAGEMENT LLC, AN SEC REGISTERED INVESTMENT ADVISER."
1040674,"WELLSFARGOGLOBALFUNDSERVICESLLC","83CLEMENCEAUAVENUE","11THFLOOR","SINGAPORE","","Singapore","","N","+65239920","","Other","PORTFOLIOACCOUNTS,SUBSCRIPTIONS,REDEMPTIONS,FUNDNAV"
1040919,"CITCO FUND SERVICES (CAYMAN ISLANDS) LIMITED","89 NEXUS WAY","CAMANA BAY","GEORGE TOWN","","Cayman Islands","KY1-1206","N","1345949397","","Other","FUND ADMINISTRATOR RELATED DOCUMENTS"
1040919,"CONTROL GROUP (UK) LTD","ATLANTIC HOUSE, MICHIGAN DRIVE","TONGWELL","MILTON KEYNES","","United Kingdom","MK15 8HQ","N","+448452302485","","A third-party unaffiliated record keeper","OFF SITE ARCHIVE FOR IT TAPES, BOOKS AND RECORDS"
1041316,"JP MORGAN HEDGE FUND SERVICES (IRELAND) LIMITED","1 GEORGE'S DOCK","INTERNATIONAL FINANCIAL SERVICES CENTRE","DUBLIN","","Ireland","","N","353 (0)1 845 7","","A third-party unaffiliated record keeper","FRM INVESTMENT MANAGEMENT LIMITED SERVES AS AN INVESTMENT ADVISER TO A POOLED INVESTMENT VEHICLE.  RECORDS RELATED TO SUCH VEHICLE MAY BE MAINTAINED AT THIS LOCATION."
1041316,"FINANCIAL RISK MANAGEMENT LIMITED","RIVERBANK HOUSE","2 SWAN LANE","LONDON","","United Kingdom","EC4R 3AD","N","+44 20 7144 10","+44 20 7144 20","One of your branch offices or affiliates","CERTAIN BOOKS AND RECORDS REQUIRED BY SECTION 204 OF THE ADVISERS ACT ARE MAINTAINED AT THIS LOCATION FROM TIME TO TIME."
1038017,"CIE MANAGEMENT II LIMITED","HERITAGE HALL","LE MARCHANT STREET","ST PETER PORT","","Guernsey","GY14HY","N","+441481716000","","One of your branch offices or affiliates","BOOKS AND RECORDS RELATING TO THE GENERAL PARTNER."
1038017,"CIE MANAGEMENT IX LIMITED","HERITAGE HALL","LE MARCHANT STREET","ST PETER PORT","","Guernsey","GY14HY","N","1481716000","1481716000","One of your branch offices or affiliates","BOOKS AND RECORDS RELATING TO THE GENERAL PARTNER"
1038017,"BC PARTNERS INC.","650 MADISON AVENUE","15TH FLOOR","NEW YORK","NY","United States","10022","N","+1 212 891 288","+1 212 891 289","One of your branch offices or affiliates","BOOKS AND RECORDS OF A BC PARTNERS AFFILIATE"
1038017,"BC PARTNERS SARL","58-60 AVENUE KLBER","","PARIS","","France","75116","N","+33 1 5357 600","+33 1 5357 600","One of your branch offices or affiliates","BOOKS AND RECORDS OF AN AFFILIATE"
1038017,"BC PARTNER BETEILIGUNGSBERATUNG GMBH","NEUER WALL 55","","HAMBURG","","Germany","20354","N","+49 40 889 177","+49 40 8891 77","One of your branch offices or affiliates","BOOKS AND RECORDS OF A BC PARTNERS AFFILIATE"
1038017,"BCEC MANAGEMENT X LIMITED","HERITAGE HALL","LE MARCHANT STREET","ST PETER PORT","","Guernsey","GY14HY","N","+44 1481 740 3","+44 1481 716 2","One of your branch offices or affiliates","BOOKS AND RECORDS RELATING TO THE GENERAL PARTNER"
1038017,"DIGITAL REALTY","3 FOXBORO PARK","HOLMETHORPE AVENUE","REDHILL","","United Kingdom","RH12NB","N","+442079549100","","A third-party unaffiliated record keeper","DISASTER RECOVERY DATACENTER"
1038017,"SURE (GUERNSEY) LIMITED","CENTENARY HOUSE","LA VRANGUE","ST PETER PORT","","Guernsey","GY12EY","N","01481700700","","A third-party unaffiliated record keeper","GUERNSEY DATA CENTER"
1041371,"REGAL FUNDS MANAGEMENT ASIA PTE LIMITED","80 RAFFLES PLACE","#57-01A UOB PLAZA 1","SINGAPORE","","Singapore","048624","N","+6566541750","+6566541735","One of your branch offices or affiliates","CERTAIN BOOKS AND RECORDS RELATED TO INVESTMENT MANAGEMENT, PORTFOLIO MANAGEMENT, ADMINISTRATION, BACK OFFICE SUPPORT DOCUMENTS."
1041371,"HSBC INSTITUTIONAL TRUST SERVICES (ASIA) LIMITED","17/F TOWER 2&3 HSBC CENTRE","1 SHAM MONG ROAD","KOWLOON","","Hong kong","","N","+85236635405","+85234092690","Other","HSBC IS THE ADMINISTRATOR'S AGENT OR DELEGATE AND MAINTAINS CERTAIN BOOKS AND RECORDS RELATED TO ADMINISTRATION AND INVESTOR SUBSCRIPTIONS AND REDEMPTIONS."
1041371,"BANK OF BERMUDA (CAYMAN) LIMITED","P.O. BOX 513, HSBC HOUSE","68 WEST BAY ROAD","GRAND CAYMAN","","Cayman Islands","KY1-1106","N","+12039835600","","Other","FUND ADMINISTRATOR, REGISTRAR AND TRANSFER AGENT; PROVIDES CERATIN FINANCIAL ACCOUNTING, ADMINSITRATIVE AND OTHER SERVICES TO THE FUND(S)."
1041371,"APEX FUND SERVICES LTD","20 REID STREET, 3RD FLOOR","WILLIAMS HOUSE","HAMILTON","","Bermuda","HM11","N","+14412920067","","Other","APEX FUND SERVICES LTD IS THE ADMINISTRATOR FOR ZAMBEZI ABSOLUTE RETURN FUND. IT MAINTAINS CERTAIN BOOKS AND RECORDS RELATED TO ADMINISTRATION AND INVESTOR SUBSCRIPTIONS AND REDEMPTIONS OF THAT FUND."
1041136,"IRON MOUNTAIN UK","GATE 1 DOCKLANDS DATA CENTRE","LEVEN ROAD POPLAR","LONDON","","United Kingdom","E14 0LL","N","44800270270","","A third-party unaffiliated record keeper","CERTAIN BOOKS AND RECORDS REQUIRED BY SECTION 204 OF THE INVESTMENT ADVISERS ACT OF 1940 AND RELEVANT UK FINANCIAL CONDUCT AUTHORITY (FCA) RECORD KEEPING REQUIREMENTS ARE ARCHIVED AT IRON MOUNTAIN."
1041136,"IRON MOUNTAIN","175 BEARFOOT ROAD","","NORTHBOROUGH","MA","United States","01532","N","888-800-1552","","A third-party unaffiliated record keeper","CERTAIN BOOKS AND RECORDS REQUIRED BY SECTION 204 OF THE INVESTMENT ADVISERS ACT OF 1940 AND RELEVANT UK FINANCIAL CONDUCT AUTHORITY (FCA) RECORD KEEPING REQUIREMENTS ARE ARCHIVED AT IRON MOUNTAIN."
1041136,"INFOSHRED LLC","3 CRAFTSMAN ROAD","","EAST WINDSOR","CT","United States","06088","N","978-671-6400","","A third-party unaffiliated record keeper","THIS LOCATION IS USED TO STORE CERTAIN BOOKS AND RECORDS. IT IS ALSO USED AS AN OFF-SITE DEPOSITARY FOR ELECTRONIC BACK-UPS OF COMPANY DATA FOR DISASTER RECOVERY PURPOSES."
1041136,"MASSACHUSETTS MUTUAL LIFE INSURANCE COMPANY","1295 MAIN STREET","","SPRINGFIELD","MA","United States","01111","N","413-788-8411","413-744-6338","One of your branch offices or affiliates","CERTAIN BOOKS AND RECORDS REQUIRED BY SECTION 204 OF THE INVESTMENT ADVISERS ACT OF 1940 AND RELEVANT UK FINANCIAL CONDUCT AUTHORITY (FCA) RECORD KEEPING REQUIREMENTS IN RELATION TO ACTIVITIES CARRIED OUT BY THE FIRM, INCLUDING THOSE RELATING TO THE FIRM'S INVESTMENT ADVISORY BUSINESS."
1041136,"IRON MOUNTAIN UK","24-26 GILLENDER STREET","","LONDON","","United Kingdom","E3 3LB","N","44800270270","","A third-party unaffiliated record keeper","CERTAIN BOOKS AND RECORDS REQUIRED BY SECTION 204 OF THE INVESTMENT ADVISERS ACT OF 1940 AND RELEVANT UK FINANCIAL CONDUCT AUTHORITY (FCA) RECORD KEEPING REQUIREMENTS ARE ARCHIVED AT IRON MOUNTAIN."
1041136,"IRON MOUNTAIN UK","NORMAN ROAD","","KENT","","United Kingdom","DA17 6JY","N","44800270270","","A third-party unaffiliated record keeper","CERTAIN BOOKS AND RECORDS REQUIRED BY SECTION 204 OF THE INVESTMENT ADVISERS ACT OF 1940 AND RELEVANT UK FINANCIAL CONDUCT AUTHORITY (FCA) RECORD KEEPING REQUIREMENTS ARE ARCHIVED AT IRON MOUNTAIN."
1041136,"IRON MOUNTAIN UK","CODY 1 & 2","UNIT 2A CODY ROAD","LONDON","","United Kingdom","E16 4TG","N","44800270270","","A third-party unaffiliated record keeper","CERTAIN BOOKS AND RECORDS REQUIRED BY SECTION 204 OF THE INVESTMENT ADVISERS ACT OF 1940 AND RELEVANT UK FINANCIAL CONDUCT AUTHORITY (FCA) RECORD KEEPING REQUIREMENTS ARE ARCHIVED AT IRON MOUNTAIN."
1041136,"IRON MOUNTAIN UK","CODY 3 & 4, UNIT 8 SOUTH CRESCENT","CODY ROAD","LONDON","","United Kingdom","E16 4SR","N","44800270270","","A third-party unaffiliated record keeper","CERTAIN BOOKS AND RECORDS REQUIRED BY SECTION 204 OF THE INVESTMENT ADVISERS ACT OF 1940 AND RELEVANT UK FINANCIAL CONDUCT AUTHORITY (FCA) RECORD KEEPING REQUIREMENTS ARE ARCHIVED AT IRON MOUNTAIN."
1041136,"BABSON CAPITAL MANAGEMENT LLC","1500 MAIN STREET","P.O. BOX 15189","SPRINGFIELD","MA","United States","01115-5189","N","413-226-1000","713-226-2688","One of your branch offices or affiliates","CERTAIN BOOKS AND RECORDS REQUIRED BY SECTION 204 OF THE INVESTMENT ADVISERS ACT OF 1940 AND RELEVANT UK FINANCIAL CONDUCT AUTHORITY (FCA) RECORD KEEPING REQUIREMENTS IN RELATION TO ACTIVITIES CARRIED OUT BY THE FIRM, INCLUDING THOSE RELATING TO THE FIRM'S INVESTMENT ADVISORY BUSINESS."
1040182,"TRINITY FUND ADMINISTRATION LIMITED","OYSTER POINT","TEMPLE ROAD","BLACKROCK","","Ireland","CO. DUBLIN","N","+35312799667","+35312799650","Other","THE FIRM ACTS AS ADMINISTRATOR TO THE PRIVATE FUND.  ""TRINITY IS THE INDEPENDENT FUND ADMINISTRATOR TO THE PRIVATE FUNDS ADVISED BY WESTRAY CAPITAL MANAGEMENT LLP AND MAINTAINS CERTAIN OF THE PRIVATE FUNDS' ACCOUNTING BOOKS AND RECORDS."""
1041806,"CORODATA RECORDS MANAGEMENT","450 CHARCOT AVENUE","","SAN JOSE","CA","United States","95131-1105","N","+1 510 307 443","","A third-party unaffiliated record keeper","ARCHIVED FINANCIAL DOCUMENTS AND LEGAL DOCUMENTS"
1041806,"STANDISH MANAGEMENT","505 HAMILTON AVENUE","SUITE 210","PALO ALTO","CA","United States","94301-2008","N","+1 6502736810","","A third-party unaffiliated record keeper","FUNDS ADMINISTRATOR - HOLDS FINANCIAL INFORMATION AND FUND DOCUMENTATION."
1041806,"STANDISH MANAGEMENT","750 BATTERY STREET","7TH FLOOR","SAN FRANCISCO","CA","United States","94111-1523","N","+1 4152736810","","A third-party unaffiliated record keeper","FUNDS ADMINISTRATOR - HOLDS FINANCIAL INFORMATION AND FUND DOCUMENTATION."
1041806,"CODE42","ONE MAIN STREET SE","#400","MINNEAPOLIS","MN","United States","55414-1035","N","+1 844 333 424","","A third-party unaffiliated record keeper","CODE42 PROVIDES AUTOMATIC ELECTRONIC BACKUP OF DATA STORED ON OUR INTERNAL SERVERS."
1041806,"MICROSOFT CORPORATION","ONE MICROSOFT WAY","","REDMOND","WA","United States","98052-6399","N","+1 800-642-767","","A third-party unaffiliated record keeper","MICOSOFT PROVIDES TO US CLOUD-HOSTED SERVICES INCLUDING OFFICE 365 EMAIL.  THE DATA THEY HOST FOR US COMPRISES PRIMARILY EMAILS AND EMAIL ATTACHMENTS."
1041806,"SALESFORCE","THE LANDMARK @ ONE MARKET STREET","","SAN FRANCISCO","CA","United States","94105-1420","N","415-901-7000","","A third-party unaffiliated record keeper","SALESFORCE IS A CLOUD-BASED CRM SOFTWARE PROVIDER.  WE USE SALESFORCE TO TRACK CONTACT INFORMATION OF AND INTERACTIONS WITH LP INVESTORS AND POTENTIAL LP INVESTORS PLUS PORTFOLIO COMPANIES AND POTENTIAL PORTFOLIO COMPANIES."
1041806,"DATTO","50 MILK STREET","","BOSTON","MA","United States","02109-5005","N","800 571 4984","","A third-party unaffiliated record keeper","DATTO IS A CLOUD-BASED DATA BACKUP SERVICE THAT WE USE FOR AUTOMATED ELECTRONIC BACKUP OF THE DATA WE STORE IN OUR SALESFORCE CRM SYSTEM.  DATTO'S BACKUP SOFTWARE IS CALLED BACKUPIFY SAAS SOLUTION."
1041806,"BOX, INC.","4440 EL CAMINO REAL","","LOS ALTOS","CA","United States","94022-1003","N","877 729 4269","","A third-party unaffiliated record keeper","BOX IS A CLOUD-BASED DATA STORAGE COMPANY.  WE USE BOX PRIMARILY FOR PORTFOLIO COMPANY AND TRANSACTION-RELATED INFORMATION AS WELL AS FUNDRAISING MATERIALS, DATA AND ANALYSES.  WE INTEND TO MIGRATE ADDITIONAL DATA TO BOX IN THE FUTURE AS WE TRANSITION FROM INTERNAL SERVERS TO A FULLY CLOUD-BASED ENVIRONMENT."
1041806,"INTRALINKS","150 EAST 42ND STREET","","NEW YORK","NY","United States","10017-5626","N","2125437700","","A third-party unaffiliated record keeper","INTRALINKS HOSTS A SECURE WEBSITE THROUGH WHICH WE MAKE FUND-RELATED DATA AVAILABLE FOR REVIEW BY POTENTIAL LIMITED PARTNER INVESTORS."
1041806,"TRIPSWARE","980 BROADWAY","SUITE 217","THORNWOOD","NY","United States","10594-1139","N","914 747 3244","","A third-party unaffiliated record keeper","TRIPSWARE IS A CLOUD-BASED SOFTWARE SOLUTION THAT WE UTILIZE TO INPUT AND TRACK TRAVEL EXPENSES, WHICH ARE THEN PASSED FROM THE TRIPSWARE SYSTEM TO OUR ACCOUNTING SYSTEM FOR FINANCIAL REPORTING PURPOSES."
1042302,"ARCAPITA INVESTMENT MANAGEMENT B.S.C.(C)","P.O. BOX 1357","","MANAMA","","Bahrain","","N","973 17 218333","","One of your branch offices or affiliates","CERTAIN TRANSACTION AND ADMINISTRATIVE DOCUMENTS."
1033274,"VISTRA USA LLC","888 SEVENTH AVENUE","5TH FLOOR","NEW YORK","NY","United States","10106","N","212-500-6200","","A third-party unaffiliated record keeper","BOOKS AND RECORDS RELATED TO THE OPERATIONS OF THE INVESTMENT ADVISER."
1033274,"77 WATER STREET","77 WATER STREET","SUITE 1602","NEW YORK","NY","United States","10005","N","(646) 432-0426","","One of your branch offices or affiliates","BOOKS AND RECORDS PERTAINING TO THE OPERATIONS OF THE INVESTMENT ADVISER."
1041882,"SS&C TECHNOLOGIES, INC","675 THIRD AVENUE","15 FLOOR","NEW YORK","NY","United States","10017","N","212-455-6339","212-824-1445","A third-party unaffiliated record keeper","CERTAIN BOOKS AND RECORDS FOR CENTURION LONG -TERM STRATEGIES OVERSEAS, LTD."
1041609,"ABERDEEN ASSET MANAGEMENT PLC","10 QUEENS TERRACE","","ABERDEEN","","United Kingdom","AB10 1YG","N","441224631999","","One of your branch offices or affiliates","PARENT COMPANY AND MAY MAINTAIN SOME BOOKS AND RECORDS FOR THE REGISTRANT"
1041609,"ABERDEEN ASSET MANAGEMENT PLC","BOW BELLS HOUSE","1 BREAD STREET","LONDON","","United Kingdom","EC4M 9HH","N","442074636000","","One of your branch offices or affiliates","PARENT COMPANY AND MAY MAINTAIN SOME BOOKS AND RECORDS FOR THE REGISTRANT"
1041609,"IRON MOUNTAIN","2500 HENDERSON DRIVE","","SHARON HILL","PA","United States","19079","N","215-633-0525","","A third-party unaffiliated record keeper","PRIMARY ARCHIVING SERVICE FOR THE REGISTRANT"
1041609,"STATE STREET BANK AND TRUST COMPANY","2 AVENUE DE LAFAYETTE","","BOSTON","MA","United States","02111","N","617-664-9566","","Other","PRIVATE FUNDS"
1041609,"RECALL LIMITED","20 WINSLOW STREET, HUNG HOM","","HONG KONG","","Hong kong","","N","25112829","25114333","A third-party unaffiliated record keeper","CLIENTS CDD DOCUMENTS"
1041609,"RBC INVESTOR SERVICES HONG KONG LIMITED","51F, CENTRAL PLAZA, 18 HARBOUR ROAD, WANCHAI, HONG","","HONG KONG","","Hong kong","","N","852-28681309","","Other","THIS IS A THIRD - PARTY ADMINISTRATOR WHICH KEEPS ALLL INVESTORS DOCUMENTS EXCEPT THE CLIENT AGREEMENTS."
1041609,"CONSEC SERVICES LIMITED","ROOM 409, 4/F NAN FUNG TOWER","88 CONNAUGHT ROAD CENTRAL","HONG KONG","","Hong kong","","N","852 2738 1411","852 2730 4379","Other","THE MINUTE BOOKS OF AIFML ARE KEPT AT THE ABOVE ADDRESS"
1041802,"BOX, INC.","4440 EL CAMINO REAL","","LOS ALTOS","CA","United States","94022-1003","N","8777294269","","A third-party unaffiliated record keeper","BOX IS A CLOUD-BASED DATA STORAGE COMPANY.  WE USE BOX PRIMARILY FOR PORTFOLIO COMPANY AND TRANSACTION RELATED INFORMATION AS WELL AS FUNDRAISING MATERIALS, DATA AND ANALYSES.  WE INTEND TO MIGRATE ADDITIONAL DATA TO BOX IN THE FUTURE AS WE TRANSITION FROM INTERNAL SERVERS TO A FULLY CLOUD-BASED ENVIRONMENT."
1041802,"STANDISH MANAGEMENT","505 HAMILTON AVENUE","SUITE 210","PALO ALTO","CA","United States","94301-2008","N","16502736810","","A third-party unaffiliated record keeper","FUNDS ADMINISTRATOR - HOLDS FINANCIAL INFORMATION AND FUND DOCUMENTATION."
1041802,"STANDISH MANAGEMENT","750 BATTERY STREET","7TH FLOOR","SAN FRANCISCO","CA","United States","94111-1523","N","14152736810","","A third-party unaffiliated record keeper","FUNDS ADMINISTRATOR - HOLDS FINANCIAL INFORMATION AND FUND DOCUMENTATION."
1041802,"CORODATA RECORDS MANAGEMENT","450 CHARCOT AVENUE","","SAN JOSE","CA","United States","95131-1105","N","+1 408 4281100","","A third-party unaffiliated record keeper","ARCHIVED FINANCIAL DOCUMENTS AND LEGAL DOCUMENTS."
1041802,"DATTO","50 MILK STREET","","BOSTON","MA","United States","02109-5005","N","8005714984","","A third-party unaffiliated record keeper","DATTO IS A CLOUD-BASED DATA BACKUP SERVICE THAT WE USE FOR AUTOMATED ELECTRONIC BACKUP OF THE DATA WE STORE IN OUR SALESFORCE CRM SYSTEM.  DATTO'S BACKUP SOFTWARE IS CALLED BACKUPIFY SAAS SOLUTION."
1041802,"TRIPSWARE","980 BROADWAY","SUITE 217","THORNWOOD","NY","United States","10594-1139","N","9147473244","","A third-party unaffiliated record keeper","TRIPSWARE IS A CLOUD-BASED SOFTWARE SOLUTION THAT WE UTILIZE TO INPUT AND TRACK TRAVEL EXPENSES, WHICH ARE THEN PASSED FROM THE TRIPSWARE SYSTEM TO OUR ACCOUNTING SYSTEM FOR FINANCIAL REPORTING PURPOSES."
1041802,"SALESFORCE","THE LANDMARK @ ONE MARKET STREET","","SAN FRANCISCO","CA","United States","94105-1420","N","4159017000","","A third-party unaffiliated record keeper","SALESFORCE IS A CLOUD-BASED CRM SOFTWARE PROVIDER.  WE USE SALESFORCE TO TRACK CONTACT INFORMATION OF AND INTERACTIONS WITH LP INVESTORS AND POTENTIAL LP INVESTORS PLUS PORTFOLIO COMPANIES AND POTENTIAL PORTFOLIO COMPANIES."
1041802,"MICROSOFT CORPORATION","ONE MICROSOFT WAY","","REDMOND","WA","United States","98052-6399","N","+1 800 6427676","","A third-party unaffiliated record keeper","MICROSOFT PROVIDES TO US CLOUD-HOSTED SERVICES INCLUDING OFFICE 365 EMAIL. THE DATA THEY HOST FOR US COMPRISES PRIMARILY EMAILS AND EMAIL ATTACHMENTS."
1041802,"CODE42","ONE MAIN STREET SE","","MINNEAPOLIS","MN","United States","55414-1035","N","+1 844 3334242","","A third-party unaffiliated record keeper","CODE42 PROVIDES AUTOMATED ELECTRONIC BACKUP OF DATA STORED ON OUR INTERNAL SERVERS."
1041802,"INTRALINKS","150 EAST 42ND STREET","8TH FLOOR","NEW YORK","NY","United States","10017-5626","N","2125437700","","A third-party unaffiliated record keeper","WE USE INTRALINKS TO HOST A VIRTUAL, CLOUD-BASED DATA ROOM IN WHICH WE MAKE AVAILABLE FUNDRAISING RELATED FIRM DATA AND ANALYSES FOR POTENTIAL LIMITED PARTNERS."
1039884,"CACEIS CANADA LTD","1 ROBERT SPECK PARKWAY","SUITE 1400","MISSISSAUGA","","Canada","L4Z 3M3","N","1 905-281-4145","","A third-party unaffiliated record keeper","BOOKS AND RECORDS OF EACH PRIVATE FUND CLIENT"
1042068,"VIRTUS","UNIT 3 CROWN ROAD","INDUSTRIAL","ENFIELD","","United Kingdom","EN1 1TX","N","+442037404748","","A third-party unaffiliated record keeper","DATACENTRE FOR BACK-UP ELECTRONIC STORAGE"
1042068,"THROGMORTON UK LTD","4TH FLOOR, READING BRIDGE HOUSE","GEORGE STREET","READING","","United Kingdom","RG1 8LS","N","+441189393200","","A third-party unaffiliated record keeper","ACCOUNTING RECORDS"
1042068,"EQUINIX","101 FINSBURY PAVEMENT","","LONDON","","United Kingdom","EC2A 1RS","N","+448453732900","","A third-party unaffiliated record keeper","DATACENTRE FOR BACK-UP ELECTRONIC STORAGE"
1040528,"SS&C PEI SOLUTIONS","11 COMMERCE DRIVE","SUITE 102","CRANFORD","NJ","United States","07016","N","908-497-5634","","A third-party unaffiliated record keeper","THE FINANCIALS FOR THE PRIVATE FUNDS"
1040877,"GORDIAN COMPLIANCE SOLUTIONS","235 MONTGOMERY STREET","SUITE 1120","SAN FRANCISCO","CA","United States","94104","N","415-762-2845","","A third-party unaffiliated record keeper","RECORDS RELATING TO COMPLIANCE PROGRAM"
1041636,"MORGAN STANLEY FUND SERVICES USA LLC","2000 WESTCHESTER AVENUE","","PURCHASE","NY","United States","10577","N","+1 914 225 88","","A third-party unaffiliated record keeper","MORGAN STANLEY FUND SERVICES USA LLC IS THE ADMINISTRATOR TO THE ONSHORE FEEDER FUND AND IS RESPONSIBLE FOR MAINTAINING RECORDS AND BOOKS AS REQUIRED."
1041636,"MORGAN STANLEY FUND SERVICES (BERMUDA) LTD.","2","CHURCH STREET","HAMILTON","","Bermuda","HM DX","N",":+1 914 225 88","","A third-party unaffiliated record keeper","MORGAN STANLEY FUND SERVICES (BERMUDA) LTD. IS THE ADMINISTRATOR TO THE OFFSHORE FEEDER FUND AND IS RESPONSIBLE FOR MAINTAINING RECORDS AND BOOKS AS REQUIRED."
1038520,"PINNACLE INVESTMENT MANAGEMENT LIMITED","LEVEL 19, 307 QUEEN ST, BRISBANE QLD 4000","","BRISBANE","","Australia","4000","N","617-3107-2801","612-8970-7799","One of your branch offices or affiliates","COMPANY SECRETARIAL, ACCOUNTING AND TAX RECORDS"
1041830,"IPES GUERNSEY","1, ROYAL PLAZA, ROYAL AVENUE","","ST PETER PORT","","Guernsey","GY1 2HL","N","441481735887","44 1481 715219","A third-party unaffiliated record keeper","FUND ADMINISTRATOR"
1033031,"OPUS FUND SERVICES","1812 HIGH GROVE LANE","SUITE 101","NAPERVILLE","IL","United States","60540","N","(312) 753-7","(312) 614-1705","A third-party unaffiliated record keeper","BOOKS AND RECORDS PERTAINING TO PRIVATE FUND OPERATIONS."
1040524,"SS&C TECHNOLOGIES, INC.","80 LAMBERTON ROAD","","WINDSOR","CT","United States","06095","N","(860) 298-4599","(860) 371-2503","A third-party unaffiliated record keeper","FINANCIAL, ACCOUNTING AND INVESTOR RECORDS FOR PRIVATE FUNDS MANAGED BY ADVISER."
1042405,"MAPLES CORPORATE SERVICES LIMITED","P.O. BOX 309, UGLAND HOUSE","","GRAND CAYMAN","","Cayman Islands","KY1-1104","N","(852)29713097","","A third-party unaffiliated record keeper","VARIOUS BOOKS AND RECORDS, AS REQUIRED BY LAW, INCLUDING REGISTERS OF PRIVATE FUNDS, BOARD RESOLUTOINS, ETC."
1042986,"STATE STREET GLOBAL SERVICES LIMITED","DUMARESQ HOUSE","DUMARESQ STREET","ST HELIER","","Jersey","JE2 3RL","N","44 1534 75535","","A third-party unaffiliated record keeper","DOCUMENTS THAT ENABLE THE FIRM TO ADMINISTER THE FUND AND CLIENT RECORDS"
1042466,"CIE MANAGEMENT IX LIMITED","HERITAGE HALL","LE MARCHANT STREET","ST PETER PORT","","Guernsey","GY14HY","N","+441481716000","","One of your branch offices or affiliates","ACCOUNTING AND INVESTOR RECORDS OF THE RELEVANT FUNDS."
1042466,"CIE MANAGEMENT II LIMITED","HERITAGE HALL","LE MARCHANT STREET","ST PETER PORT","","Guernsey","GY14HY","N","+441481716000","","One of your branch offices or affiliates","ACCOUNTING AND INVESTOR RECORDS OF THE RELEVANT FUNDS."
1042752,"LLOYDS  BANK PLC","10 GRESHAM STREET","","LONDON","","United Kingdom","EC2V 7AE","N","02076261500","","One of your branch offices or affiliates","ALL BOOKS AND RECORDS RELATING TO THE INVESTMENT ADVISER BUSINESS ARE MAINTAINED AT 10 GRESHAM STREET"
1040947,"PEPPER HAMILTON LLP","19TH FLOOR, HIGH STREET TOWER","125 HIGH STREET","BOSTON","MA","United States","02110","N","6172045141","8666021214","Other","FORMATION DOCUMENTS; MEETING MATERIALS; CONSENTS OF THE MEMBERS OF REGARDING INVESTMENT DECISIONS; INFORMATION REGARDING INVESTMENTS; OTHER GOVERNANCE MATERIALS RELATING TO MEDSCIENCE VENTURES LLC AND THE VENTURE CAPITAL FUND IT ADVISES."
1042679,"NORTHERN TRUST INTERNATIONAL FUND ADMINISTRATION SERVICES (GUERNSEY) LIMITED","TRAFALGAR COURT","LES BANQUES","ST PETER PORT","","Guernsey","GY1 3QL","N","00441481745742","00441481745082","A third-party unaffiliated record keeper","FUND ACCOUNTING AND ADMINISTRATION RECORDS"
1042685,"NORTHERN TRUST INTERNATIONAL FUND ADMINISTRATION SERVICES (GUERNSEY) LIMITED","TRAFALGAR COURT","LES BANQUES","ST PETER PORT","","Guernsey","GY1 3QL","N","00441481745742","00441481745082","A third-party unaffiliated record keeper","FUND ACCOUNTING AND ADMINISTRATION RECORDS"
1042504,"VIBURNUM FUNDS PTY LTD","31 CARRINGTON STREET","","NEDLANDS","","Australia","6009","N","+61864309850","+61864309899","One of your branch offices or affiliates","ACCOUNTS, LEGAL DOCUMENTS, OTHER INFORMATION."
1039720,"IRON MOUNTAIN","175 BEARFOOT ROAD","","NORTHBOROUGH","MA","United States","01862","N","800-934-3453","","A third-party unaffiliated record keeper","BACK-UP TAPES OF FIRM DATA, INCLUDING DATABASE BACK-UP AND E-MAIL BACK-UP."
1043101,"SMT TRUSTEES (IRELAND) LIMITED","HARCOURT CENTRE, HARCOURT ROAD","BLOCK 5","DUBLIN 2","","Ireland","","N","+353016039921","","A third-party unaffiliated record keeper","CERTAIN BOOKS AND RECORDS RELATED TO INVESTMENTS OF THE ADVISORY CLIENTS"
1043101,"GLOBEOP FINANCIAL SERVICES (IRELAND) LIMITED","LA TOUCHE HOUSE, CUSTOM HOUSE DOCK","IFSC","DUBLIN 1","","Ireland","","N","+353 1 514 960","","A third-party unaffiliated record keeper","CERTAIN BOOKS AND RECORDS RELATED TO INVESTMENTS OF THE ADVISORY CLIENTS"
1043101,"SUMITOMO MITSUI TRUST (UK) LIMITED","155 BISHOPSGATE","1ST FLOOR","LONDON","","United Kingdom","EC2M 3XU","N","+4420 75628400","","A third-party unaffiliated record keeper","CERTAIN BOOKS AND RECORDS RELATED TO INVESTMENTS OF THE ADVISORY CLIENTS"
1041194,"APEX FUND SERVICES","15720 BRIXHAM HILL AVENUE, SUITE 206","","CHARLOTTE","NC","United States","28277","N","704-752-8996","704-752-8997","A third-party unaffiliated record keeper","BOOKS AND RECORDS OF FINANCIAL INSTITUTION PARTNERS III, L.P., SUCH AS FINANCIAL RECORDS, SUBSCRIPTION DOCUMENTS AND REDEMPTION REQUESTS."
1042336,"VISTRA","888 SEVENTH AVENUE","5TH FLOOR","NEW YORK","NY","United States","10019","N","212-500-6225","","Other","VISTRA IS AN INDEPENDENT THIRD PARTY ADMINISTRATOR AND HOLDS CERTAIN BOOKS AND RECORDS FOR VARIOUS HULL CAPITAL MANAGEMENT, LLC FUNDS."
1042336,"CITI HEDGE FUND SERVICES N.A. INC","3435 STELZER ROAD","","COLUMBUS","OH","United States","43219","N","614-428-3436","","Other","CITI HEDGE FUND SERCIVES IS AN INDEPENDENT THIRD PARTY ADMINISTRATOR AND HOLDS CERTAIN BOOKS AND RECORDS FOR THE HUMBER VIEW LP FUND."
1038929,"ROC PARTNERS PTY LIMITED","LEVEL 38","259 GEORGE ST","NSW","","Australia","2000","N","+61 2 90991919","","One of your branch offices or affiliates","ACCOUNTING RECORDS ONLY, ALL OTHER COMPANY SECRETARIAL DOCUMENTS ARE KEPT IN THE CAYMANS."
1038929,"CITCO FUND ADMINISTRATION (CAYMAN ISLANDS) LIMITED","CORPORATE CENTRE, WEST BAY ROAD","","GRAND CAYMAN","","Cayman Islands","","N","345 949 3977","345 949 3877","Other","DOCUMENTS RELATING TO ANY OFFSHORE DOMICILED FUNDS. ROC MANAGEMENT (CAYMAN) LTD WILL ADMINISTER THESE FUNDS VIA AN OUTSOURCED ARRANGEMENT WITH CITCO."
1038929,"MAPLES AND CALDER","UGLAND HOUSE, S CHURCH STREET","","GEORGE TOWN","","Cayman Islands","KY1-1104","N","1 345-949-8066","","Other","COMPANY REGISTER AND SECRETARIAL RECORDS."
1042954,"IRON MOUNTAIN","SUITE 701, CURRENCY HOUSE","23 HUNTER STREET","SYDNEY","","Australia","NSW 2000","N","612 92295003","","A third-party unaffiliated record keeper","IRON MOUNTAIN IS A THIRD PARTY ARCIHVE COMPANY. CERTAIN BOOKS AND RECORDS ARE ARCHIVED AND HELD AT IRON MOUNTAIN'S SITES IN AUSTRALIA. WHEN THEY ARE NO LONGER REQUIRED BY US FOR THE DAY TO DAY RUNNING OF OUR BUSINESS. WE CAN RECOVER RECORDS BACK FROM IRON MOUNTAIN AT ANY POINT IN TIME."
1043094,"SS&C GLOBEOP","101 SE THIRD STREET","","EVANSVILLE","IN","United States","47708","N","812-266-2000","812-266-2001","A third-party unaffiliated record keeper","CERTAIN BOOKS AND RECORDS RELATED TO INVESTMENTS OF THE ADVISORY CLIENTS"
1043094,"SEI INVESTMENTS","STYNE HOUSE","UPPER HATCH STREET","DUBLIN 2","","Ireland","","N","+35316382400","","A third-party unaffiliated record keeper","CERTAIN BOOKS AND RECORDS RELATED TO INVESTMENTS OF THE ADVISORY CLIENTS"
1043094,"JTC GROUP","PO BOX 156","GROUD FLOOR, DOREY COURT, ADMIRAL PARK, ST. PETER","CHANNEL ISLANDS","","Guernsey","GY1 4EU","N","+441481702400","+441481702407","A third-party unaffiliated record keeper","CERTAIN BOOKS AND RECORDS RELATED TO INVESTMENTS OF THE ADVISORY CLIENTS UNDERLYING INVESTORS"
1032662,"SS&C FUND SERVICES (ASIA) LIMITED","UNIT 706-7, CENTRAL PLAZA","18 HARBOUR ROAD, WAN CHAI","HONG KONG","","Hong kong","","N","+852 2589 5721","+65 6595 8687","A third-party unaffiliated record keeper","RELEVANT DOCUMENTATION IN RESPECT OF EACH OF THE COMPLUS ASIA MACRO MASTER FUND LTD, COMPLUS ASIA MACRO FUND LTD,  COMPLUS ASIA MACRO JPY FUND, COMPLUS ASIA RATES DRAGON FUND LTD, AND COMPLUS ASIA RATES 2011 FUND LTD"
1040385,"CITCO FUND SERVICES (SAN FRANCISCO), INC.","560 MISSION STREET, 26TH FLOOR","","SAN FRANCISCO","CA","United States","94105","N","415.228.0390","415.228.0335","A third-party unaffiliated record keeper","FINANCIAL STATEMENTS AND SUPPORTING DOCUMENT AND BOOKS AND RECORDS NECESSARY TO CALCULATE NET ASSET VALUE OF THE PARTNERSHIP AND EACH INVESTOR HOLDINGS."
1040385,"CITCO (CANADA) INC.","2 BLOOR STREET EAST, SUITE 2700","","TORONTO","","Canada","M4W 1A8","N","416.966.9200","416.966.9210","A third-party unaffiliated record keeper","MAINTAINING A REGISTER OF INVESTORS; DOCUMENTS NECESSARY FOR ISSUANCE, TRANSFER AND INVESTOR WITHDRAWAL REQUESTS; UNAUDITED INVESTOR STATEMENTS; AND PARTNERSHIP FINANCIAL STATEMENTS."
1036495,"NEW FORESTS PTY LIMITED","141 WALKER STREET","LEVEL 23","NORTH SYDNEY NSW","","Australia","2060","N","61-2-9406-4100","61-2-9406-4199","One of your branch offices or affiliates","GENERAL LEDGER, BANK STATEMENTS, AND MONTHLY MANAGEMENT ACCOUNTS"
1038715,"BLUE SKY INVESTMENT SCIENCE PTY LTD","LEVEL 10","111 GAWLER PLACE","ADELAIDE","","Australia","5000","N","+61732707500","+61732707500","One of your branch offices or affiliates","TRANSACTION RECORDS"
1043200,"BDO AS","MUNKEDAMSVEIEN","45","OSLO","","Norway","0250","N","004723119100","","A third-party unaffiliated record keeper","BDO IS THE COMPANIES ACCOUNTANT AND SOME OF THE RECORDS WILL BE AT BDO OFFICE."
1043200,"RECALL AS","DELIVEIEN","5","VESTBY","","Norway","154","N","004764986630","","A third-party unaffiliated record keeper","STORAGE COMPANY"
1042483,"ACCEL MANAGEMENT CO. INC.","505 HAMILTON, SUITE 110","","PALO ALTO","CA","United States","94301","N","650-614-4800","","One of your branch offices or affiliates","ACCOUNTING RECORDS"
1040835,"INTERNATIONAL FUND SERVICES (N.A.), LLC","1290 AVENUE OF THE AMERICAS","10TH FLOOR","NEW YORK","NY","United States","10104","N","212-848-3984","","A third-party unaffiliated record keeper","SUBSCRIPTION AND REDEMPTION DOCUMENTS, CLIENT TRANSACTION AND PERFORMANCE RECORDS."
1040835,"MAPLES CORPORATE SERVICES LIMITED","P.O. BOX 309","UGLAND HOUSE","GRAND CAYMAN","","Cayman Islands","KY1-1104","N","1-345-814-5354","","A third-party unaffiliated record keeper","MINUTE BOOKS FOR CERTAIN WEST FACE ENTITIES."
1040835,"AMT MANAGEMENT SERVICES","360 MAIN STREET","30TH FLOOR","WINNIPEG","","Canada","R3C4G1","N","204-957-4722","","A third-party unaffiliated record keeper","MINUTE BOOKS FOR CERTAIN WEST FACE ENTITIES"
1040835,"CO SERVICES CAYMAN LIMITED","P.O. BOX 10008","WILLOW HOUSE, CRICKET SQUARE","GRAND CAYMAN","","Cayman Islands","KY-1001","N","345-749-2004","44-1481-739081","A third-party unaffiliated record keeper","MINUTE BOOKS FOR CERTAIN WEST FACE ENTITIES."
1042051,"GLOBEOP FINANCIAL SERVICES LLC","1 SOUTH ROAD","","HARRISON","NY","United States","10528","N","800-234-0556","","A third-party unaffiliated record keeper","ADMINISTRATOR TO FIRM'S CLIENTS MAINTAINS CERTAIN BOOKS & RECORDS PERTAINING TO INVESTOR SUBSCRIPTIONS, ACCOUNTING SUPPORT, AND NET ASSET VALUE CALCULATIONS"
1042051,"GLOBEOP FINANCIAL SERVICES (CAYMAN) LTD","45 MARKET STREET, SUITE 3205","2ND FLOOR","GARDENIA COURT, CAMANA BAY","","Cayman Islands","KY1-9003","N","345-943-3330","","A third-party unaffiliated record keeper","ADMINISTRATOR TO FIRM'S CLIENTS MAINTAINS CERTAIN BOOKS & RECORDS PERTAINING TO INVESTOR SUBSCRIPTIONS, ACCOUNTING SUPPORT, AND NET ASSET VALUE CALCULATIONS."
1039606,"SUNRISE BUSINESS CENTER","SUITE T110 SUNRISE HIGHWAY","","GREAT RIVER","NY","United States","11739","N","5168220202","","A third-party unaffiliated record keeper","DATA CENTER WHERE DELPHA CAPITAL'S NETWORK SERVER IS MAINTAINED."
1042838,"EHM INTERNATIONAL LTD","AUDREY HOUSE","16-20 ELY PLACE","LONDON","","United Kingdom","EC1N 6SN","N","(0)2034409302","(0)2030148410","A third-party unaffiliated record keeper","COPIES OF ALL BOOKS AND RECORDS."
1024369,"CITCO FUND SERVICES (LUXEMBOURG) S.A.","CARRE BONN, 20, RUE DE LA POSTE","L-2346","LUXEMBOURG","","Luxembourg","L-2012","N","+352 260 236 4","+352 260 236 4","A third-party unaffiliated record keeper","CITCO FUND SERVICES (LUXEMBOURG) S.A. IS THE INDEPENDENT FUND ADMINISTRATOR TO THE CLIENTS ADVISED BY LCM CAPITAL LLP AND MAINTAINS CERTAIN OF THE CLIENTS' ACCOUNTING BOOKS AND RECORDS."
1034489,"THE NORTHERN TRUST COMPANY","50 SOUTH LASALLE STREET LQ-11","","CHICAGO","IL","United States","60603","N","(312) 630-6000","","A third-party unaffiliated record keeper","SUBDOCS"
1032387,"PAGET-BROWN TRUST COMPANY LTD.","BOUNDRY HALL, CRICKET SQUARE","P.O. BOX 1111","GRAND CAYMAN","","Cayman Islands","KY1-1102","N","345-949-5122","345-949-6773","A third-party unaffiliated record keeper","ORGANIZATIONAL DOCUMENTS"
1040434,"THE GROWTH FUND PTY LTD","SUITE 2, LEVEL 33, CHIFLEY TOWER","2 CHIFLEY SQUARE","SYDNEY","","Australia","2000","N","+61280520800","","One of your branch offices or affiliates","GENERAL LEDGER AND CLIENT RECORDS"
1041447,"SS&C GLOBEOP","101 SE THIRD STREET","","EVANSVILLE","IN","United States","47708","N","812-266-2000","812-266-2001","A third-party unaffiliated record keeper","CERTAIN BOOKS AND RECORDS RELATED TO INVESTMENTS OF THE ADVISORY CLIENTS"
1041447,"SEI INVESTMENTS","STYNE HOUSE","UPPER HATCH STREET","DUBLIN 2","","Ireland","","N","+35316382400","","A third-party unaffiliated record keeper","CERTAIN BOOKS AND RECORDS RELATED TO INVESTMENTS OF THE ADVISORY CLIENTS"
1041447,"JTC GROUP","PO BOX 156","GROUD FLOOR, DOREY COURT, ADMIRAL PARK, ST. PETER","CHANNEL ISLANDS","","Guernsey","GY1 4EU","N","+441481702400","+441481702407","A third-party unaffiliated record keeper","CERTAIN BOOKS AND RECORDS RELATED TO INVESTMENTS OF THE ADVISORY CLIENTS UNDERLYING INVESTORS"
1041451,"IRON MOUNTAIN UK","GATE 1 DOCKLANDS DATA CENTRE","LEVEN ROAD POPLAR","LONDON","","United Kingdom","E14 0LL","N","44800270270","","A third-party unaffiliated record keeper","CERTAIN BOOKS AND RECORDS REQUIRED BY SECTION 204 OF THE INVESTMENT ADVISERS ACT OF 1940 AND RELEVANT UK FINANCIAL CONDUCT AUTHORITY (FCA) RECORD KEEPING REQUIREMENTS ARE ARCHIVED AT IRON MOUNTAIN."
1041451,"IRON MOUNTAIN","175 BEARFOOT ROAD","","NORTHBOROUGH","MA","United States","01532","N","888-800-1552","","A third-party unaffiliated record keeper","CERTAIN BOOKS AND RECORDS REQUIRED BY SECTION 204 OF THE INVESTMENT ADVISERS ACT OF 1940 AND RELEVANT UK FINANCIAL CONDUCT AUTHORITY (FCA) RECORD KEEPING REQUIREMENTS ARE ARCHIVED AT IRON MOUNTAIN."
1041451,"INFOSHRED LLC","3 CRAFTSMAN ROAD","","EAST WINDSOR","CT","United States","06088","N","978-671-6400","","A third-party unaffiliated record keeper","THIS LOCATION IS USED TO STORE CERTAIN BOOKS AND RECORDS. IT IS ALSO USED AS AN OFF-SITE DEPOSITARY FOR ELECTRONIC BACK-UPS OF COMPANY DATA FOR DISASTER RECOVERY PURPOSES."
1041451,"MASSACHUSETTS MUTUAL LIFE INSURANCE COMPANY","1295 MAIN STREET","","SPRINGFIELD","MA","United States","01111","N","413-788-8411","413-744-6338","One of your branch offices or affiliates","CERTAIN BOOKS AND RECORDS REQUIRED BY SECTION 204 OF THE INVESTMENT ADVISERS ACT OF 1940 AND RELEVANT UK FINANCIAL CONDUCT AUTHORITY (FCA) RECORD KEEPING REQUIREMENTS IN RELATION TO ACTIVITIES CARRIED OUT BY THE FIRM, INCLUDING THOSE RELATING TO THE FIRM'S INVESTMENT ADVISORY BUSINESS."
1041451,"IRON MOUNTAIN UK","24-26 GILLENDER STREET","","LONDON","","United Kingdom","E3 3LB","N","44800270270","","A third-party unaffiliated record keeper","CERTAIN BOOKS AND RECORDS REQUIRED BY SECTION 204 OF THE INVESTMENT ADVISERS ACT OF 1940 AND RELEVANT UK FINANCIAL CONDUCT AUTHORITY (FCA) RECORD KEEPING REQUIREMENTS ARE ARCHIVED AT IRON MOUNTAIN."
1041451,"IRON MOUNTAIN UK","NORMAN ROAD","","KENT","","United Kingdom","DA17 6JY","N","44800270270","","A third-party unaffiliated record keeper","CERTAIN BOOKS AND RECORDS REQUIRED BY SECTION 204 OF THE INVESTMENT ADVISERS ACT OF 1940 AND RELEVANT UK FINANCIAL CONDUCT AUTHORITY (FCA) RECORD KEEPING REQUIREMENTS ARE ARCHIVED AT IRON MOUNTAIN."
1041451,"IRON MOUNTAIN UK","CODY 1 & 2","UNIT 2A CODY ROAD","LONDON","","United Kingdom","E16 4TG","N","44800270270","","A third-party unaffiliated record keeper","CERTAIN BOOKS AND RECORDS REQUIRED BY SECTION 204 OF THE INVESTMENT ADVISERS ACT OF 1940 AND RELEVANT UK FINANCIAL CONDUCT AUTHORITY (FCA) RECORD KEEPING REQUIREMENTS ARE ARCHIVED AT IRON MOUNTAIN."
1041451,"IRON MOUNTAIN UK","CODY 3 & 4, UNIT 8 SOUTH CRESCENT","CODY ROAD","LONDON","","United Kingdom","E16 4SR","N","44800270270","","A third-party unaffiliated record keeper","CERTAIN BOOKS AND RECORDS REQUIRED BY SECTION 204 OF THE INVESTMENT ADVISERS ACT OF 1940 AND RELEVANT UK FINANCIAL CONDUCT AUTHORITY (FCA) RECORD KEEPING REQUIREMENTS ARE ARCHIVED AT IRON MOUNTAIN."
1041451,"BABSON CAPITAL MANAGEMENT LLC","1500 MAIN STREET","P.O. BOX 15189","SPRINGFIELD","MA","United States","01115-5189","N","413-226-1000","713-226-2688","One of your branch offices or affiliates","CERTAIN BOOKS AND RECORDS REQUIRED BY SECTION 204 OF THE INVESTMENT ADVISERS ACT OF 1940 AND RELEVANT UK FINANCIAL CONDUCT AUTHORITY (FCA) RECORD KEEPING REQUIREMENTS IN RELATION TO ACTIVITIES CARRIED OUT BY THE FIRM, INCLUDING THOSE RELATING TO THE FIRM'S INVESTMENT ADVISORY BUSINESS."
1039601,"RECALL","697 GARDENERS ROAD","","SYDNEY, NSW","","Australia","2015","N","+61 2 95820111","+61 2 95820333","A third-party unaffiliated record keeper","ARCHIVED PAPERWORK AND DOCUMENTATION"
1039601,"X CENTRAL","394 LANE COVE ROAD","","MACQUARIE PARK, NSW","","Australia","2113","N","+611300881113","","A third-party unaffiliated record keeper","SERVER BACKUP"
1040635,"JURISTAX SERVICES LIMITED","EBENE HOUSE, HOTEL AVENUE, 33 CYBERCITY","LEVEL 3","EBENE","","Mauritius","72201","N","+230 465 5526","+230 468 1886","A third-party unaffiliated record keeper","SUBSCRIPTION AND ACCOUNTING DOCUMENTS AND RECORDS."
1032696,"REES POLLOCK","35 NEW BRIDGE STREET","","LONDON","","United Kingdom","EC4V 6BW","N","020 7778 720","","A third-party unaffiliated record keeper","ACCOUNTING RECORDS RELATING TO ENA INVESTMENT CAPITAL LLP"
1032696,"CITCO FUND ADMINISTRATION (CAYMAN ISLANDS) LIMITED","89 NEXUS WAY","CAMANA BAY PO BOX 31106","GRAND CAYMAN","","Cayman Islands","KY11205","N","1 345 949 397","","A third-party unaffiliated record keeper","FUND RECORDS FOR ENA OPPORTUNITY MASTER FUND LP"
